{"type":"FeatureCollection","features":[{"type":"Feature","properties":{"ADM0_A3":"FJI","NAME":"Fiji","NAME_LONG":"Fiji","ABBREV":"Fiji","LABELRANK":6,"MIN_LABEL":3,"MAX_LABEL":8},"geometry":{"type":"Point","coordinates":[177.975427,-17.826099]}},{"type":"Feature","properties":{"ADM0_A3":"TZA","NAME":"Tanzania","NAME_LONG":"Tanzania","ABBREV":"Tanz.","LABELRANK":3,"MIN_LABEL":3,"MAX_LABEL":8},"geometry":{"type":"Point","coordinates":[34.959183,-6.051866]}},{"type":"Feature","properties":{"ADM0_A3":"SAH","NAME":"W. Sahara","NAME_LONG":"Western Sahara","ABBREV":"W. Sah.","LABELRANK":7,"MIN_LABEL":6,"MAX_LABEL":11},"geometry":{"type":"Point","coordinates":[-12.630304,23.967592]}},{"type":"Feature","properties":{"ADM0_A3":"CAN","NAME":"Canada","NAME_LONG":"Canada","ABBREV":"Can.","LABELRANK":2,"MIN_LABEL":1.7,"MAX_LABEL":5.7},"geometry":{"type":"Point","coordinates":[-101.9107,60.324287]}},{"type":"Feature","properties":{"ADM0_A3":"USA","NAME":"United States of America","NAME_LONG":"United States","ABBREV":"U.S.A.","LABELRANK":2,"MIN_LABEL":1.7,"MAX_LABEL":5.7},"geometry":{"type":"Point","coordinates":[-97.482602,39.538479]}},{"type":"Feature","properties":{"ADM0_A3":"KAZ","NAME":"Kazakhstan","NAME_LONG":"Kazakhstan","ABBREV":"Kaz.","LABELRANK":3,"MIN_LABEL":2.7,"MAX_LABEL":7},"geometry":{"type":"Point","coordinates":[68.685548,49.054149]}},{"type":"Feature","properties":{"ADM0_A3":"UZB","NAME":"Uzbekistan","NAME_LONG":"Uzbekistan","ABBREV":"Uzb.","LABELRANK":3,"MIN_LABEL":3,"MAX_LABEL":8},"geometry":{"type":"Point","coordinates":[64.005429,41.693603]}},{"type":"Feature","properties":{"ADM0_A3":"PNG","NAME":"Papua New Guinea","NAME_LONG":"Papua New Guinea","ABBREV":"P.N.G.","LABELRANK":2,"MIN_LABEL":2.5,"MAX_LABEL":7.5},"geometry":{"type":"Point","coordinates":[143.910216,-5.695285]}},{"type":"Feature","properties":{"ADM0_A3":"IDN","NAME":"Indonesia","NAME_LONG":"Indonesia","ABBREV":"Indo.","LABELRANK":2,"MIN_LABEL":1.7,"MAX_LABEL":6.7},"geometry":{"type":"Point","coordinates":[101.892949,-0.954404]}},{"type":"Feature","properties":{"ADM0_A3":"ARG","NAME":"Argentina","NAME_LONG":"Argentina","ABBREV":"Arg.","LABELRANK":2,"MIN_LABEL":2,"MAX_LABEL":7},"geometry":{"type":"Point","coordinates":[-64.173331,-33.501159]}},{"type":"Feature","properties":{"ADM0_A3":"CHL","NAME":"Chile","NAME_LONG":"Chile","ABBREV":"Chile","LABELRANK":2,"MIN_LABEL":1.7,"MAX_LABEL":6.7},"geometry":{"type":"Point","coordinates":[-72.318871,-38.151771]}},{"type":"Feature","properties":{"ADM0_A3":"COD","NAME":"Dem. Rep. Congo","NAME_LONG":"Democratic Republic of the Congo","ABBREV":"D.R.C.","LABELRANK":2,"MIN_LABEL":2,"MAX_LABEL":7},"geometry":{"type":"Point","coordinates":[23.458829,-1.858167]}},{"type":"Feature","properties":{"ADM0_A3":"SOM","NAME":"Somalia","NAME_LONG":"Somalia","ABBREV":"Som.","LABELRANK":6,"MIN_LABEL":4,"MAX_LABEL":9},"geometry":{"type":"Point","coordinates":[45.19238,3.568925]}},{"type":"Feature","properties":{"ADM0_A3":"KEN","NAME":"Kenya","NAME_LONG":"Kenya","ABBREV":"Ken.","LABELRANK":2,"MIN_LABEL":1.7,"MAX_LABEL":6.7},"geometry":{"type":"Point","coordinates":[37.907632,0.549043]}},{"type":"Feature","properties":{"ADM0_A3":"SDN","NAME":"Sudan","NAME_LONG":"Sudan","ABBREV":"Sudan","LABELRANK":3,"MIN_LABEL":2.5,"MAX_LABEL":8},"geometry":{"type":"Point","coordinates":[29.260657,16.330746]}},{"type":"Feature","properties":{"ADM0_A3":"TCD","NAME":"Chad","NAME_LONG":"Chad","ABBREV":"Chad","LABELRANK":3,"MIN_LABEL":3,"MAX_LABEL":8},"geometry":{"type":"Point","coordinates":[18.645041,15.142959]}},{"type":"Feature","properties":{"ADM0_A3":"HTI","NAME":"Haiti","NAME_LONG":"Haiti","ABBREV":"Haiti","LABELRANK":5,"MIN_LABEL":4,"MAX_LABEL":9},"geometry":{"type":"Point","coordinates":[-72.224051,19.263784]}},{"type":"Feature","properties":{"ADM0_A3":"DOM","NAME":"Dominican Rep.","NAME_LONG":"Dominican Republic","ABBREV":"Dom. Rep.","LABELRANK":5,"MIN_LABEL":4.5,"MAX_LABEL":9.5},"geometry":{"type":"Point","coordinates":[-70.653998,19.104137]}},{"type":"Feature","properties":{"ADM0_A3":"RUS","NAME":"Russia","NAME_LONG":"Russian Federation","ABBREV":"Rus.","LABELRANK":2,"MIN_LABEL":1.7,"MAX_LABEL":5.2},"geometry":{"type":"Point","coordinates":[44.686469,58.249357]}},{"type":"Feature","properties":{"ADM0_A3":"BHS","NAME":"Bahamas","NAME_LONG":"Bahamas","ABBREV":"Bhs.","LABELRANK":4,"MIN_LABEL":4,"MAX_LABEL":9},"geometry":{"type":"Point","coordinates":[-77.146688,26.401789]}},{"type":"Feature","properties":{"ADM0_A3":"FLK","NAME":"Falkland Is.","NAME_LONG":"Falkland Islands / Malvinas","ABBREV":"Flk. Is.","LABELRANK":5,"MIN_LABEL":4.5,"MAX_LABEL":9},"geometry":{"type":"Point","coordinates":[-58.738602,-51.608913]}},{"type":"Feature","properties":{"ADM0_A3":"NOR","NAME":"Norway","NAME_LONG":"Norway","ABBREV":"Nor.","LABELRANK":3,"MIN_LABEL":3,"MAX_LABEL":7},"geometry":{"type":"Point","coordinates":[9.679975,61.357092]}},{"type":"Feature","properties":{"ADM0_A3":"GRL","NAME":"Greenland","NAME_LONG":"Greenland","ABBREV":"Grlnd.","LABELRANK":3,"MIN_LABEL":1.7,"MAX_LABEL":6.7},"geometry":{"type":"Point","coordinates":[-39.335251,74.319387]}},{"type":"Feature","properties":{"ADM0_A3":"ATF","NAME":"Fr. S. Antarctic Lands","NAME_LONG":"French Southern and Antarctic Lands","ABBREV":"Fr. S.A.L.","LABELRANK":6,"MIN_LABEL":4,"MAX_LABEL":9},"geometry":{"type":"Point","coordinates":[69.122136,-49.303721]}},{"type":"Feature","properties":{"ADM0_A3":"TLS","NAME":"Timor-Leste","NAME_LONG":"Timor-Leste","ABBREV":"T.L.","LABELRANK":5,"MIN_LABEL":4,"MAX_LABEL":9},"geometry":{"type":"Point","coordinates":[125.854679,-8.803705]}},{"type":"Feature","properties":{"ADM0_A3":"ZAF","NAME":"South Africa","NAME_LONG":"South Africa","ABBREV":"S.Af.","LABELRANK":2,"MIN_LABEL":1.7,"MAX_LABEL":6.7},"geometry":{"type":"Point","coordinates":[23.665734,-29.708776]}},{"type":"Feature","properties":{"ADM0_A3":"LSO","NAME":"Lesotho","NAME_LONG":"Lesotho","ABBREV":"Les.","LABELRANK":6,"MIN_LABEL":4,"MAX_LABEL":9},"geometry":{"type":"Point","coordinates":[28.246639,-29.480158]}},{"type":"Feature","properties":{"ADM0_A3":"MEX","NAME":"Mexico","NAME_LONG":"Mexico","ABBREV":"Mex.","LABELRANK":2,"MIN_LABEL":2,"MAX_LABEL":6.7},"geometry":{"type":"Point","coordinates":[-102.289448,23.919988]}},{"type":"Feature","properties":{"ADM0_A3":"URY","NAME":"Uruguay","NAME_LONG":"Uruguay","ABBREV":"Ury.","LABELRANK":4,"MIN_LABEL":3,"MAX_LABEL":8},"geometry":{"type":"Point","coordinates":[-55.966942,-32.961127]}},{"type":"Feature","properties":{"ADM0_A3":"BRA","NAME":"Brazil","NAME_LONG":"Brazil","ABBREV":"Brazil","LABELRANK":2,"MIN_LABEL":1.7,"MAX_LABEL":5.7},"geometry":{"type":"Point","coordinates":[-49.55945,-12.098687]}},{"type":"Feature","properties":{"ADM0_A3":"BOL","NAME":"Bolivia","NAME_LONG":"Bolivia","ABBREV":"Bolivia","LABELRANK":3,"MIN_LABEL":3,"MAX_LABEL":7.5},"geometry":{"type":"Point","coordinates":[-64.593433,-16.666015]}},{"type":"Feature","properties":{"ADM0_A3":"PER","NAME":"Peru","NAME_LONG":"Peru","ABBREV":"Peru","LABELRANK":2,"MIN_LABEL":2,"MAX_LABEL":7},"geometry":{"type":"Point","coordinates":[-72.90016,-12.976679]}},{"type":"Feature","properties":{"ADM0_A3":"COL","NAME":"Colombia","NAME_LONG":"Colombia","ABBREV":"Col.","LABELRANK":2,"MIN_LABEL":3,"MAX_LABEL":7},"geometry":{"type":"Point","coordinates":[-73.174347,3.373111]}},{"type":"Feature","properties":{"ADM0_A3":"PAN","NAME":"Panama","NAME_LONG":"Panama","ABBREV":"Pan.","LABELRANK":4,"MIN_LABEL":4,"MAX_LABEL":9},"geometry":{"type":"Point","coordinates":[-80.352106,8.72198]}},{"type":"Feature","properties":{"ADM0_A3":"CRI","NAME":"Costa Rica","NAME_LONG":"Costa Rica","ABBREV":"C.R.","LABELRANK":5,"MIN_LABEL":2.5,"MAX_LABEL":8},"geometry":{"type":"Point","coordinates":[-84.077922,10.0651]}},{"type":"Feature","properties":{"ADM0_A3":"NIC","NAME":"Nicaragua","NAME_LONG":"Nicaragua","ABBREV":"Nic.","LABELRANK":5,"MIN_LABEL":4,"MAX_LABEL":9},"geometry":{"type":"Point","coordinates":[-85.069347,12.670697]}},{"type":"Feature","properties":{"ADM0_A3":"HND","NAME":"Honduras","NAME_LONG":"Honduras","ABBREV":"Hond.","LABELRANK":5,"MIN_LABEL":4.5,"MAX_LABEL":9.5},"geometry":{"type":"Point","coordinates":[-86.887604,14.794801]}},{"type":"Feature","properties":{"ADM0_A3":"SLV","NAME":"El Salvador","NAME_LONG":"El Salvador","ABBREV":"El. S.","LABELRANK":6,"MIN_LABEL":5,"MAX_LABEL":10},"geometry":{"type":"Point","coordinates":[-88.890124,13.685371]}},{"type":"Feature","properties":{"ADM0_A3":"GTM","NAME":"Guatemala","NAME_LONG":"Guatemala","ABBREV":"Guat.","LABELRANK":3,"MIN_LABEL":3,"MAX_LABEL":8},"geometry":{"type":"Point","coordinates":[-90.497134,14.982133]}},{"type":"Feature","properties":{"ADM0_A3":"BLZ","NAME":"Belize","NAME_LONG":"Belize","ABBREV":"Belize","LABELRANK":6,"MIN_LABEL":5,"MAX_LABEL":10},"geometry":{"type":"Point","coordinates":[-88.712962,17.202068]}},{"type":"Feature","properties":{"ADM0_A3":"VEN","NAME":"Venezuela","NAME_LONG":"Venezuela","ABBREV":"Ven.","LABELRANK":3,"MIN_LABEL":2.5,"MAX_LABEL":7.5},"geometry":{"type":"Point","coordinates":[-64.599381,7.182476]}},{"type":"Feature","properties":{"ADM0_A3":"GUY","NAME":"Guyana","NAME_LONG":"Guyana","ABBREV":"Guy.","LABELRANK":4,"MIN_LABEL":4,"MAX_LABEL":9},"geometry":{"type":"Point","coordinates":[-58.942643,5.124317]}},{"type":"Feature","properties":{"ADM0_A3":"SUR","NAME":"Suriname","NAME_LONG":"Suriname","ABBREV":"Sur.","LABELRANK":4,"MIN_LABEL":4,"MAX_LABEL":9},"geometry":{"type":"Point","coordinates":[-55.91094,4.143987]}},{"type":"Feature","properties":{"ADM0_A3":"FRA","NAME":"France","NAME_LONG":"France","ABBREV":"Fr.","LABELRANK":2,"MIN_LABEL":1.7,"MAX_LABEL":6.7},"geometry":{"type":"Point","coordinates":[2.552275,46.696113]}},{"type":"Feature","properties":{"ADM0_A3":"ECU","NAME":"Ecuador","NAME_LONG":"Ecuador","ABBREV":"Ecu.","LABELRANK":3,"MIN_LABEL":3,"MAX_LABEL":8},"geometry":{"type":"Point","coordinates":[-78.188375,-1.259076]}},{"type":"Feature","properties":{"ADM0_A3":"PRI","NAME":"Puerto Rico","NAME_LONG":"Puerto Rico","ABBREV":"P.R.","LABELRANK":5,"MIN_LABEL":3,"MAX_LABEL":8},"geometry":{"type":"Point","coordinates":[-66.481065,18.234668]}},{"type":"Feature","properties":{"ADM0_A3":"JAM","NAME":"Jamaica","NAME_LONG":"Jamaica","ABBREV":"Jam.","LABELRANK":4,"MIN_LABEL":4,"MAX_LABEL":9},"geometry":{"type":"Point","coordinates":[-77.318767,18.137124]}},{"type":"Feature","properties":{"ADM0_A3":"CUB","NAME":"Cuba","NAME_LONG":"Cuba","ABBREV":"Cuba","LABELRANK":3,"MIN_LABEL":2.7,"MAX_LABEL":8},"geometry":{"type":"Point","coordinates":[-77.975855,21.334024]}},{"type":"Feature","properties":{"ADM0_A3":"ZWE","NAME":"Zimbabwe","NAME_LONG":"Zimbabwe","ABBREV":"Zimb.","LABELRANK":3,"MIN_LABEL":2.5,"MAX_LABEL":8},"geometry":{"type":"Point","coordinates":[29.925444,-18.91164]}},{"type":"Feature","properties":{"ADM0_A3":"BWA","NAME":"Botswana","NAME_LONG":"Botswana","ABBREV":"Bwa.","LABELRANK":4,"MIN_LABEL":4,"MAX_LABEL":9},"geometry":{"type":"Point","coordinates":[24.179216,-22.102634]}},{"type":"Feature","properties":{"ADM0_A3":"NAM","NAME":"Namibia","NAME_LONG":"Namibia","ABBREV":"Nam.","LABELRANK":3,"MIN_LABEL":3,"MAX_LABEL":7.5},"geometry":{"type":"Point","coordinates":[17.108166,-20.575298]}},{"type":"Feature","properties":{"ADM0_A3":"SEN","NAME":"Senegal","NAME_LONG":"Senegal","ABBREV":"Sen.","LABELRANK":3,"MIN_LABEL":2.7,"MAX_LABEL":8},"geometry":{"type":"Point","coordinates":[-14.778586,15.138125]}},{"type":"Feature","properties":{"ADM0_A3":"MLI","NAME":"Mali","NAME_LONG":"Mali","ABBREV":"Mali","LABELRANK":3,"MIN_LABEL":3,"MAX_LABEL":7},"geometry":{"type":"Point","coordinates":[-2.038455,18.692713]}},{"type":"Feature","properties":{"ADM0_A3":"MRT","NAME":"Mauritania","NAME_LONG":"Mauritania","ABBREV":"Mrt.","LABELRANK":3,"MIN_LABEL":3,"MAX_LABEL":8},"geometry":{"type":"Point","coordinates":[-9.740299,19.587062]}},{"type":"Feature","properties":{"ADM0_A3":"BEN","NAME":"Benin","NAME_LONG":"Benin","ABBREV":"Benin","LABELRANK":5,"MIN_LABEL":4,"MAX_LABEL":9},"geometry":{"type":"Point","coordinates":[2.352018,10.324775]}},{"type":"Feature","properties":{"ADM0_A3":"NER","NAME":"Niger","NAME_LONG":"Niger","ABBREV":"Niger","LABELRANK":3,"MIN_LABEL":3,"MAX_LABEL":8},"geometry":{"type":"Point","coordinates":[9.504356,17.446195]}},{"type":"Feature","properties":{"ADM0_A3":"NGA","NAME":"Nigeria","NAME_LONG":"Nigeria","ABBREV":"Nigeria","LABELRANK":2,"MIN_LABEL":1.7,"MAX_LABEL":6.7},"geometry":{"type":"Point","coordinates":[7.50322,9.439799]}},{"type":"Feature","properties":{"ADM0_A3":"CMR","NAME":"Cameroon","NAME_LONG":"Cameroon","ABBREV":"Cam.","LABELRANK":3,"MIN_LABEL":3,"MAX_LABEL":8},"geometry":{"type":"Point","coordinates":[12.473488,4.585041]}},{"type":"Feature","properties":{"ADM0_A3":"TGO","NAME":"Togo","NAME_LONG":"Togo","ABBREV":"Togo","LABELRANK":6,"MIN_LABEL":5,"MAX_LABEL":10},"geometry":{"type":"Point","coordinates":[1.058113,8.80722]}},{"type":"Feature","properties":{"ADM0_A3":"GHA","NAME":"Ghana","NAME_LONG":"Ghana","ABBREV":"Ghana","LABELRANK":3,"MIN_LABEL":2.7,"MAX_LABEL":8},"geometry":{"type":"Point","coordinates":[-1.036941,7.717639]}},{"type":"Feature","properties":{"ADM0_A3":"CIV","NAME":"C\u00f4te d'Ivoire","NAME_LONG":"C\u00f4te d'Ivoire","ABBREV":"I.C.","LABELRANK":3,"MIN_LABEL":2.5,"MAX_LABEL":8},"geometry":{"type":"Point","coordinates":[-5.568618,7.49139]}},{"type":"Feature","properties":{"ADM0_A3":"GIN","NAME":"Guinea","NAME_LONG":"Guinea","ABBREV":"Gin.","LABELRANK":3,"MIN_LABEL":3,"MAX_LABEL":8},"geometry":{"type":"Point","coordinates":[-10.016402,10.618516]}},{"type":"Feature","properties":{"ADM0_A3":"GNB","NAME":"Guinea-Bissau","NAME_LONG":"Guinea-Bissau","ABBREV":"GnB.","LABELRANK":6,"MIN_LABEL":5,"MAX_LABEL":10},"geometry":{"type":"Point","coordinates":[-14.52413,12.163712]}},{"type":"Feature","properties":{"ADM0_A3":"LBR","NAME":"Liberia","NAME_LONG":"Liberia","ABBREV":"Liberia","LABELRANK":4,"MIN_LABEL":4,"MAX_LABEL":9},"geometry":{"type":"Point","coordinates":[-9.460379,6.447177]}},{"type":"Feature","properties":{"ADM0_A3":"SLE","NAME":"Sierra Leone","NAME_LONG":"Sierra Leone","ABBREV":"S.L.","LABELRANK":4,"MIN_LABEL":4,"MAX_LABEL":9},"geometry":{"type":"Point","coordinates":[-11.763677,8.617449]}},{"type":"Feature","properties":{"ADM0_A3":"BFA","NAME":"Burkina Faso","NAME_LONG":"Burkina Faso","ABBREV":"B.F.","LABELRANK":3,"MIN_LABEL":3,"MAX_LABEL":8},"geometry":{"type":"Point","coordinates":[-1.36388,12.673048]}},{"type":"Feature","properties":{"ADM0_A3":"CAF","NAME":"Central African Rep.","NAME_LONG":"Central African Republic","ABBREV":"C.A.R.","LABELRANK":4,"MIN_LABEL":4,"MAX_LABEL":9},"geometry":{"type":"Point","coordinates":[20.906897,6.989681]}},{"type":"Feature","properties":{"ADM0_A3":"COG","NAME":"Congo","NAME_LONG":"Republic of the Congo","ABBREV":"Rep. Congo","LABELRANK":4,"MIN_LABEL":4,"MAX_LABEL":9},"geometry":{"type":"Point","coordinates":[15.9005,0.142331]}},{"type":"Feature","properties":{"ADM0_A3":"GAB","NAME":"Gabon","NAME_LONG":"Gabon","ABBREV":"Gabon","LABELRANK":4,"MIN_LABEL":3,"MAX_LABEL":8},"geometry":{"type":"Point","coordinates":[11.835939,-0.437739]}},{"type":"Feature","properties":{"ADM0_A3":"GNQ","NAME":"Eq. Guinea","NAME_LONG":"Equatorial Guinea","ABBREV":"Eq. G.","LABELRANK":4,"MIN_LABEL":4,"MAX_LABEL":9},"geometry":{"type":"Point","coordinates":[8.9902,2.333]}},{"type":"Feature","properties":{"ADM0_A3":"ZMB","NAME":"Zambia","NAME_LONG":"Zambia","ABBREV":"Zambia","LABELRANK":3,"MIN_LABEL":3,"MAX_LABEL":8},"geometry":{"type":"Point","coordinates":[26.395298,-14.660804]}},{"type":"Feature","properties":{"ADM0_A3":"MWI","NAME":"Malawi","NAME_LONG":"Malawi","ABBREV":"Mal.","LABELRANK":6,"MIN_LABEL":4,"MAX_LABEL":9},"geometry":{"type":"Point","coordinates":[33.608082,-13.386737]}},{"type":"Feature","properties":{"ADM0_A3":"MOZ","NAME":"Mozambique","NAME_LONG":"Mozambique","ABBREV":"Moz.","LABELRANK":3,"MIN_LABEL":3,"MAX_LABEL":8},"geometry":{"type":"Point","coordinates":[37.83789,-13.94323]}},{"type":"Feature","properties":{"ADM0_A3":"SWZ","NAME":"eSwatini","NAME_LONG":"Kingdom of eSwatini","ABBREV":"eSw.","LABELRANK":4,"MIN_LABEL":4,"MAX_LABEL":9},"geometry":{"type":"Point","coordinates":[31.467264,-26.533676]}},{"type":"Feature","properties":{"ADM0_A3":"AGO","NAME":"Angola","NAME_LONG":"Angola","ABBREV":"Ang.","LABELRANK":3,"MIN_LABEL":3,"MAX_LABEL":7},"geometry":{"type":"Point","coordinates":[17.984249,-12.182762]}},{"type":"Feature","properties":{"ADM0_A3":"BDI","NAME":"Burundi","NAME_LONG":"Burundi","ABBREV":"Bur.","LABELRANK":6,"MIN_LABEL":4,"MAX_LABEL":9},"geometry":{"type":"Point","coordinates":[29.917086,-3.332836]}},{"type":"Feature","properties":{"ADM0_A3":"ISR","NAME":"Israel","NAME_LONG":"Israel","ABBREV":"Isr.","LABELRANK":4,"MIN_LABEL":3,"MAX_LABEL":8},"geometry":{"type":"Point","coordinates":[34.847915,30.911148]}},{"type":"Feature","properties":{"ADM0_A3":"LBN","NAME":"Lebanon","NAME_LONG":"Lebanon","ABBREV":"Leb.","LABELRANK":5,"MIN_LABEL":4,"MAX_LABEL":9},"geometry":{"type":"Point","coordinates":[35.992892,34.133368]}},{"type":"Feature","properties":{"ADM0_A3":"MDG","NAME":"Madagascar","NAME_LONG":"Madagascar","ABBREV":"Mad.","LABELRANK":3,"MIN_LABEL":2.7,"MAX_LABEL":7},"geometry":{"type":"Point","coordinates":[46.704241,-18.628288]}},{"type":"Feature","properties":{"ADM0_A3":"PSX","NAME":"Palestine","NAME_LONG":"Palestine","ABBREV":"Pal.","LABELRANK":5,"MIN_LABEL":4.5,"MAX_LABEL":9.5},"geometry":{"type":"Point","coordinates":[35.291341,32.047431]}},{"type":"Feature","properties":{"ADM0_A3":"GMB","NAME":"Gambia","NAME_LONG":"The Gambia","ABBREV":"Gambia","LABELRANK":6,"MIN_LABEL":5,"MAX_LABEL":10},"geometry":{"type":"Point","coordinates":[-14.998318,13.641721]}},{"type":"Feature","properties":{"ADM0_A3":"TUN","NAME":"Tunisia","NAME_LONG":"Tunisia","ABBREV":"Tun.","LABELRANK":3,"MIN_LABEL":3,"MAX_LABEL":8},"geometry":{"type":"Point","coordinates":[9.007881,33.687263]}},{"type":"Feature","properties":{"ADM0_A3":"DZA","NAME":"Algeria","NAME_LONG":"Algeria","ABBREV":"Alg.","LABELRANK":3,"MIN_LABEL":2.5,"MAX_LABEL":7},"geometry":{"type":"Point","coordinates":[2.808241,27.397406]}},{"type":"Feature","properties":{"ADM0_A3":"JOR","NAME":"Jordan","NAME_LONG":"Jordan","ABBREV":"Jord.","LABELRANK":4,"MIN_LABEL":4,"MAX_LABEL":9},"geometry":{"type":"Point","coordinates":[36.375991,30.805025]}},{"type":"Feature","properties":{"ADM0_A3":"ARE","NAME":"United Arab Emirates","NAME_LONG":"United Arab Emirates","ABBREV":"U.A.E.","LABELRANK":4,"MIN_LABEL":4,"MAX_LABEL":9},"geometry":{"type":"Point","coordinates":[54.547256,23.466285]}},{"type":"Feature","properties":{"ADM0_A3":"QAT","NAME":"Qatar","NAME_LONG":"Qatar","ABBREV":"Qatar","LABELRANK":5,"MIN_LABEL":4,"MAX_LABEL":9},"geometry":{"type":"Point","coordinates":[51.143509,25.237383]}},{"type":"Feature","properties":{"ADM0_A3":"KWT","NAME":"Kuwait","NAME_LONG":"Kuwait","ABBREV":"Kwt.","LABELRANK":6,"MIN_LABEL":5,"MAX_LABEL":10},"geometry":{"type":"Point","coordinates":[47.313999,29.413628]}},{"type":"Feature","properties":{"ADM0_A3":"IRQ","NAME":"Iraq","NAME_LONG":"Iraq","ABBREV":"Iraq","LABELRANK":3,"MIN_LABEL":3,"MAX_LABEL":7.5},"geometry":{"type":"Point","coordinates":[43.26181,33.09403]}},{"type":"Feature","properties":{"ADM0_A3":"OMN","NAME":"Oman","NAME_LONG":"Oman","ABBREV":"Oman","LABELRANK":4,"MIN_LABEL":4,"MAX_LABEL":9},"geometry":{"type":"Point","coordinates":[57.336553,22.120427]}},{"type":"Feature","properties":{"ADM0_A3":"VUT","NAME":"Vanuatu","NAME_LONG":"Vanuatu","ABBREV":"Van.","LABELRANK":4,"MIN_LABEL":4,"MAX_LABEL":9},"geometry":{"type":"Point","coordinates":[166.908762,-15.37153]}},{"type":"Feature","properties":{"ADM0_A3":"KHM","NAME":"Cambodia","NAME_LONG":"Cambodia","ABBREV":"Camb.","LABELRANK":3,"MIN_LABEL":3,"MAX_LABEL":8},"geometry":{"type":"Point","coordinates":[104.50487,12.647584]}},{"type":"Feature","properties":{"ADM0_A3":"THA","NAME":"Thailand","NAME_LONG":"Thailand","ABBREV":"Thai.","LABELRANK":3,"MIN_LABEL":2.7,"MAX_LABEL":8},"geometry":{"type":"Point","coordinates":[101.073198,15.45974]}},{"type":"Feature","properties":{"ADM0_A3":"LAO","NAME":"Laos","NAME_LONG":"Lao PDR","ABBREV":"Laos","LABELRANK":4,"MIN_LABEL":4,"MAX_LABEL":9},"geometry":{"type":"Point","coordinates":[102.533912,19.431821]}},{"type":"Feature","properties":{"ADM0_A3":"MMR","NAME":"Myanmar","NAME_LONG":"Myanmar","ABBREV":"Myan.","LABELRANK":3,"MIN_LABEL":3,"MAX_LABEL":8},"geometry":{"type":"Point","coordinates":[95.804497,21.573855]}},{"type":"Feature","properties":{"ADM0_A3":"VNM","NAME":"Vietnam","NAME_LONG":"Vietnam","ABBREV":"Viet.","LABELRANK":2,"MIN_LABEL":2,"MAX_LABEL":7},"geometry":{"type":"Point","coordinates":[105.387292,21.715416]}},{"type":"Feature","properties":{"ADM0_A3":"PRK","NAME":"North Korea","NAME_LONG":"Dem. Rep. Korea","ABBREV":"N.K.","LABELRANK":3,"MIN_LABEL":3,"MAX_LABEL":8},"geometry":{"type":"Point","coordinates":[126.444516,39.885252]}},{"type":"Feature","properties":{"ADM0_A3":"KOR","NAME":"South Korea","NAME_LONG":"Republic of Korea","ABBREV":"S.K.","LABELRANK":2,"MIN_LABEL":2.5,"MAX_LABEL":7},"geometry":{"type":"Point","coordinates":[128.129504,36.384924]}},{"type":"Feature","properties":{"ADM0_A3":"MNG","NAME":"Mongolia","NAME_LONG":"Mongolia","ABBREV":"Mong.","LABELRANK":3,"MIN_LABEL":3,"MAX_LABEL":7},"geometry":{"type":"Point","coordinates":[104.150405,45.997488]}},{"type":"Feature","properties":{"ADM0_A3":"IND","NAME":"India","NAME_LONG":"India","ABBREV":"India","LABELRANK":2,"MIN_LABEL":1.7,"MAX_LABEL":6.7},"geometry":{"type":"Point","coordinates":[79.358105,22.686852]}},{"type":"Feature","properties":{"ADM0_A3":"BGD","NAME":"Bangladesh","NAME_LONG":"Bangladesh","ABBREV":"Bang.","LABELRANK":3,"MIN_LABEL":3,"MAX_LABEL":8},"geometry":{"type":"Point","coordinates":[89.684963,24.214956]}},{"type":"Feature","properties":{"ADM0_A3":"BTN","NAME":"Bhutan","NAME_LONG":"Bhutan","ABBREV":"Bhutan","LABELRANK":5,"MIN_LABEL":4,"MAX_LABEL":9},"geometry":{"type":"Point","coordinates":[90.040294,27.536685]}},{"type":"Feature","properties":{"ADM0_A3":"NPL","NAME":"Nepal","NAME_LONG":"Nepal","ABBREV":"Nepal","LABELRANK":3,"MIN_LABEL":3,"MAX_LABEL":8},"geometry":{"type":"Point","coordinates":[83.639914,28.297925]}},{"type":"Feature","properties":{"ADM0_A3":"PAK","NAME":"Pakistan","NAME_LONG":"Pakistan","ABBREV":"Pak.","LABELRANK":2,"MIN_LABEL":2.7,"MAX_LABEL":7},"geometry":{"type":"Point","coordinates":[68.545632,29.328389]}},{"type":"Feature","properties":{"ADM0_A3":"AFG","NAME":"Afghanistan","NAME_LONG":"Afghanistan","ABBREV":"Afg.","LABELRANK":3,"MIN_LABEL":3,"MAX_LABEL":7},"geometry":{"type":"Point","coordinates":[66.496586,34.164262]}},{"type":"Feature","properties":{"ADM0_A3":"TJK","NAME":"Tajikistan","NAME_LONG":"Tajikistan","ABBREV":"Tjk.","LABELRANK":4,"MIN_LABEL":4,"MAX_LABEL":9},"geometry":{"type":"Point","coordinates":[72.587276,38.199835]}},{"type":"Feature","properties":{"ADM0_A3":"KGZ","NAME":"Kyrgyzstan","NAME_LONG":"Kyrgyzstan","ABBREV":"Kgz.","LABELRANK":4,"MIN_LABEL":3,"MAX_LABEL":8},"geometry":{"type":"Point","coordinates":[74.532637,41.66854]}},{"type":"Feature","properties":{"ADM0_A3":"TKM","NAME":"Turkmenistan","NAME_LONG":"Turkmenistan","ABBREV":"Turkm.","LABELRANK":4,"MIN_LABEL":3,"MAX_LABEL":8},"geometry":{"type":"Point","coordinates":[58.676647,39.855246]}},{"type":"Feature","properties":{"ADM0_A3":"IRN","NAME":"Iran","NAME_LONG":"Iran","ABBREV":"Iran","LABELRANK":2,"MIN_LABEL":2.5,"MAX_LABEL":6.7},"geometry":{"type":"Point","coordinates":[54.931495,32.166225]}},{"type":"Feature","properties":{"ADM0_A3":"SYR","NAME":"Syria","NAME_LONG":"Syria","ABBREV":"Syria","LABELRANK":3,"MIN_LABEL":3,"MAX_LABEL":8},"geometry":{"type":"Point","coordinates":[38.277783,35.006636]}},{"type":"Feature","properties":{"ADM0_A3":"ARM","NAME":"Armenia","NAME_LONG":"Armenia","ABBREV":"Arm.","LABELRANK":6,"MIN_LABEL":5,"MAX_LABEL":10},"geometry":{"type":"Point","coordinates":[44.800564,40.459077]}},{"type":"Feature","properties":{"ADM0_A3":"SWE","NAME":"Sweden","NAME_LONG":"Sweden","ABBREV":"Swe.","LABELRANK":3,"MIN_LABEL":2,"MAX_LABEL":7},"geometry":{"type":"Point","coordinates":[19.01705,65.85918]}},{"type":"Feature","properties":{"ADM0_A3":"BLR","NAME":"Belarus","NAME_LONG":"Belarus","ABBREV":"Bela.","LABELRANK":4,"MIN_LABEL":3,"MAX_LABEL":8},"geometry":{"type":"Point","coordinates":[28.417701,53.821888]}},{"type":"Feature","properties":{"ADM0_A3":"UKR","NAME":"Ukraine","NAME_LONG":"Ukraine","ABBREV":"Ukr.","LABELRANK":3,"MIN_LABEL":2.7,"MAX_LABEL":7},"geometry":{"type":"Point","coordinates":[32.140865,49.724739]}},{"type":"Feature","properties":{"ADM0_A3":"POL","NAME":"Poland","NAME_LONG":"Poland","ABBREV":"Pol.","LABELRANK":3,"MIN_LABEL":2.5,"MAX_LABEL":7},"geometry":{"type":"Point","coordinates":[19.490468,51.990316]}},{"type":"Feature","properties":{"ADM0_A3":"AUT","NAME":"Austria","NAME_LONG":"Austria","ABBREV":"Aust.","LABELRANK":4,"MIN_LABEL":3,"MAX_LABEL":8},"geometry":{"type":"Point","coordinates":[14.130515,47.518859]}},{"type":"Feature","properties":{"ADM0_A3":"HUN","NAME":"Hungary","NAME_LONG":"Hungary","ABBREV":"Hun.","LABELRANK":5,"MIN_LABEL":4,"MAX_LABEL":9},"geometry":{"type":"Point","coordinates":[19.447867,47.086841]}},{"type":"Feature","properties":{"ADM0_A3":"MDA","NAME":"Moldova","NAME_LONG":"Moldova","ABBREV":"Mda.","LABELRANK":6,"MIN_LABEL":5,"MAX_LABEL":10},"geometry":{"type":"Point","coordinates":[28.487904,47.434999]}},{"type":"Feature","properties":{"ADM0_A3":"ROU","NAME":"Romania","NAME_LONG":"Romania","ABBREV":"Rom.","LABELRANK":3,"MIN_LABEL":3,"MAX_LABEL":8},"geometry":{"type":"Point","coordinates":[24.972624,45.733237]}},{"type":"Feature","properties":{"ADM0_A3":"LTU","NAME":"Lithuania","NAME_LONG":"Lithuania","ABBREV":"Lith.","LABELRANK":5,"MIN_LABEL":4,"MAX_LABEL":9},"geometry":{"type":"Point","coordinates":[24.089932,55.103703]}},{"type":"Feature","properties":{"ADM0_A3":"LVA","NAME":"Latvia","NAME_LONG":"Latvia","ABBREV":"Lat.","LABELRANK":5,"MIN_LABEL":4,"MAX_LABEL":9},"geometry":{"type":"Point","coordinates":[25.458723,57.066872]}},{"type":"Feature","properties":{"ADM0_A3":"EST","NAME":"Estonia","NAME_LONG":"Estonia","ABBREV":"Est.","LABELRANK":6,"MIN_LABEL":3,"MAX_LABEL":8},"geometry":{"type":"Point","coordinates":[25.867126,58.724865]}},{"type":"Feature","properties":{"ADM0_A3":"DEU","NAME":"Germany","NAME_LONG":"Germany","ABBREV":"Ger.","LABELRANK":2,"MIN_LABEL":1.7,"MAX_LABEL":6.7},"geometry":{"type":"Point","coordinates":[9.678348,50.961733]}},{"type":"Feature","properties":{"ADM0_A3":"BGR","NAME":"Bulgaria","NAME_LONG":"Bulgaria","ABBREV":"Bulg.","LABELRANK":4,"MIN_LABEL":4,"MAX_LABEL":9},"geometry":{"type":"Point","coordinates":[25.15709,42.508785]}},{"type":"Feature","properties":{"ADM0_A3":"GRC","NAME":"Greece","NAME_LONG":"Greece","ABBREV":"Greece","LABELRANK":3,"MIN_LABEL":2.7,"MAX_LABEL":8},"geometry":{"type":"Point","coordinates":[21.72568,39.492763]}},{"type":"Feature","properties":{"ADM0_A3":"TUR","NAME":"Turkey","NAME_LONG":"Turkey","ABBREV":"Tur.","LABELRANK":2,"MIN_LABEL":2,"MAX_LABEL":7},"geometry":{"type":"Point","coordinates":[34.508268,39.345388]}},{"type":"Feature","properties":{"ADM0_A3":"ALB","NAME":"Albania","NAME_LONG":"Albania","ABBREV":"Alb.","LABELRANK":6,"MIN_LABEL":5,"MAX_LABEL":10},"geometry":{"type":"Point","coordinates":[20.11384,40.654855]}},{"type":"Feature","properties":{"ADM0_A3":"HRV","NAME":"Croatia","NAME_LONG":"Croatia","ABBREV":"Cro.","LABELRANK":6,"MIN_LABEL":4,"MAX_LABEL":9},"geometry":{"type":"Point","coordinates":[16.37241,45.805799]}},{"type":"Feature","properties":{"ADM0_A3":"CHE","NAME":"Switzerland","NAME_LONG":"Switzerland","ABBREV":"Switz.","LABELRANK":4,"MIN_LABEL":4,"MAX_LABEL":9},"geometry":{"type":"Point","coordinates":[7.463965,46.719114]}},{"type":"Feature","properties":{"ADM0_A3":"LUX","NAME":"Luxembourg","NAME_LONG":"Luxembourg","ABBREV":"Lux.","LABELRANK":6,"MIN_LABEL":5.7,"MAX_LABEL":10},"geometry":{"type":"Point","coordinates":[6.07762,49.733732]}},{"type":"Feature","properties":{"ADM0_A3":"BEL","NAME":"Belgium","NAME_LONG":"Belgium","ABBREV":"Belg.","LABELRANK":2,"MIN_LABEL":4,"MAX_LABEL":9},"geometry":{"type":"Point","coordinates":[4.800448,50.785392]}},{"type":"Feature","properties":{"ADM0_A3":"NLD","NAME":"Netherlands","NAME_LONG":"Netherlands","ABBREV":"Neth.","LABELRANK":5,"MIN_LABEL":4,"MAX_LABEL":10},"geometry":{"type":"Point","coordinates":[5.61144,52.422211]}},{"type":"Feature","properties":{"ADM0_A3":"PRT","NAME":"Portugal","NAME_LONG":"Portugal","ABBREV":"Port.","LABELRANK":2,"MIN_LABEL":3,"MAX_LABEL":8},"geometry":{"type":"Point","coordinates":[-8.271754,39.606675]}},{"type":"Feature","properties":{"ADM0_A3":"ESP","NAME":"Spain","NAME_LONG":"Spain","ABBREV":"Sp.","LABELRANK":2,"MIN_LABEL":2,"MAX_LABEL":7},"geometry":{"type":"Point","coordinates":[-3.464718,40.090953]}},{"type":"Feature","properties":{"ADM0_A3":"IRL","NAME":"Ireland","NAME_LONG":"Ireland","ABBREV":"Ire.","LABELRANK":3,"MIN_LABEL":3,"MAX_LABEL":8},"geometry":{"type":"Point","coordinates":[-7.798588,53.078726]}},{"type":"Feature","properties":{"ADM0_A3":"NCL","NAME":"New Caledonia","NAME_LONG":"New Caledonia","ABBREV":"New C.","LABELRANK":3,"MIN_LABEL":4.6,"MAX_LABEL":8},"geometry":{"type":"Point","coordinates":[165.084004,-21.064697]}},{"type":"Feature","properties":{"ADM0_A3":"SLB","NAME":"Solomon Is.","NAME_LONG":"Solomon Islands","ABBREV":"S. Is.","LABELRANK":3,"MIN_LABEL":3,"MAX_LABEL":8},"geometry":{"type":"Point","coordinates":[159.170468,-8.029548]}},{"type":"Feature","properties":{"ADM0_A3":"NZL","NAME":"New Zealand","NAME_LONG":"New Zealand","ABBREV":"N.Z.","LABELRANK":2,"MIN_LABEL":2,"MAX_LABEL":6.7},"geometry":{"type":"Point","coordinates":[172.787,-39.759]}},{"type":"Feature","properties":{"ADM0_A3":"AUS","NAME":"Australia","NAME_LONG":"Australia","ABBREV":"Auz.","LABELRANK":2,"MIN_LABEL":1.7,"MAX_LABEL":5.7},"geometry":{"type":"Point","coordinates":[134.04972,-24.129522]}},{"type":"Feature","properties":{"ADM0_A3":"LKA","NAME":"Sri Lanka","NAME_LONG":"Sri Lanka","ABBREV":"Sri L.","LABELRANK":3,"MIN_LABEL":3,"MAX_LABEL":8},"geometry":{"type":"Point","coordinates":[80.704823,7.581097]}},{"type":"Feature","properties":{"ADM0_A3":"CHN","NAME":"China","NAME_LONG":"China","ABBREV":"China","LABELRANK":2,"MIN_LABEL":1.7,"MAX_LABEL":5.7},"geometry":{"type":"Point","coordinates":[106.337289,32.498178]}},{"type":"Feature","properties":{"ADM0_A3":"TWN","NAME":"Taiwan","NAME_LONG":"Taiwan","ABBREV":"Taiwan","LABELRANK":3,"MIN_LABEL":4.5,"MAX_LABEL":8},"geometry":{"type":"Point","coordinates":[120.868204,23.652408]}},{"type":"Feature","properties":{"ADM0_A3":"ITA","NAME":"Italy","NAME_LONG":"Italy","ABBREV":"Italy","LABELRANK":2,"MIN_LABEL":2,"MAX_LABEL":7},"geometry":{"type":"Point","coordinates":[11.076907,44.732482]}},{"type":"Feature","properties":{"ADM0_A3":"DNK","NAME":"Denmark","NAME_LONG":"Denmark","ABBREV":"Den.","LABELRANK":4,"MIN_LABEL":3,"MAX_LABEL":8},"geometry":{"type":"Point","coordinates":[9.018163,55.966965]}},{"type":"Feature","properties":{"ADM0_A3":"GBR","NAME":"United Kingdom","NAME_LONG":"United Kingdom","ABBREV":"U.K.","LABELRANK":2,"MIN_LABEL":1.7,"MAX_LABEL":6.7},"geometry":{"type":"Point","coordinates":[-2.116346,54.402739]}},{"type":"Feature","properties":{"ADM0_A3":"ISL","NAME":"Iceland","NAME_LONG":"Iceland","ABBREV":"Iceland","LABELRANK":3,"MIN_LABEL":2,"MAX_LABEL":7},"geometry":{"type":"Point","coordinates":[-18.673711,64.779286]}},{"type":"Feature","properties":{"ADM0_A3":"AZE","NAME":"Azerbaijan","NAME_LONG":"Azerbaijan","ABBREV":"Aze.","LABELRANK":5,"MIN_LABEL":4,"MAX_LABEL":9},"geometry":{"type":"Point","coordinates":[47.210994,40.402387]}},{"type":"Feature","properties":{"ADM0_A3":"GEO","NAME":"Georgia","NAME_LONG":"Georgia","ABBREV":"Geo.","LABELRANK":5,"MIN_LABEL":4,"MAX_LABEL":9},"geometry":{"type":"Point","coordinates":[43.735724,41.870087]}},{"type":"Feature","properties":{"ADM0_A3":"PHL","NAME":"Philippines","NAME_LONG":"Philippines","ABBREV":"Phil.","LABELRANK":2,"MIN_LABEL":2.5,"MAX_LABEL":7},"geometry":{"type":"Point","coordinates":[122.465,11.198]}},{"type":"Feature","properties":{"ADM0_A3":"MYS","NAME":"Malaysia","NAME_LONG":"Malaysia","ABBREV":"Malay.","LABELRANK":3,"MIN_LABEL":3,"MAX_LABEL":8},"geometry":{"type":"Point","coordinates":[113.83708,2.528667]}},{"type":"Feature","properties":{"ADM0_A3":"BRN","NAME":"Brunei","NAME_LONG":"Brunei Darussalam","ABBREV":"Brunei","LABELRANK":6,"MIN_LABEL":4,"MAX_LABEL":9},"geometry":{"type":"Point","coordinates":[114.551943,4.448298]}},{"type":"Feature","properties":{"ADM0_A3":"SVN","NAME":"Slovenia","NAME_LONG":"Slovenia","ABBREV":"Slo.","LABELRANK":6,"MIN_LABEL":5,"MAX_LABEL":10},"geometry":{"type":"Point","coordinates":[14.915312,46.06076]}},{"type":"Feature","properties":{"ADM0_A3":"FIN","NAME":"Finland","NAME_LONG":"Finland","ABBREV":"Fin.","LABELRANK":3,"MIN_LABEL":3,"MAX_LABEL":8},"geometry":{"type":"Point","coordinates":[27.276449,63.252361]}},{"type":"Feature","properties":{"ADM0_A3":"SVK","NAME":"Slovakia","NAME_LONG":"Slovakia","ABBREV":"Svk.","LABELRANK":6,"MIN_LABEL":4,"MAX_LABEL":9},"geometry":{"type":"Point","coordinates":[19.049868,48.734044]}},{"type":"Feature","properties":{"ADM0_A3":"CZE","NAME":"Czechia","NAME_LONG":"Czech Republic","ABBREV":"Cz.","LABELRANK":5,"MIN_LABEL":4,"MAX_LABEL":9},"geometry":{"type":"Point","coordinates":[15.377555,49.882364]}},{"type":"Feature","properties":{"ADM0_A3":"ERI","NAME":"Eritrea","NAME_LONG":"Eritrea","ABBREV":"Erit.","LABELRANK":4,"MIN_LABEL":4,"MAX_LABEL":9},"geometry":{"type":"Point","coordinates":[38.285566,15.787401]}},{"type":"Feature","properties":{"ADM0_A3":"JPN","NAME":"Japan","NAME_LONG":"Japan","ABBREV":"Japan","LABELRANK":2,"MIN_LABEL":1.7,"MAX_LABEL":7},"geometry":{"type":"Point","coordinates":[138.44217,36.142538]}},{"type":"Feature","properties":{"ADM0_A3":"PRY","NAME":"Paraguay","NAME_LONG":"Paraguay","ABBREV":"Para.","LABELRANK":4,"MIN_LABEL":3,"MAX_LABEL":8},"geometry":{"type":"Point","coordinates":[-60.146394,-21.674509]}},{"type":"Feature","properties":{"ADM0_A3":"YEM","NAME":"Yemen","NAME_LONG":"Yemen","ABBREV":"Yem.","LABELRANK":3,"MIN_LABEL":3,"MAX_LABEL":8},"geometry":{"type":"Point","coordinates":[45.874383,15.328226]}},{"type":"Feature","properties":{"ADM0_A3":"SAU","NAME":"Saudi Arabia","NAME_LONG":"Saudi Arabia","ABBREV":"Saud.","LABELRANK":2,"MIN_LABEL":1.7,"MAX_LABEL":7},"geometry":{"type":"Point","coordinates":[44.6996,23.806908]}},{"type":"Feature","properties":{"ADM0_A3":"ATA","NAME":"Antarctica","NAME_LONG":"Antarctica","ABBREV":"Ant.","LABELRANK":4,"MIN_LABEL":4,"MAX_LABEL":9},"geometry":{"type":"Point","coordinates":[35.885455,-79.843222]}},{"type":"Feature","properties":{"ADM0_A3":"CYN","NAME":"N. Cyprus","NAME_LONG":"Northern Cyprus","ABBREV":"N. Cy.","LABELRANK":6,"MIN_LABEL":6,"MAX_LABEL":10},"geometry":{"type":"Point","coordinates":[33.692434,35.216071]}},{"type":"Feature","properties":{"ADM0_A3":"CYP","NAME":"Cyprus","NAME_LONG":"Cyprus","ABBREV":"Cyp.","LABELRANK":5,"MIN_LABEL":4.5,"MAX_LABEL":9.5},"geometry":{"type":"Point","coordinates":[33.084182,34.913329]}},{"type":"Feature","properties":{"ADM0_A3":"MAR","NAME":"Morocco","NAME_LONG":"Morocco","ABBREV":"Mor.","LABELRANK":3,"MIN_LABEL":2.7,"MAX_LABEL":8},"geometry":{"type":"Point","coordinates":[-7.187296,31.650723]}},{"type":"Feature","properties":{"ADM0_A3":"EGY","NAME":"Egypt","NAME_LONG":"Egypt","ABBREV":"Egypt","LABELRANK":2,"MIN_LABEL":1.7,"MAX_LABEL":6.7},"geometry":{"type":"Point","coordinates":[29.445837,26.186173]}},{"type":"Feature","properties":{"ADM0_A3":"LBY","NAME":"Libya","NAME_LONG":"Libya","ABBREV":"Libya","LABELRANK":3,"MIN_LABEL":3,"MAX_LABEL":8},"geometry":{"type":"Point","coordinates":[18.011015,26.638944]}},{"type":"Feature","properties":{"ADM0_A3":"ETH","NAME":"Ethiopia","NAME_LONG":"Ethiopia","ABBREV":"Eth.","LABELRANK":2,"MIN_LABEL":2,"MAX_LABEL":7},"geometry":{"type":"Point","coordinates":[39.0886,8.032795]}},{"type":"Feature","properties":{"ADM0_A3":"DJI","NAME":"Djibouti","NAME_LONG":"Djibouti","ABBREV":"Dji.","LABELRANK":5,"MIN_LABEL":4,"MAX_LABEL":9},"geometry":{"type":"Point","coordinates":[42.498825,11.976343]}},{"type":"Feature","properties":{"ADM0_A3":"SOL","NAME":"Somaliland","NAME_LONG":"Somaliland","ABBREV":"Solnd.","LABELRANK":5,"MIN_LABEL":4.5,"MAX_LABEL":9},"geometry":{"type":"Point","coordinates":[46.731595,9.443889]}},{"type":"Feature","properties":{"ADM0_A3":"UGA","NAME":"Uganda","NAME_LONG":"Uganda","ABBREV":"Uga.","LABELRANK":3,"MIN_LABEL":3,"MAX_LABEL":8},"geometry":{"type":"Point","coordinates":[32.948555,1.972589]}},{"type":"Feature","properties":{"ADM0_A3":"RWA","NAME":"Rwanda","NAME_LONG":"Rwanda","ABBREV":"Rwa.","LABELRANK":3,"MIN_LABEL":3,"MAX_LABEL":8},"geometry":{"type":"Point","coordinates":[30.103894,-1.897196]}},{"type":"Feature","properties":{"ADM0_A3":"BIH","NAME":"Bosnia and Herz.","NAME_LONG":"Bosnia and Herzegovina","ABBREV":"B.H.","LABELRANK":5,"MIN_LABEL":4.5,"MAX_LABEL":6.8},"geometry":{"type":"Point","coordinates":[18.06841,44.091051]}},{"type":"Feature","properties":{"ADM0_A3":"MKD","NAME":"North Macedonia","NAME_LONG":"North Macedonia","ABBREV":"N. Mac.","LABELRANK":6,"MIN_LABEL":5,"MAX_LABEL":10},"geometry":{"type":"Point","coordinates":[21.555839,41.558223]}},{"type":"Feature","properties":{"ADM0_A3":"SRB","NAME":"Serbia","NAME_LONG":"Serbia","ABBREV":"Serb.","LABELRANK":5,"MIN_LABEL":4,"MAX_LABEL":7},"geometry":{"type":"Point","coordinates":[20.787989,44.189919]}},{"type":"Feature","properties":{"ADM0_A3":"MNE","NAME":"Montenegro","NAME_LONG":"Montenegro","ABBREV":"Mont.","LABELRANK":6,"MIN_LABEL":5,"MAX_LABEL":10},"geometry":{"type":"Point","coordinates":[19.143727,42.803101]}},{"type":"Feature","properties":{"ADM0_A3":"KOS","NAME":"Kosovo","NAME_LONG":"Kosovo","ABBREV":"Kos.","LABELRANK":6,"MIN_LABEL":5,"MAX_LABEL":10},"geometry":{"type":"Point","coordinates":[20.860719,42.593587]}},{"type":"Feature","properties":{"ADM0_A3":"TTO","NAME":"Trinidad and Tobago","NAME_LONG":"Trinidad and Tobago","ABBREV":"Tr.T.","LABELRANK":5,"MIN_LABEL":4.5,"MAX_LABEL":9.5},"geometry":{"type":"Point","coordinates":[-60.9184,10.9989]}},{"type":"Feature","properties":{"ADM0_A3":"SDS","NAME":"S. Sudan","NAME_LONG":"South Sudan","ABBREV":"S. Sud.","LABELRANK":3,"MIN_LABEL":3,"MAX_LABEL":8},"geometry":{"type":"Point","coordinates":[30.390151,7.230477]}}]}
