{"type":"FeatureCollection","features":[{"type":"Feature","properties":{"NAME":"Fiyi","NAME_LONG":"Fiyi","LABELRANK":6},"geometry":{"type":"Point","coordinates":[177.975,-17.826]}},{"type":"Feature","properties":{"NAME":"Tanzania","NAME_LONG":"Tanzania","LABELRANK":3},"geometry":{"type":"Point","coordinates":[34.959,-6.052]}},{"type":"Feature","properties":{"NAME":"Sáhara Occidental","NAME_LONG":"Sáhara Occidental","LABELRANK":7},"geometry":{"type":"Point","coordinates":[-12.63,23.968]}},{"type":"Feature","properties":{"NAME":"Canadá","NAME_LONG":"Canadá","LABELRANK":2},"geometry":{"type":"Point","coordinates":[-101.911,60.324]}},{"type":"Feature","properties":{"NAME":"Estados Unidos","NAME_LONG":"Estados Unidos","LABELRANK":2},"geometry":{"type":"Point","coordinates":[-97.483,39.538]}},{"type":"Feature","properties":{"NAME":"Kazajistán","NAME_LONG":"Kazajistán","LABELRANK":3},"geometry":{"type":"Point","coordinates":[68.686,49.054]}},{"type":"Feature","properties":{"NAME":"Uzbekistán","NAME_LONG":"Uzbekistán","LABELRANK":3},"geometry":{"type":"Point","coordinates":[64.005,41.694]}},{"type":"Feature","properties":{"NAME":"Papúa Nueva Guinea","NAME_LONG":"Papúa Nueva Guinea","LABELRANK":2},"geometry":{"type":"Point","coordinates":[143.91,-5.695]}},{"type":"Feature","properties":{"NAME":"Indonesia","NAME_LONG":"Indonesia","LABELRANK":2},"geometry":{"type":"Point","coordinates":[101.893,-0.954]}},{"type":"Feature","properties":{"NAME":"Argentina","NAME_LONG":"Argentina","LABELRANK":2},"geometry":{"type":"Point","coordinates":[-64.173,-33.501]}},{"type":"Feature","properties":{"NAME":"Chile","NAME_LONG":"Chile","LABELRANK":2},"geometry":{"type":"Point","coordinates":[-72.319,-38.152]}},{"type":"Feature","properties":{"NAME":"República Democrática del Congo","NAME_LONG":"República Democrática del Congo","LABELRANK":2},"geometry":{"type":"Point","coordinates":[23.459,-1.858]}},{"type":"Feature","properties":{"NAME":"Somalia","NAME_LONG":"Somalia","LABELRANK":6},"geometry":{"type":"Point","coordinates":[45.192,3.569]}},{"type":"Feature","properties":{"NAME":"Kenia","NAME_LONG":"Kenia","LABELRANK":2},"geometry":{"type":"Point","coordinates":[37.908,0.549]}},{"type":"Feature","properties":{"NAME":"Sudán","NAME_LONG":"Sudán","LABELRANK":3},"geometry":{"type":"Point","coordinates":[29.261,16.331]}},{"type":"Feature","properties":{"NAME":"Chad","NAME_LONG":"Chad","LABELRANK":3},"geometry":{"type":"Point","coordinates":[18.645,15.143]}},{"type":"Feature","properties":{"NAME":"Haití","NAME_LONG":"Haití","LABELRANK":5},"geometry":{"type":"Point","coordinates":[-72.224,19.264]}},{"type":"Feature","properties":{"NAME":"República Dominicana","NAME_LONG":"República Dominicana","LABELRANK":5},"geometry":{"type":"Point","coordinates":[-70.654,19.104]}},{"type":"Feature","properties":{"NAME":"Rusia","NAME_LONG":"Rusia","LABELRANK":2},"geometry":{"type":"Point","coordinates":[44.686,58.249]}},{"type":"Feature","properties":{"NAME":"Bahamas","NAME_LONG":"Bahamas","LABELRANK":4},"geometry":{"type":"Point","coordinates":[-77.147,26.402]}},{"type":"Feature","properties":{"NAME":"Islas Malvinas","NAME_LONG":"Islas Malvinas","LABELRANK":5},"geometry":{"type":"Point","coordinates":[-58.739,-51.609]}},{"type":"Feature","properties":{"NAME":"Noruega","NAME_LONG":"Noruega","LABELRANK":3},"geometry":{"type":"Point","coordinates":[9.68,61.357]}},{"type":"Feature","properties":{"NAME":"Groenlandia","NAME_LONG":"Groenlandia","LABELRANK":3},"geometry":{"type":"Point","coordinates":[-39.335,74.319]}},{"type":"Feature","properties":{"NAME":"Territorios Australes Franceses","NAME_LONG":"Territorios Australes Franceses","LABELRANK":6},"geometry":{"type":"Point","coordinates":[69.122,-49.304]}},{"type":"Feature","properties":{"NAME":"Timor-Leste","NAME_LONG":"Timor-Leste","LABELRANK":5},"geometry":{"type":"Point","coordinates":[125.855,-8.804]}},{"type":"Feature","properties":{"NAME":"Sudáfrica","NAME_LONG":"Sudáfrica","LABELRANK":2},"geometry":{"type":"Point","coordinates":[23.666,-29.709]}},{"type":"Feature","properties":{"NAME":"Lesoto","NAME_LONG":"Lesoto","LABELRANK":6},"geometry":{"type":"Point","coordinates":[28.247,-29.48]}},{"type":"Feature","properties":{"NAME":"México","NAME_LONG":"México","LABELRANK":2},"geometry":{"type":"Point","coordinates":[-102.289,23.92]}},{"type":"Feature","properties":{"NAME":"Uruguay","NAME_LONG":"Uruguay","LABELRANK":4},"geometry":{"type":"Point","coordinates":[-55.967,-32.961]}},{"type":"Feature","properties":{"NAME":"Brasil","NAME_LONG":"Brasil","LABELRANK":2},"geometry":{"type":"Point","coordinates":[-49.559,-12.099]}},{"type":"Feature","properties":{"NAME":"Bolivia","NAME_LONG":"Bolivia","LABELRANK":3},"geometry":{"type":"Point","coordinates":[-64.593,-16.666]}},{"type":"Feature","properties":{"NAME":"Perú","NAME_LONG":"Perú","LABELRANK":2},"geometry":{"type":"Point","coordinates":[-72.9,-12.977]}},{"type":"Feature","properties":{"NAME":"Colombia","NAME_LONG":"Colombia","LABELRANK":2},"geometry":{"type":"Point","coordinates":[-73.174,3.373]}},{"type":"Feature","properties":{"NAME":"Panamá","NAME_LONG":"Panamá","LABELRANK":4},"geometry":{"type":"Point","coordinates":[-80.352,8.722]}},{"type":"Feature","properties":{"NAME":"Costa Rica","NAME_LONG":"Costa Rica","LABELRANK":5},"geometry":{"type":"Point","coordinates":[-84.078,10.065]}},{"type":"Feature","properties":{"NAME":"Nicaragua","NAME_LONG":"Nicaragua","LABELRANK":5},"geometry":{"type":"Point","coordinates":[-85.069,12.671]}},{"type":"Feature","properties":{"NAME":"Honduras","NAME_LONG":"Honduras","LABELRANK":5},"geometry":{"type":"Point","coordinates":[-86.888,14.795]}},{"type":"Feature","properties":{"NAME":"El Salvador","NAME_LONG":"El Salvador","LABELRANK":6},"geometry":{"type":"Point","coordinates":[-88.89,13.685]}},{"type":"Feature","properties":{"NAME":"Guatemala","NAME_LONG":"Guatemala","LABELRANK":3},"geometry":{"type":"Point","coordinates":[-90.497,14.982]}},{"type":"Feature","properties":{"NAME":"Belice","NAME_LONG":"Belice","LABELRANK":6},"geometry":{"type":"Point","coordinates":[-88.713,17.202]}},{"type":"Feature","properties":{"NAME":"Venezuela","NAME_LONG":"Venezuela","LABELRANK":3},"geometry":{"type":"Point","coordinates":[-64.599,7.182]}},{"type":"Feature","properties":{"NAME":"Guyana","NAME_LONG":"Guyana","LABELRANK":4},"geometry":{"type":"Point","coordinates":[-58.943,5.124]}},{"type":"Feature","properties":{"NAME":"Surinam","NAME_LONG":"Surinam","LABELRANK":4},"geometry":{"type":"Point","coordinates":[-55.911,4.144]}},{"type":"Feature","properties":{"NAME":"Francia","NAME_LONG":"Francia","LABELRANK":2},"geometry":{"type":"Point","coordinates":[2.552,46.696]}},{"type":"Feature","properties":{"NAME":"Ecuador","NAME_LONG":"Ecuador","LABELRANK":3},"geometry":{"type":"Point","coordinates":[-78.188,-1.259]}},{"type":"Feature","properties":{"NAME":"Puerto Rico","NAME_LONG":"Puerto Rico","LABELRANK":5},"geometry":{"type":"Point","coordinates":[-66.481,18.235]}},{"type":"Feature","properties":{"NAME":"Jamaica","NAME_LONG":"Jamaica","LABELRANK":4},"geometry":{"type":"Point","coordinates":[-77.319,18.137]}},{"type":"Feature","properties":{"NAME":"Cuba","NAME_LONG":"Cuba","LABELRANK":3},"geometry":{"type":"Point","coordinates":[-77.976,21.334]}},{"type":"Feature","properties":{"NAME":"Zimbabue","NAME_LONG":"Zimbabue","LABELRANK":3},"geometry":{"type":"Point","coordinates":[29.925,-18.912]}},{"type":"Feature","properties":{"NAME":"Botsuana","NAME_LONG":"Botsuana","LABELRANK":4},"geometry":{"type":"Point","coordinates":[24.179,-22.103]}},{"type":"Feature","properties":{"NAME":"Namibia","NAME_LONG":"Namibia","LABELRANK":3},"geometry":{"type":"Point","coordinates":[17.108,-20.575]}},{"type":"Feature","properties":{"NAME":"Senegal","NAME_LONG":"Senegal","LABELRANK":3},"geometry":{"type":"Point","coordinates":[-14.779,15.138]}},{"type":"Feature","properties":{"NAME":"Mali","NAME_LONG":"Mali","LABELRANK":3},"geometry":{"type":"Point","coordinates":[-2.038,18.693]}},{"type":"Feature","properties":{"NAME":"Mauritania","NAME_LONG":"Mauritania","LABELRANK":3},"geometry":{"type":"Point","coordinates":[-9.74,19.587]}},{"type":"Feature","properties":{"NAME":"Benín","NAME_LONG":"Benín","LABELRANK":5},"geometry":{"type":"Point","coordinates":[2.352,10.325]}},{"type":"Feature","properties":{"NAME":"Níger","NAME_LONG":"Níger","LABELRANK":3},"geometry":{"type":"Point","coordinates":[9.504,17.446]}},{"type":"Feature","properties":{"NAME":"Nigeria","NAME_LONG":"Nigeria","LABELRANK":2},"geometry":{"type":"Point","coordinates":[7.503,9.44]}},{"type":"Feature","properties":{"NAME":"Camerún","NAME_LONG":"Camerún","LABELRANK":3},"geometry":{"type":"Point","coordinates":[12.473,4.585]}},{"type":"Feature","properties":{"NAME":"Togo","NAME_LONG":"Togo","LABELRANK":6},"geometry":{"type":"Point","coordinates":[1.058,8.807]}},{"type":"Feature","properties":{"NAME":"Ghana","NAME_LONG":"Ghana","LABELRANK":3},"geometry":{"type":"Point","coordinates":[-1.037,7.718]}},{"type":"Feature","properties":{"NAME":"Côte d’Ivoire","NAME_LONG":"Côte d’Ivoire","LABELRANK":3},"geometry":{"type":"Point","coordinates":[-5.569,7.491]}},{"type":"Feature","properties":{"NAME":"Guinea","NAME_LONG":"Guinea","LABELRANK":3},"geometry":{"type":"Point","coordinates":[-10.016,10.619]}},{"type":"Feature","properties":{"NAME":"Guinea-Bisáu","NAME_LONG":"Guinea-Bisáu","LABELRANK":6},"geometry":{"type":"Point","coordinates":[-14.524,12.164]}},{"type":"Feature","properties":{"NAME":"Liberia","NAME_LONG":"Liberia","LABELRANK":4},"geometry":{"type":"Point","coordinates":[-9.46,6.447]}},{"type":"Feature","properties":{"NAME":"Sierra Leona","NAME_LONG":"Sierra Leona","LABELRANK":4},"geometry":{"type":"Point","coordinates":[-11.764,8.617]}},{"type":"Feature","properties":{"NAME":"Burkina Faso","NAME_LONG":"Burkina Faso","LABELRANK":3},"geometry":{"type":"Point","coordinates":[-1.364,12.673]}},{"type":"Feature","properties":{"NAME":"República Centroafricana","NAME_LONG":"República Centroafricana","LABELRANK":4},"geometry":{"type":"Point","coordinates":[20.907,6.99]}},{"type":"Feature","properties":{"NAME":"Congo","NAME_LONG":"Congo","LABELRANK":4},"geometry":{"type":"Point","coordinates":[15.9,0.142]}},{"type":"Feature","properties":{"NAME":"Gabón","NAME_LONG":"Gabón","LABELRANK":4},"geometry":{"type":"Point","coordinates":[11.836,-0.438]}},{"type":"Feature","properties":{"NAME":"Guinea Ecuatorial","NAME_LONG":"Guinea Ecuatorial","LABELRANK":4},"geometry":{"type":"Point","coordinates":[8.99,2.333]}},{"type":"Feature","properties":{"NAME":"Zambia","NAME_LONG":"Zambia","LABELRANK":3},"geometry":{"type":"Point","coordinates":[26.395,-14.661]}},{"type":"Feature","properties":{"NAME":"Malaui","NAME_LONG":"Malaui","LABELRANK":6},"geometry":{"type":"Point","coordinates":[33.608,-13.387]}},{"type":"Feature","properties":{"NAME":"Mozambique","NAME_LONG":"Mozambique","LABELRANK":3},"geometry":{"type":"Point","coordinates":[37.838,-13.943]}},{"type":"Feature","properties":{"NAME":"Esuatini","NAME_LONG":"Esuatini","LABELRANK":4},"geometry":{"type":"Point","coordinates":[31.467,-26.534]}},{"type":"Feature","properties":{"NAME":"Angola","NAME_LONG":"Angola","LABELRANK":3},"geometry":{"type":"Point","coordinates":[17.984,-12.183]}},{"type":"Feature","properties":{"NAME":"Burundi","NAME_LONG":"Burundi","LABELRANK":6},"geometry":{"type":"Point","coordinates":[29.917,-3.333]}},{"type":"Feature","properties":{"NAME":"Israel","NAME_LONG":"Israel","LABELRANK":4},"geometry":{"type":"Point","coordinates":[34.848,30.911]}},{"type":"Feature","properties":{"NAME":"Líbano","NAME_LONG":"Líbano","LABELRANK":5},"geometry":{"type":"Point","coordinates":[35.993,34.133]}},{"type":"Feature","properties":{"NAME":"Madagascar","NAME_LONG":"Madagascar","LABELRANK":3},"geometry":{"type":"Point","coordinates":[46.704,-18.628]}},{"type":"Feature","properties":{"NAME":"Territorios Palestinos","NAME_LONG":"Territorios Palestinos","LABELRANK":5},"geometry":{"type":"Point","coordinates":[35.291,32.047]}},{"type":"Feature","properties":{"NAME":"Gambia","NAME_LONG":"Gambia","LABELRANK":6},"geometry":{"type":"Point","coordinates":[-14.998,13.642]}},{"type":"Feature","properties":{"NAME":"Túnez","NAME_LONG":"Túnez","LABELRANK":3},"geometry":{"type":"Point","coordinates":[9.008,33.687]}},{"type":"Feature","properties":{"NAME":"Argelia","NAME_LONG":"Argelia","LABELRANK":3},"geometry":{"type":"Point","coordinates":[2.808,27.397]}},{"type":"Feature","properties":{"NAME":"Jordania","NAME_LONG":"Jordania","LABELRANK":4},"geometry":{"type":"Point","coordinates":[36.376,30.805]}},{"type":"Feature","properties":{"NAME":"Emiratos Árabes Unidos","NAME_LONG":"Emiratos Árabes Unidos","LABELRANK":4},"geometry":{"type":"Point","coordinates":[54.547,23.466]}},{"type":"Feature","properties":{"NAME":"Catar","NAME_LONG":"Catar","LABELRANK":5},"geometry":{"type":"Point","coordinates":[51.144,25.237]}},{"type":"Feature","properties":{"NAME":"Kuwait","NAME_LONG":"Kuwait","LABELRANK":6},"geometry":{"type":"Point","coordinates":[47.314,29.414]}},{"type":"Feature","properties":{"NAME":"Irak","NAME_LONG":"Irak","LABELRANK":3},"geometry":{"type":"Point","coordinates":[43.262,33.094]}},{"type":"Feature","properties":{"NAME":"Omán","NAME_LONG":"Omán","LABELRANK":4},"geometry":{"type":"Point","coordinates":[57.337,22.12]}},{"type":"Feature","properties":{"NAME":"Vanuatu","NAME_LONG":"Vanuatu","LABELRANK":4},"geometry":{"type":"Point","coordinates":[166.909,-15.372]}},{"type":"Feature","properties":{"NAME":"Camboya","NAME_LONG":"Camboya","LABELRANK":3},"geometry":{"type":"Point","coordinates":[104.505,12.648]}},{"type":"Feature","properties":{"NAME":"Tailandia","NAME_LONG":"Tailandia","LABELRANK":3},"geometry":{"type":"Point","coordinates":[101.073,15.46]}},{"type":"Feature","properties":{"NAME":"Laos","NAME_LONG":"Laos","LABELRANK":4},"geometry":{"type":"Point","coordinates":[102.534,19.432]}},{"type":"Feature","properties":{"NAME":"Myanmar (Birmania)","NAME_LONG":"Myanmar (Birmania)","LABELRANK":3},"geometry":{"type":"Point","coordinates":[95.804,21.574]}},{"type":"Feature","properties":{"NAME":"Vietnam","NAME_LONG":"Vietnam","LABELRANK":2},"geometry":{"type":"Point","coordinates":[105.387,21.715]}},{"type":"Feature","properties":{"NAME":"Corea del Norte","NAME_LONG":"Corea del Norte","LABELRANK":3},"geometry":{"type":"Point","coordinates":[126.445,39.885]}},{"type":"Feature","properties":{"NAME":"Corea del Sur","NAME_LONG":"Corea del Sur","LABELRANK":2},"geometry":{"type":"Point","coordinates":[128.13,36.385]}},{"type":"Feature","properties":{"NAME":"Mongolia","NAME_LONG":"Mongolia","LABELRANK":3},"geometry":{"type":"Point","coordinates":[104.15,45.997]}},{"type":"Feature","properties":{"NAME":"India","NAME_LONG":"India","LABELRANK":2},"geometry":{"type":"Point","coordinates":[79.358,22.687]}},{"type":"Feature","properties":{"NAME":"Bangladés","NAME_LONG":"Bangladés","LABELRANK":3},"geometry":{"type":"Point","coordinates":[89.685,24.215]}},{"type":"Feature","properties":{"NAME":"Bután","NAME_LONG":"Bután","LABELRANK":5},"geometry":{"type":"Point","coordinates":[90.04,27.537]}},{"type":"Feature","properties":{"NAME":"Nepal","NAME_LONG":"Nepal","LABELRANK":3},"geometry":{"type":"Point","coordinates":[83.64,28.298]}},{"type":"Feature","properties":{"NAME":"Pakistán","NAME_LONG":"Pakistán","LABELRANK":2},"geometry":{"type":"Point","coordinates":[68.546,29.328]}},{"type":"Feature","properties":{"NAME":"Afganistán","NAME_LONG":"Afganistán","LABELRANK":3},"geometry":{"type":"Point","coordinates":[66.497,34.164]}},{"type":"Feature","properties":{"NAME":"Tayikistán","NAME_LONG":"Tayikistán","LABELRANK":4},"geometry":{"type":"Point","coordinates":[72.587,38.2]}},{"type":"Feature","properties":{"NAME":"Kirguistán","NAME_LONG":"Kirguistán","LABELRANK":4},"geometry":{"type":"Point","coordinates":[74.533,41.669]}},{"type":"Feature","properties":{"NAME":"Turkmenistán","NAME_LONG":"Turkmenistán","LABELRANK":4},"geometry":{"type":"Point","coordinates":[58.677,39.855]}},{"type":"Feature","properties":{"NAME":"Irán","NAME_LONG":"Irán","LABELRANK":2},"geometry":{"type":"Point","coordinates":[54.931,32.166]}},{"type":"Feature","properties":{"NAME":"Siria","NAME_LONG":"Siria","LABELRANK":3},"geometry":{"type":"Point","coordinates":[38.278,35.007]}},{"type":"Feature","properties":{"NAME":"Armenia","NAME_LONG":"Armenia","LABELRANK":6},"geometry":{"type":"Point","coordinates":[44.801,40.459]}},{"type":"Feature","properties":{"NAME":"Suecia","NAME_LONG":"Suecia","LABELRANK":3},"geometry":{"type":"Point","coordinates":[19.017,65.859]}},{"type":"Feature","properties":{"NAME":"Bielorrusia","NAME_LONG":"Bielorrusia","LABELRANK":4},"geometry":{"type":"Point","coordinates":[28.418,53.822]}},{"type":"Feature","properties":{"NAME":"Ucrania","NAME_LONG":"Ucrania","LABELRANK":3},"geometry":{"type":"Point","coordinates":[32.141,49.725]}},{"type":"Feature","properties":{"NAME":"Polonia","NAME_LONG":"Polonia","LABELRANK":3},"geometry":{"type":"Point","coordinates":[19.49,51.99]}},{"type":"Feature","properties":{"NAME":"Austria","NAME_LONG":"Austria","LABELRANK":4},"geometry":{"type":"Point","coordinates":[14.131,47.519]}},{"type":"Feature","properties":{"NAME":"Hungría","NAME_LONG":"Hungría","LABELRANK":5},"geometry":{"type":"Point","coordinates":[19.448,47.087]}},{"type":"Feature","properties":{"NAME":"Moldavia","NAME_LONG":"Moldavia","LABELRANK":6},"geometry":{"type":"Point","coordinates":[28.488,47.435]}},{"type":"Feature","properties":{"NAME":"Rumanía","NAME_LONG":"Rumanía","LABELRANK":3},"geometry":{"type":"Point","coordinates":[24.973,45.733]}},{"type":"Feature","properties":{"NAME":"Lituania","NAME_LONG":"Lituania","LABELRANK":5},"geometry":{"type":"Point","coordinates":[24.09,55.104]}},{"type":"Feature","properties":{"NAME":"Letonia","NAME_LONG":"Letonia","LABELRANK":5},"geometry":{"type":"Point","coordinates":[25.459,57.067]}},{"type":"Feature","properties":{"NAME":"Estonia","NAME_LONG":"Estonia","LABELRANK":6},"geometry":{"type":"Point","coordinates":[25.867,58.725]}},{"type":"Feature","properties":{"NAME":"Alemania","NAME_LONG":"Alemania","LABELRANK":2},"geometry":{"type":"Point","coordinates":[9.678,50.962]}},{"type":"Feature","properties":{"NAME":"Bulgaria","NAME_LONG":"Bulgaria","LABELRANK":4},"geometry":{"type":"Point","coordinates":[25.157,42.509]}},{"type":"Feature","properties":{"NAME":"Grecia","NAME_LONG":"Grecia","LABELRANK":3},"geometry":{"type":"Point","coordinates":[21.726,39.493]}},{"type":"Feature","properties":{"NAME":"Turquía","NAME_LONG":"Turquía","LABELRANK":2},"geometry":{"type":"Point","coordinates":[34.508,39.345]}},{"type":"Feature","properties":{"NAME":"Albania","NAME_LONG":"Albania","LABELRANK":6},"geometry":{"type":"Point","coordinates":[20.114,40.655]}},{"type":"Feature","properties":{"NAME":"Croacia","NAME_LONG":"Croacia","LABELRANK":6},"geometry":{"type":"Point","coordinates":[16.372,45.806]}},{"type":"Feature","properties":{"NAME":"Suiza","NAME_LONG":"Suiza","LABELRANK":4},"geometry":{"type":"Point","coordinates":[7.464,46.719]}},{"type":"Feature","properties":{"NAME":"Luxemburgo","NAME_LONG":"Luxemburgo","LABELRANK":6},"geometry":{"type":"Point","coordinates":[6.078,49.734]}},{"type":"Feature","properties":{"NAME":"Bélgica","NAME_LONG":"Bélgica","LABELRANK":2},"geometry":{"type":"Point","coordinates":[4.8,50.785]}},{"type":"Feature","properties":{"NAME":"Países Bajos","NAME_LONG":"Países Bajos","LABELRANK":5},"geometry":{"type":"Point","coordinates":[5.611,52.422]}},{"type":"Feature","properties":{"NAME":"Portugal","NAME_LONG":"Portugal","LABELRANK":2},"geometry":{"type":"Point","coordinates":[-8.272,39.607]}},{"type":"Feature","properties":{"NAME":"España","NAME_LONG":"España","LABELRANK":2},"geometry":{"type":"Point","coordinates":[-3.465,40.091]}},{"type":"Feature","properties":{"NAME":"Irlanda","NAME_LONG":"Irlanda","LABELRANK":3},"geometry":{"type":"Point","coordinates":[-7.799,53.079]}},{"type":"Feature","properties":{"NAME":"Nueva Caledonia","NAME_LONG":"Nueva Caledonia","LABELRANK":3},"geometry":{"type":"Point","coordinates":[165.084,-21.065]}},{"type":"Feature","properties":{"NAME":"Islas Salomón","NAME_LONG":"Islas Salomón","LABELRANK":3},"geometry":{"type":"Point","coordinates":[159.17,-8.03]}},{"type":"Feature","properties":{"NAME":"Nueva Zelanda","NAME_LONG":"Nueva Zelanda","LABELRANK":2},"geometry":{"type":"Point","coordinates":[172.787,-39.759]}},{"type":"Feature","properties":{"NAME":"Australia","NAME_LONG":"Australia","LABELRANK":2},"geometry":{"type":"Point","coordinates":[134.05,-24.13]}},{"type":"Feature","properties":{"NAME":"Sri Lanka","NAME_LONG":"Sri Lanka","LABELRANK":3},"geometry":{"type":"Point","coordinates":[80.705,7.581]}},{"type":"Feature","properties":{"NAME":"China","NAME_LONG":"China","LABELRANK":2},"geometry":{"type":"Point","coordinates":[106.337,32.498]}},{"type":"Feature","properties":{"NAME":"Taiwán","NAME_LONG":"Taiwán","LABELRANK":3},"geometry":{"type":"Point","coordinates":[120.868,23.652]}},{"type":"Feature","properties":{"NAME":"Italia","NAME_LONG":"Italia","LABELRANK":2},"geometry":{"type":"Point","coordinates":[11.077,44.732]}},{"type":"Feature","properties":{"NAME":"Dinamarca","NAME_LONG":"Dinamarca","LABELRANK":4},"geometry":{"type":"Point","coordinates":[9.018,55.967]}},{"type":"Feature","properties":{"NAME":"Reino Unido","NAME_LONG":"Reino Unido","LABELRANK":2},"geometry":{"type":"Point","coordinates":[-2.116,54.403]}},{"type":"Feature","properties":{"NAME":"Islandia","NAME_LONG":"Islandia","LABELRANK":3},"geometry":{"type":"Point","coordinates":[-18.674,64.779]}},{"type":"Feature","properties":{"NAME":"Azerbaiyán","NAME_LONG":"Azerbaiyán","LABELRANK":5},"geometry":{"type":"Point","coordinates":[47.211,40.402]}},{"type":"Feature","properties":{"NAME":"Georgia","NAME_LONG":"Georgia","LABELRANK":5},"geometry":{"type":"Point","coordinates":[43.736,41.87]}},{"type":"Feature","properties":{"NAME":"Filipinas","NAME_LONG":"Filipinas","LABELRANK":2},"geometry":{"type":"Point","coordinates":[122.465,11.198]}},{"type":"Feature","properties":{"NAME":"Malasia","NAME_LONG":"Malasia","LABELRANK":3},"geometry":{"type":"Point","coordinates":[113.837,2.529]}},{"type":"Feature","properties":{"NAME":"Brunéi","NAME_LONG":"Brunéi","LABELRANK":6},"geometry":{"type":"Point","coordinates":[114.552,4.448]}},{"type":"Feature","properties":{"NAME":"Eslovenia","NAME_LONG":"Eslovenia","LABELRANK":6},"geometry":{"type":"Point","coordinates":[14.915,46.061]}},{"type":"Feature","properties":{"NAME":"Finlandia","NAME_LONG":"Finlandia","LABELRANK":3},"geometry":{"type":"Point","coordinates":[27.276,63.252]}},{"type":"Feature","properties":{"NAME":"Eslovaquia","NAME_LONG":"Eslovaquia","LABELRANK":6},"geometry":{"type":"Point","coordinates":[19.05,48.734]}},{"type":"Feature","properties":{"NAME":"Chequia","NAME_LONG":"Chequia","LABELRANK":5},"geometry":{"type":"Point","coordinates":[15.378,49.882]}},{"type":"Feature","properties":{"NAME":"Eritrea","NAME_LONG":"Eritrea","LABELRANK":4},"geometry":{"type":"Point","coordinates":[38.286,15.787]}},{"type":"Feature","properties":{"NAME":"Japón","NAME_LONG":"Japón","LABELRANK":2},"geometry":{"type":"Point","coordinates":[138.442,36.143]}},{"type":"Feature","properties":{"NAME":"Paraguay","NAME_LONG":"Paraguay","LABELRANK":4},"geometry":{"type":"Point","coordinates":[-60.146,-21.675]}},{"type":"Feature","properties":{"NAME":"Yemen","NAME_LONG":"Yemen","LABELRANK":3},"geometry":{"type":"Point","coordinates":[45.874,15.328]}},{"type":"Feature","properties":{"NAME":"Arabia Saudí","NAME_LONG":"Arabia Saudí","LABELRANK":2},"geometry":{"type":"Point","coordinates":[44.7,23.807]}},{"type":"Feature","properties":{"NAME":"Antártida","NAME_LONG":"Antártida","LABELRANK":4},"geometry":{"type":"Point","coordinates":[35.885,-79.843]}},{"type":"Feature","properties":{"NAME":"N. Cyprus","NAME_LONG":"N. Cyprus","LABELRANK":6},"geometry":{"type":"Point","coordinates":[33.692,35.216]}},{"type":"Feature","properties":{"NAME":"Chipre","NAME_LONG":"Chipre","LABELRANK":5},"geometry":{"type":"Point","coordinates":[33.084,34.913]}},{"type":"Feature","properties":{"NAME":"Marruecos","NAME_LONG":"Marruecos","LABELRANK":3},"geometry":{"type":"Point","coordinates":[-7.187,31.651]}},{"type":"Feature","properties":{"NAME":"Egipto","NAME_LONG":"Egipto","LABELRANK":2},"geometry":{"type":"Point","coordinates":[29.446,26.186]}},{"type":"Feature","properties":{"NAME":"Libia","NAME_LONG":"Libia","LABELRANK":3},"geometry":{"type":"Point","coordinates":[18.011,26.639]}},{"type":"Feature","properties":{"NAME":"Etiopía","NAME_LONG":"Etiopía","LABELRANK":2},"geometry":{"type":"Point","coordinates":[39.089,8.033]}},{"type":"Feature","properties":{"NAME":"Yibuti","NAME_LONG":"Yibuti","LABELRANK":5},"geometry":{"type":"Point","coordinates":[42.499,11.976]}},{"type":"Feature","properties":{"NAME":"Somaliland","NAME_LONG":"Somaliland","LABELRANK":5},"geometry":{"type":"Point","coordinates":[46.732,9.444]}},{"type":"Feature","properties":{"NAME":"Uganda","NAME_LONG":"Uganda","LABELRANK":3},"geometry":{"type":"Point","coordinates":[32.949,1.973]}},{"type":"Feature","properties":{"NAME":"Ruanda","NAME_LONG":"Ruanda","LABELRANK":3},"geometry":{"type":"Point","coordinates":[30.104,-1.897]}},{"type":"Feature","properties":{"NAME":"Bosnia y Herzegovina","NAME_LONG":"Bosnia y Herzegovina","LABELRANK":5},"geometry":{"type":"Point","coordinates":[18.068,44.091]}},{"type":"Feature","properties":{"NAME":"Macedonia del Norte","NAME_LONG":"Macedonia del Norte","LABELRANK":6},"geometry":{"type":"Point","coordinates":[21.556,41.558]}},{"type":"Feature","properties":{"NAME":"Serbia","NAME_LONG":"Serbia","LABELRANK":5},"geometry":{"type":"Point","coordinates":[20.788,44.19]}},{"type":"Feature","properties":{"NAME":"Montenegro","NAME_LONG":"Montenegro","LABELRANK":6},"geometry":{"type":"Point","coordinates":[19.144,42.803]}},{"type":"Feature","properties":{"NAME":"Kosovo","NAME_LONG":"Kosovo","LABELRANK":6},"geometry":{"type":"Point","coordinates":[20.861,42.594]}},{"type":"Feature","properties":{"NAME":"Trinidad y Tobago","NAME_LONG":"Trinidad y Tobago","LABELRANK":5},"geometry":{"type":"Point","coordinates":[-60.918,10.999]}},{"type":"Feature","properties":{"NAME":"Sudán del Sur","NAME_LONG":"Sudán del Sur","LABELRANK":3},"geometry":{"type":"Point","coordinates":[30.39,7.23]}}]}