{"type":"FeatureCollection","features":[{"type":"Feature","properties":{"NAME":"Фіджі","NAME_LONG":"Фіджі","LABELRANK":6},"geometry":{"type":"Point","coordinates":[177.975,-17.826]}},{"type":"Feature","properties":{"NAME":"Танзанія","NAME_LONG":"Танзанія","LABELRANK":3},"geometry":{"type":"Point","coordinates":[34.959,-6.052]}},{"type":"Feature","properties":{"NAME":"Західна Сахара","NAME_LONG":"Західна Сахара","LABELRANK":7},"geometry":{"type":"Point","coordinates":[-12.63,23.968]}},{"type":"Feature","properties":{"NAME":"Канада","NAME_LONG":"Канада","LABELRANK":2},"geometry":{"type":"Point","coordinates":[-101.911,60.324]}},{"type":"Feature","properties":{"NAME":"Сполучені Штати","NAME_LONG":"Сполучені Штати","LABELRANK":2},"geometry":{"type":"Point","coordinates":[-97.483,39.538]}},{"type":"Feature","properties":{"NAME":"Казахстан","NAME_LONG":"Казахстан","LABELRANK":3},"geometry":{"type":"Point","coordinates":[68.686,49.054]}},{"type":"Feature","properties":{"NAME":"Узбекистан","NAME_LONG":"Узбекистан","LABELRANK":3},"geometry":{"type":"Point","coordinates":[64.005,41.694]}},{"type":"Feature","properties":{"NAME":"Папуа-Нова Гвінея","NAME_LONG":"Папуа-Нова Гвінея","LABELRANK":2},"geometry":{"type":"Point","coordinates":[143.91,-5.695]}},{"type":"Feature","properties":{"NAME":"Індонезія","NAME_LONG":"Індонезія","LABELRANK":2},"geometry":{"type":"Point","coordinates":[101.893,-0.954]}},{"type":"Feature","properties":{"NAME":"Аргентина","NAME_LONG":"Аргентина","LABELRANK":2},"geometry":{"type":"Point","coordinates":[-64.173,-33.501]}},{"type":"Feature","properties":{"NAME":"Чилі","NAME_LONG":"Чилі","LABELRANK":2},"geometry":{"type":"Point","coordinates":[-72.319,-38.152]}},{"type":"Feature","properties":{"NAME":"Конго – Кіншаса","NAME_LONG":"Конго – Кіншаса","LABELRANK":2},"geometry":{"type":"Point","coordinates":[23.459,-1.858]}},{"type":"Feature","properties":{"NAME":"Сомалі","NAME_LONG":"Сомалі","LABELRANK":6},"geometry":{"type":"Point","coordinates":[45.192,3.569]}},{"type":"Feature","properties":{"NAME":"Кенія","NAME_LONG":"Кенія","LABELRANK":2},"geometry":{"type":"Point","coordinates":[37.908,0.549]}},{"type":"Feature","properties":{"NAME":"Судан","NAME_LONG":"Судан","LABELRANK":3},"geometry":{"type":"Point","coordinates":[29.261,16.331]}},{"type":"Feature","properties":{"NAME":"Чад","NAME_LONG":"Чад","LABELRANK":3},"geometry":{"type":"Point","coordinates":[18.645,15.143]}},{"type":"Feature","properties":{"NAME":"Гаїті","NAME_LONG":"Гаїті","LABELRANK":5},"geometry":{"type":"Point","coordinates":[-72.224,19.264]}},{"type":"Feature","properties":{"NAME":"Домініканська Республіка","NAME_LONG":"Домініканська Республіка","LABELRANK":5},"geometry":{"type":"Point","coordinates":[-70.654,19.104]}},{"type":"Feature","properties":{"NAME":"Росія","NAME_LONG":"Росія","LABELRANK":2},"geometry":{"type":"Point","coordinates":[44.686,58.249]}},{"type":"Feature","properties":{"NAME":"Багамські Острови","NAME_LONG":"Багамські Острови","LABELRANK":4},"geometry":{"type":"Point","coordinates":[-77.147,26.402]}},{"type":"Feature","properties":{"NAME":"Фолклендські Острови","NAME_LONG":"Фолклендські Острови","LABELRANK":5},"geometry":{"type":"Point","coordinates":[-58.739,-51.609]}},{"type":"Feature","properties":{"NAME":"Норвегія","NAME_LONG":"Норвегія","LABELRANK":3},"geometry":{"type":"Point","coordinates":[9.68,61.357]}},{"type":"Feature","properties":{"NAME":"Гренландія","NAME_LONG":"Гренландія","LABELRANK":3},"geometry":{"type":"Point","coordinates":[-39.335,74.319]}},{"type":"Feature","properties":{"NAME":"Французькі Південні Території","NAME_LONG":"Французькі Південні Території","LABELRANK":6},"geometry":{"type":"Point","coordinates":[69.122,-49.304]}},{"type":"Feature","properties":{"NAME":"Тимор-Лешті","NAME_LONG":"Тимор-Лешті","LABELRANK":5},"geometry":{"type":"Point","coordinates":[125.855,-8.804]}},{"type":"Feature","properties":{"NAME":"Південно-Африканська Республіка","NAME_LONG":"Південно-Африканська Республіка","LABELRANK":2},"geometry":{"type":"Point","coordinates":[23.666,-29.709]}},{"type":"Feature","properties":{"NAME":"Лесото","NAME_LONG":"Лесото","LABELRANK":6},"geometry":{"type":"Point","coordinates":[28.247,-29.48]}},{"type":"Feature","properties":{"NAME":"Мексика","NAME_LONG":"Мексика","LABELRANK":2},"geometry":{"type":"Point","coordinates":[-102.289,23.92]}},{"type":"Feature","properties":{"NAME":"Уругвай","NAME_LONG":"Уругвай","LABELRANK":4},"geometry":{"type":"Point","coordinates":[-55.967,-32.961]}},{"type":"Feature","properties":{"NAME":"Бразилія","NAME_LONG":"Бразилія","LABELRANK":2},"geometry":{"type":"Point","coordinates":[-49.559,-12.099]}},{"type":"Feature","properties":{"NAME":"Болівія","NAME_LONG":"Болівія","LABELRANK":3},"geometry":{"type":"Point","coordinates":[-64.593,-16.666]}},{"type":"Feature","properties":{"NAME":"Перу","NAME_LONG":"Перу","LABELRANK":2},"geometry":{"type":"Point","coordinates":[-72.9,-12.977]}},{"type":"Feature","properties":{"NAME":"Колумбія","NAME_LONG":"Колумбія","LABELRANK":2},"geometry":{"type":"Point","coordinates":[-73.174,3.373]}},{"type":"Feature","properties":{"NAME":"Панама","NAME_LONG":"Панама","LABELRANK":4},"geometry":{"type":"Point","coordinates":[-80.352,8.722]}},{"type":"Feature","properties":{"NAME":"Коста-Рика","NAME_LONG":"Коста-Рика","LABELRANK":5},"geometry":{"type":"Point","coordinates":[-84.078,10.065]}},{"type":"Feature","properties":{"NAME":"Нікарагуа","NAME_LONG":"Нікарагуа","LABELRANK":5},"geometry":{"type":"Point","coordinates":[-85.069,12.671]}},{"type":"Feature","properties":{"NAME":"Гондурас","NAME_LONG":"Гондурас","LABELRANK":5},"geometry":{"type":"Point","coordinates":[-86.888,14.795]}},{"type":"Feature","properties":{"NAME":"Сальвадор","NAME_LONG":"Сальвадор","LABELRANK":6},"geometry":{"type":"Point","coordinates":[-88.89,13.685]}},{"type":"Feature","properties":{"NAME":"Гватемала","NAME_LONG":"Гватемала","LABELRANK":3},"geometry":{"type":"Point","coordinates":[-90.497,14.982]}},{"type":"Feature","properties":{"NAME":"Беліз","NAME_LONG":"Беліз","LABELRANK":6},"geometry":{"type":"Point","coordinates":[-88.713,17.202]}},{"type":"Feature","properties":{"NAME":"Венесуела","NAME_LONG":"Венесуела","LABELRANK":3},"geometry":{"type":"Point","coordinates":[-64.599,7.182]}},{"type":"Feature","properties":{"NAME":"Гаяна","NAME_LONG":"Гаяна","LABELRANK":4},"geometry":{"type":"Point","coordinates":[-58.943,5.124]}},{"type":"Feature","properties":{"NAME":"Суринам","NAME_LONG":"Суринам","LABELRANK":4},"geometry":{"type":"Point","coordinates":[-55.911,4.144]}},{"type":"Feature","properties":{"NAME":"Франція","NAME_LONG":"Франція","LABELRANK":2},"geometry":{"type":"Point","coordinates":[2.552,46.696]}},{"type":"Feature","properties":{"NAME":"Еквадор","NAME_LONG":"Еквадор","LABELRANK":3},"geometry":{"type":"Point","coordinates":[-78.188,-1.259]}},{"type":"Feature","properties":{"NAME":"Пуерто-Рико","NAME_LONG":"Пуерто-Рико","LABELRANK":5},"geometry":{"type":"Point","coordinates":[-66.481,18.235]}},{"type":"Feature","properties":{"NAME":"Ямайка","NAME_LONG":"Ямайка","LABELRANK":4},"geometry":{"type":"Point","coordinates":[-77.319,18.137]}},{"type":"Feature","properties":{"NAME":"Куба","NAME_LONG":"Куба","LABELRANK":3},"geometry":{"type":"Point","coordinates":[-77.976,21.334]}},{"type":"Feature","properties":{"NAME":"Зімбабве","NAME_LONG":"Зімбабве","LABELRANK":3},"geometry":{"type":"Point","coordinates":[29.925,-18.912]}},{"type":"Feature","properties":{"NAME":"Ботсвана","NAME_LONG":"Ботсвана","LABELRANK":4},"geometry":{"type":"Point","coordinates":[24.179,-22.103]}},{"type":"Feature","properties":{"NAME":"Намібія","NAME_LONG":"Намібія","LABELRANK":3},"geometry":{"type":"Point","coordinates":[17.108,-20.575]}},{"type":"Feature","properties":{"NAME":"Сенегал","NAME_LONG":"Сенегал","LABELRANK":3},"geometry":{"type":"Point","coordinates":[-14.779,15.138]}},{"type":"Feature","properties":{"NAME":"Малі","NAME_LONG":"Малі","LABELRANK":3},"geometry":{"type":"Point","coordinates":[-2.038,18.693]}},{"type":"Feature","properties":{"NAME":"Мавританія","NAME_LONG":"Мавританія","LABELRANK":3},"geometry":{"type":"Point","coordinates":[-9.74,19.587]}},{"type":"Feature","properties":{"NAME":"Бенін","NAME_LONG":"Бенін","LABELRANK":5},"geometry":{"type":"Point","coordinates":[2.352,10.325]}},{"type":"Feature","properties":{"NAME":"Нігер","NAME_LONG":"Нігер","LABELRANK":3},"geometry":{"type":"Point","coordinates":[9.504,17.446]}},{"type":"Feature","properties":{"NAME":"Нігерія","NAME_LONG":"Нігерія","LABELRANK":2},"geometry":{"type":"Point","coordinates":[7.503,9.44]}},{"type":"Feature","properties":{"NAME":"Камерун","NAME_LONG":"Камерун","LABELRANK":3},"geometry":{"type":"Point","coordinates":[12.473,4.585]}},{"type":"Feature","properties":{"NAME":"Того","NAME_LONG":"Того","LABELRANK":6},"geometry":{"type":"Point","coordinates":[1.058,8.807]}},{"type":"Feature","properties":{"NAME":"Гана","NAME_LONG":"Гана","LABELRANK":3},"geometry":{"type":"Point","coordinates":[-1.037,7.718]}},{"type":"Feature","properties":{"NAME":"Кот-дʼІвуар","NAME_LONG":"Кот-дʼІвуар","LABELRANK":3},"geometry":{"type":"Point","coordinates":[-5.569,7.491]}},{"type":"Feature","properties":{"NAME":"Гвінея","NAME_LONG":"Гвінея","LABELRANK":3},"geometry":{"type":"Point","coordinates":[-10.016,10.619]}},{"type":"Feature","properties":{"NAME":"Гвінея-Бісау","NAME_LONG":"Гвінея-Бісау","LABELRANK":6},"geometry":{"type":"Point","coordinates":[-14.524,12.164]}},{"type":"Feature","properties":{"NAME":"Ліберія","NAME_LONG":"Ліберія","LABELRANK":4},"geometry":{"type":"Point","coordinates":[-9.46,6.447]}},{"type":"Feature","properties":{"NAME":"Сьєрра-Леоне","NAME_LONG":"Сьєрра-Леоне","LABELRANK":4},"geometry":{"type":"Point","coordinates":[-11.764,8.617]}},{"type":"Feature","properties":{"NAME":"Буркіна-Фасо","NAME_LONG":"Буркіна-Фасо","LABELRANK":3},"geometry":{"type":"Point","coordinates":[-1.364,12.673]}},{"type":"Feature","properties":{"NAME":"Центральноафриканська Республіка","NAME_LONG":"Центральноафриканська Республіка","LABELRANK":4},"geometry":{"type":"Point","coordinates":[20.907,6.99]}},{"type":"Feature","properties":{"NAME":"Конго – Браззавіль","NAME_LONG":"Конго – Браззавіль","LABELRANK":4},"geometry":{"type":"Point","coordinates":[15.9,0.142]}},{"type":"Feature","properties":{"NAME":"Габон","NAME_LONG":"Габон","LABELRANK":4},"geometry":{"type":"Point","coordinates":[11.836,-0.438]}},{"type":"Feature","properties":{"NAME":"Екваторіальна Гвінея","NAME_LONG":"Екваторіальна Гвінея","LABELRANK":4},"geometry":{"type":"Point","coordinates":[8.99,2.333]}},{"type":"Feature","properties":{"NAME":"Замбія","NAME_LONG":"Замбія","LABELRANK":3},"geometry":{"type":"Point","coordinates":[26.395,-14.661]}},{"type":"Feature","properties":{"NAME":"Малаві","NAME_LONG":"Малаві","LABELRANK":6},"geometry":{"type":"Point","coordinates":[33.608,-13.387]}},{"type":"Feature","properties":{"NAME":"Мозамбік","NAME_LONG":"Мозамбік","LABELRANK":3},"geometry":{"type":"Point","coordinates":[37.838,-13.943]}},{"type":"Feature","properties":{"NAME":"Есватіні","NAME_LONG":"Есватіні","LABELRANK":4},"geometry":{"type":"Point","coordinates":[31.467,-26.534]}},{"type":"Feature","properties":{"NAME":"Ангола","NAME_LONG":"Ангола","LABELRANK":3},"geometry":{"type":"Point","coordinates":[17.984,-12.183]}},{"type":"Feature","properties":{"NAME":"Бурунді","NAME_LONG":"Бурунді","LABELRANK":6},"geometry":{"type":"Point","coordinates":[29.917,-3.333]}},{"type":"Feature","properties":{"NAME":"Ізраїль","NAME_LONG":"Ізраїль","LABELRANK":4},"geometry":{"type":"Point","coordinates":[34.848,30.911]}},{"type":"Feature","properties":{"NAME":"Ліван","NAME_LONG":"Ліван","LABELRANK":5},"geometry":{"type":"Point","coordinates":[35.993,34.133]}},{"type":"Feature","properties":{"NAME":"Мадагаскар","NAME_LONG":"Мадагаскар","LABELRANK":3},"geometry":{"type":"Point","coordinates":[46.704,-18.628]}},{"type":"Feature","properties":{"NAME":"Палестинські території","NAME_LONG":"Палестинські території","LABELRANK":5},"geometry":{"type":"Point","coordinates":[35.291,32.047]}},{"type":"Feature","properties":{"NAME":"Гамбія","NAME_LONG":"Гамбія","LABELRANK":6},"geometry":{"type":"Point","coordinates":[-14.998,13.642]}},{"type":"Feature","properties":{"NAME":"Туніс","NAME_LONG":"Туніс","LABELRANK":3},"geometry":{"type":"Point","coordinates":[9.008,33.687]}},{"type":"Feature","properties":{"NAME":"Алжир","NAME_LONG":"Алжир","LABELRANK":3},"geometry":{"type":"Point","coordinates":[2.808,27.397]}},{"type":"Feature","properties":{"NAME":"Йорданія","NAME_LONG":"Йорданія","LABELRANK":4},"geometry":{"type":"Point","coordinates":[36.376,30.805]}},{"type":"Feature","properties":{"NAME":"Обʼєднані Арабські Емірати","NAME_LONG":"Обʼєднані Арабські Емірати","LABELRANK":4},"geometry":{"type":"Point","coordinates":[54.547,23.466]}},{"type":"Feature","properties":{"NAME":"Катар","NAME_LONG":"Катар","LABELRANK":5},"geometry":{"type":"Point","coordinates":[51.144,25.237]}},{"type":"Feature","properties":{"NAME":"Кувейт","NAME_LONG":"Кувейт","LABELRANK":6},"geometry":{"type":"Point","coordinates":[47.314,29.414]}},{"type":"Feature","properties":{"NAME":"Ірак","NAME_LONG":"Ірак","LABELRANK":3},"geometry":{"type":"Point","coordinates":[43.262,33.094]}},{"type":"Feature","properties":{"NAME":"Оман","NAME_LONG":"Оман","LABELRANK":4},"geometry":{"type":"Point","coordinates":[57.337,22.12]}},{"type":"Feature","properties":{"NAME":"Вануату","NAME_LONG":"Вануату","LABELRANK":4},"geometry":{"type":"Point","coordinates":[166.909,-15.372]}},{"type":"Feature","properties":{"NAME":"Камбоджа","NAME_LONG":"Камбоджа","LABELRANK":3},"geometry":{"type":"Point","coordinates":[104.505,12.648]}},{"type":"Feature","properties":{"NAME":"Таїланд","NAME_LONG":"Таїланд","LABELRANK":3},"geometry":{"type":"Point","coordinates":[101.073,15.46]}},{"type":"Feature","properties":{"NAME":"Лаос","NAME_LONG":"Лаос","LABELRANK":4},"geometry":{"type":"Point","coordinates":[102.534,19.432]}},{"type":"Feature","properties":{"NAME":"Мʼянма (Бірма)","NAME_LONG":"Мʼянма (Бірма)","LABELRANK":3},"geometry":{"type":"Point","coordinates":[95.804,21.574]}},{"type":"Feature","properties":{"NAME":"Вʼєтнам","NAME_LONG":"Вʼєтнам","LABELRANK":2},"geometry":{"type":"Point","coordinates":[105.387,21.715]}},{"type":"Feature","properties":{"NAME":"Північна Корея","NAME_LONG":"Північна Корея","LABELRANK":3},"geometry":{"type":"Point","coordinates":[126.445,39.885]}},{"type":"Feature","properties":{"NAME":"Південна Корея","NAME_LONG":"Південна Корея","LABELRANK":2},"geometry":{"type":"Point","coordinates":[128.13,36.385]}},{"type":"Feature","properties":{"NAME":"Монголія","NAME_LONG":"Монголія","LABELRANK":3},"geometry":{"type":"Point","coordinates":[104.15,45.997]}},{"type":"Feature","properties":{"NAME":"Індія","NAME_LONG":"Індія","LABELRANK":2},"geometry":{"type":"Point","coordinates":[79.358,22.687]}},{"type":"Feature","properties":{"NAME":"Бангладеш","NAME_LONG":"Бангладеш","LABELRANK":3},"geometry":{"type":"Point","coordinates":[89.685,24.215]}},{"type":"Feature","properties":{"NAME":"Бутан","NAME_LONG":"Бутан","LABELRANK":5},"geometry":{"type":"Point","coordinates":[90.04,27.537]}},{"type":"Feature","properties":{"NAME":"Непал","NAME_LONG":"Непал","LABELRANK":3},"geometry":{"type":"Point","coordinates":[83.64,28.298]}},{"type":"Feature","properties":{"NAME":"Пакистан","NAME_LONG":"Пакистан","LABELRANK":2},"geometry":{"type":"Point","coordinates":[68.546,29.328]}},{"type":"Feature","properties":{"NAME":"Афганістан","NAME_LONG":"Афганістан","LABELRANK":3},"geometry":{"type":"Point","coordinates":[66.497,34.164]}},{"type":"Feature","properties":{"NAME":"Таджикистан","NAME_LONG":"Таджикистан","LABELRANK":4},"geometry":{"type":"Point","coordinates":[72.587,38.2]}},{"type":"Feature","properties":{"NAME":"Киргизстан","NAME_LONG":"Киргизстан","LABELRANK":4},"geometry":{"type":"Point","coordinates":[74.533,41.669]}},{"type":"Feature","properties":{"NAME":"Туркменістан","NAME_LONG":"Туркменістан","LABELRANK":4},"geometry":{"type":"Point","coordinates":[58.677,39.855]}},{"type":"Feature","properties":{"NAME":"Іран","NAME_LONG":"Іран","LABELRANK":2},"geometry":{"type":"Point","coordinates":[54.931,32.166]}},{"type":"Feature","properties":{"NAME":"Сирія","NAME_LONG":"Сирія","LABELRANK":3},"geometry":{"type":"Point","coordinates":[38.278,35.007]}},{"type":"Feature","properties":{"NAME":"Вірменія","NAME_LONG":"Вірменія","LABELRANK":6},"geometry":{"type":"Point","coordinates":[44.801,40.459]}},{"type":"Feature","properties":{"NAME":"Швеція","NAME_LONG":"Швеція","LABELRANK":3},"geometry":{"type":"Point","coordinates":[19.017,65.859]}},{"type":"Feature","properties":{"NAME":"Білорусь","NAME_LONG":"Білорусь","LABELRANK":4},"geometry":{"type":"Point","coordinates":[28.418,53.822]}},{"type":"Feature","properties":{"NAME":"Україна","NAME_LONG":"Україна","LABELRANK":3},"geometry":{"type":"Point","coordinates":[32.141,49.725]}},{"type":"Feature","properties":{"NAME":"Польща","NAME_LONG":"Польща","LABELRANK":3},"geometry":{"type":"Point","coordinates":[19.49,51.99]}},{"type":"Feature","properties":{"NAME":"Австрія","NAME_LONG":"Австрія","LABELRANK":4},"geometry":{"type":"Point","coordinates":[14.131,47.519]}},{"type":"Feature","properties":{"NAME":"Угорщина","NAME_LONG":"Угорщина","LABELRANK":5},"geometry":{"type":"Point","coordinates":[19.448,47.087]}},{"type":"Feature","properties":{"NAME":"Молдова","NAME_LONG":"Молдова","LABELRANK":6},"geometry":{"type":"Point","coordinates":[28.488,47.435]}},{"type":"Feature","properties":{"NAME":"Румунія","NAME_LONG":"Румунія","LABELRANK":3},"geometry":{"type":"Point","coordinates":[24.973,45.733]}},{"type":"Feature","properties":{"NAME":"Литва","NAME_LONG":"Литва","LABELRANK":5},"geometry":{"type":"Point","coordinates":[24.09,55.104]}},{"type":"Feature","properties":{"NAME":"Латвія","NAME_LONG":"Латвія","LABELRANK":5},"geometry":{"type":"Point","coordinates":[25.459,57.067]}},{"type":"Feature","properties":{"NAME":"Естонія","NAME_LONG":"Естонія","LABELRANK":6},"geometry":{"type":"Point","coordinates":[25.867,58.725]}},{"type":"Feature","properties":{"NAME":"Німеччина","NAME_LONG":"Німеччина","LABELRANK":2},"geometry":{"type":"Point","coordinates":[9.678,50.962]}},{"type":"Feature","properties":{"NAME":"Болгарія","NAME_LONG":"Болгарія","LABELRANK":4},"geometry":{"type":"Point","coordinates":[25.157,42.509]}},{"type":"Feature","properties":{"NAME":"Греція","NAME_LONG":"Греція","LABELRANK":3},"geometry":{"type":"Point","coordinates":[21.726,39.493]}},{"type":"Feature","properties":{"NAME":"Туреччина","NAME_LONG":"Туреччина","LABELRANK":2},"geometry":{"type":"Point","coordinates":[34.508,39.345]}},{"type":"Feature","properties":{"NAME":"Албанія","NAME_LONG":"Албанія","LABELRANK":6},"geometry":{"type":"Point","coordinates":[20.114,40.655]}},{"type":"Feature","properties":{"NAME":"Хорватія","NAME_LONG":"Хорватія","LABELRANK":6},"geometry":{"type":"Point","coordinates":[16.372,45.806]}},{"type":"Feature","properties":{"NAME":"Швейцарія","NAME_LONG":"Швейцарія","LABELRANK":4},"geometry":{"type":"Point","coordinates":[7.464,46.719]}},{"type":"Feature","properties":{"NAME":"Люксембург","NAME_LONG":"Люксембург","LABELRANK":6},"geometry":{"type":"Point","coordinates":[6.078,49.734]}},{"type":"Feature","properties":{"NAME":"Бельгія","NAME_LONG":"Бельгія","LABELRANK":2},"geometry":{"type":"Point","coordinates":[4.8,50.785]}},{"type":"Feature","properties":{"NAME":"Нідерланди","NAME_LONG":"Нідерланди","LABELRANK":5},"geometry":{"type":"Point","coordinates":[5.611,52.422]}},{"type":"Feature","properties":{"NAME":"Португалія","NAME_LONG":"Португалія","LABELRANK":2},"geometry":{"type":"Point","coordinates":[-8.272,39.607]}},{"type":"Feature","properties":{"NAME":"Іспанія","NAME_LONG":"Іспанія","LABELRANK":2},"geometry":{"type":"Point","coordinates":[-3.465,40.091]}},{"type":"Feature","properties":{"NAME":"Ірландія","NAME_LONG":"Ірландія","LABELRANK":3},"geometry":{"type":"Point","coordinates":[-7.799,53.079]}},{"type":"Feature","properties":{"NAME":"Нова Каледонія","NAME_LONG":"Нова Каледонія","LABELRANK":3},"geometry":{"type":"Point","coordinates":[165.084,-21.065]}},{"type":"Feature","properties":{"NAME":"Соломонові Острови","NAME_LONG":"Соломонові Острови","LABELRANK":3},"geometry":{"type":"Point","coordinates":[159.17,-8.03]}},{"type":"Feature","properties":{"NAME":"Нова Зеландія","NAME_LONG":"Нова Зеландія","LABELRANK":2},"geometry":{"type":"Point","coordinates":[172.787,-39.759]}},{"type":"Feature","properties":{"NAME":"Австралія","NAME_LONG":"Австралія","LABELRANK":2},"geometry":{"type":"Point","coordinates":[134.05,-24.13]}},{"type":"Feature","properties":{"NAME":"Шрі-Ланка","NAME_LONG":"Шрі-Ланка","LABELRANK":3},"geometry":{"type":"Point","coordinates":[80.705,7.581]}},{"type":"Feature","properties":{"NAME":"Китай","NAME_LONG":"Китай","LABELRANK":2},"geometry":{"type":"Point","coordinates":[106.337,32.498]}},{"type":"Feature","properties":{"NAME":"Тайвань","NAME_LONG":"Тайвань","LABELRANK":3},"geometry":{"type":"Point","coordinates":[120.868,23.652]}},{"type":"Feature","properties":{"NAME":"Італія","NAME_LONG":"Італія","LABELRANK":2},"geometry":{"type":"Point","coordinates":[11.077,44.732]}},{"type":"Feature","properties":{"NAME":"Данія","NAME_LONG":"Данія","LABELRANK":4},"geometry":{"type":"Point","coordinates":[9.018,55.967]}},{"type":"Feature","properties":{"NAME":"Велика Британія","NAME_LONG":"Велика Британія","LABELRANK":2},"geometry":{"type":"Point","coordinates":[-2.116,54.403]}},{"type":"Feature","properties":{"NAME":"Ісландія","NAME_LONG":"Ісландія","LABELRANK":3},"geometry":{"type":"Point","coordinates":[-18.674,64.779]}},{"type":"Feature","properties":{"NAME":"Азербайджан","NAME_LONG":"Азербайджан","LABELRANK":5},"geometry":{"type":"Point","coordinates":[47.211,40.402]}},{"type":"Feature","properties":{"NAME":"Грузія","NAME_LONG":"Грузія","LABELRANK":5},"geometry":{"type":"Point","coordinates":[43.736,41.87]}},{"type":"Feature","properties":{"NAME":"Філіппіни","NAME_LONG":"Філіппіни","LABELRANK":2},"geometry":{"type":"Point","coordinates":[122.465,11.198]}},{"type":"Feature","properties":{"NAME":"Малайзія","NAME_LONG":"Малайзія","LABELRANK":3},"geometry":{"type":"Point","coordinates":[113.837,2.529]}},{"type":"Feature","properties":{"NAME":"Бруней","NAME_LONG":"Бруней","LABELRANK":6},"geometry":{"type":"Point","coordinates":[114.552,4.448]}},{"type":"Feature","properties":{"NAME":"Словенія","NAME_LONG":"Словенія","LABELRANK":6},"geometry":{"type":"Point","coordinates":[14.915,46.061]}},{"type":"Feature","properties":{"NAME":"Фінляндія","NAME_LONG":"Фінляндія","LABELRANK":3},"geometry":{"type":"Point","coordinates":[27.276,63.252]}},{"type":"Feature","properties":{"NAME":"Словаччина","NAME_LONG":"Словаччина","LABELRANK":6},"geometry":{"type":"Point","coordinates":[19.05,48.734]}},{"type":"Feature","properties":{"NAME":"Чехія","NAME_LONG":"Чехія","LABELRANK":5},"geometry":{"type":"Point","coordinates":[15.378,49.882]}},{"type":"Feature","properties":{"NAME":"Еритрея","NAME_LONG":"Еритрея","LABELRANK":4},"geometry":{"type":"Point","coordinates":[38.286,15.787]}},{"type":"Feature","properties":{"NAME":"Японія","NAME_LONG":"Японія","LABELRANK":2},"geometry":{"type":"Point","coordinates":[138.442,36.143]}},{"type":"Feature","properties":{"NAME":"Парагвай","NAME_LONG":"Парагвай","LABELRANK":4},"geometry":{"type":"Point","coordinates":[-60.146,-21.675]}},{"type":"Feature","properties":{"NAME":"Ємен","NAME_LONG":"Ємен","LABELRANK":3},"geometry":{"type":"Point","coordinates":[45.874,15.328]}},{"type":"Feature","properties":{"NAME":"Саудівська Аравія","NAME_LONG":"Саудівська Аравія","LABELRANK":2},"geometry":{"type":"Point","coordinates":[44.7,23.807]}},{"type":"Feature","properties":{"NAME":"Антарктика","NAME_LONG":"Антарктика","LABELRANK":4},"geometry":{"type":"Point","coordinates":[35.885,-79.843]}},{"type":"Feature","properties":{"NAME":"N. Cyprus","NAME_LONG":"N. Cyprus","LABELRANK":6},"geometry":{"type":"Point","coordinates":[33.692,35.216]}},{"type":"Feature","properties":{"NAME":"Кіпр","NAME_LONG":"Кіпр","LABELRANK":5},"geometry":{"type":"Point","coordinates":[33.084,34.913]}},{"type":"Feature","properties":{"NAME":"Марокко","NAME_LONG":"Марокко","LABELRANK":3},"geometry":{"type":"Point","coordinates":[-7.187,31.651]}},{"type":"Feature","properties":{"NAME":"Єгипет","NAME_LONG":"Єгипет","LABELRANK":2},"geometry":{"type":"Point","coordinates":[29.446,26.186]}},{"type":"Feature","properties":{"NAME":"Лівія","NAME_LONG":"Лівія","LABELRANK":3},"geometry":{"type":"Point","coordinates":[18.011,26.639]}},{"type":"Feature","properties":{"NAME":"Ефіопія","NAME_LONG":"Ефіопія","LABELRANK":2},"geometry":{"type":"Point","coordinates":[39.089,8.033]}},{"type":"Feature","properties":{"NAME":"Джибуті","NAME_LONG":"Джибуті","LABELRANK":5},"geometry":{"type":"Point","coordinates":[42.499,11.976]}},{"type":"Feature","properties":{"NAME":"Somaliland","NAME_LONG":"Somaliland","LABELRANK":5},"geometry":{"type":"Point","coordinates":[46.732,9.444]}},{"type":"Feature","properties":{"NAME":"Уганда","NAME_LONG":"Уганда","LABELRANK":3},"geometry":{"type":"Point","coordinates":[32.949,1.973]}},{"type":"Feature","properties":{"NAME":"Руанда","NAME_LONG":"Руанда","LABELRANK":3},"geometry":{"type":"Point","coordinates":[30.104,-1.897]}},{"type":"Feature","properties":{"NAME":"Боснія і Герцеговина","NAME_LONG":"Боснія і Герцеговина","LABELRANK":5},"geometry":{"type":"Point","coordinates":[18.068,44.091]}},{"type":"Feature","properties":{"NAME":"Північна Македонія","NAME_LONG":"Північна Македонія","LABELRANK":6},"geometry":{"type":"Point","coordinates":[21.556,41.558]}},{"type":"Feature","properties":{"NAME":"Сербія","NAME_LONG":"Сербія","LABELRANK":5},"geometry":{"type":"Point","coordinates":[20.788,44.19]}},{"type":"Feature","properties":{"NAME":"Чорногорія","NAME_LONG":"Чорногорія","LABELRANK":6},"geometry":{"type":"Point","coordinates":[19.144,42.803]}},{"type":"Feature","properties":{"NAME":"Косово","NAME_LONG":"Косово","LABELRANK":6},"geometry":{"type":"Point","coordinates":[20.861,42.594]}},{"type":"Feature","properties":{"NAME":"Тринідад і Тобаго","NAME_LONG":"Тринідад і Тобаго","LABELRANK":5},"geometry":{"type":"Point","coordinates":[-60.918,10.999]}},{"type":"Feature","properties":{"NAME":"Південний Судан","NAME_LONG":"Південний Судан","LABELRANK":3},"geometry":{"type":"Point","coordinates":[30.39,7.23]}}]}