{"type":"FeatureCollection","features":[{"type":"Feature","properties":{"NAME":"斐济","NAME_LONG":"斐济","LABELRANK":6},"geometry":{"type":"Point","coordinates":[177.975,-17.826]}},{"type":"Feature","properties":{"NAME":"坦桑尼亚","NAME_LONG":"坦桑尼亚","LABELRANK":3},"geometry":{"type":"Point","coordinates":[34.959,-6.052]}},{"type":"Feature","properties":{"NAME":"西撒哈拉","NAME_LONG":"西撒哈拉","LABELRANK":7},"geometry":{"type":"Point","coordinates":[-12.63,23.968]}},{"type":"Feature","properties":{"NAME":"加拿大","NAME_LONG":"加拿大","LABELRANK":2},"geometry":{"type":"Point","coordinates":[-101.911,60.324]}},{"type":"Feature","properties":{"NAME":"美国","NAME_LONG":"美国","LABELRANK":2},"geometry":{"type":"Point","coordinates":[-97.483,39.538]}},{"type":"Feature","properties":{"NAME":"哈萨克斯坦","NAME_LONG":"哈萨克斯坦","LABELRANK":3},"geometry":{"type":"Point","coordinates":[68.686,49.054]}},{"type":"Feature","properties":{"NAME":"乌兹别克斯坦","NAME_LONG":"乌兹别克斯坦","LABELRANK":3},"geometry":{"type":"Point","coordinates":[64.005,41.694]}},{"type":"Feature","properties":{"NAME":"巴布亚新几内亚","NAME_LONG":"巴布亚新几内亚","LABELRANK":2},"geometry":{"type":"Point","coordinates":[143.91,-5.695]}},{"type":"Feature","properties":{"NAME":"印度尼西亚","NAME_LONG":"印度尼西亚","LABELRANK":2},"geometry":{"type":"Point","coordinates":[101.893,-0.954]}},{"type":"Feature","properties":{"NAME":"阿根廷","NAME_LONG":"阿根廷","LABELRANK":2},"geometry":{"type":"Point","coordinates":[-64.173,-33.501]}},{"type":"Feature","properties":{"NAME":"智利","NAME_LONG":"智利","LABELRANK":2},"geometry":{"type":"Point","coordinates":[-72.319,-38.152]}},{"type":"Feature","properties":{"NAME":"刚果（金）","NAME_LONG":"刚果（金）","LABELRANK":2},"geometry":{"type":"Point","coordinates":[23.459,-1.858]}},{"type":"Feature","properties":{"NAME":"索马里","NAME_LONG":"索马里","LABELRANK":6},"geometry":{"type":"Point","coordinates":[45.192,3.569]}},{"type":"Feature","properties":{"NAME":"肯尼亚","NAME_LONG":"肯尼亚","LABELRANK":2},"geometry":{"type":"Point","coordinates":[37.908,0.549]}},{"type":"Feature","properties":{"NAME":"苏丹","NAME_LONG":"苏丹","LABELRANK":3},"geometry":{"type":"Point","coordinates":[29.261,16.331]}},{"type":"Feature","properties":{"NAME":"乍得","NAME_LONG":"乍得","LABELRANK":3},"geometry":{"type":"Point","coordinates":[18.645,15.143]}},{"type":"Feature","properties":{"NAME":"海地","NAME_LONG":"海地","LABELRANK":5},"geometry":{"type":"Point","coordinates":[-72.224,19.264]}},{"type":"Feature","properties":{"NAME":"多米尼加共和国","NAME_LONG":"多米尼加共和国","LABELRANK":5},"geometry":{"type":"Point","coordinates":[-70.654,19.104]}},{"type":"Feature","properties":{"NAME":"俄罗斯","NAME_LONG":"俄罗斯","LABELRANK":2},"geometry":{"type":"Point","coordinates":[44.686,58.249]}},{"type":"Feature","properties":{"NAME":"巴哈马","NAME_LONG":"巴哈马","LABELRANK":4},"geometry":{"type":"Point","coordinates":[-77.147,26.402]}},{"type":"Feature","properties":{"NAME":"福克兰群岛","NAME_LONG":"福克兰群岛","LABELRANK":5},"geometry":{"type":"Point","coordinates":[-58.739,-51.609]}},{"type":"Feature","properties":{"NAME":"挪威","NAME_LONG":"挪威","LABELRANK":3},"geometry":{"type":"Point","coordinates":[9.68,61.357]}},{"type":"Feature","properties":{"NAME":"格陵兰","NAME_LONG":"格陵兰","LABELRANK":3},"geometry":{"type":"Point","coordinates":[-39.335,74.319]}},{"type":"Feature","properties":{"NAME":"法属南部领地","NAME_LONG":"法属南部领地","LABELRANK":6},"geometry":{"type":"Point","coordinates":[69.122,-49.304]}},{"type":"Feature","properties":{"NAME":"东帝汶","NAME_LONG":"东帝汶","LABELRANK":5},"geometry":{"type":"Point","coordinates":[125.855,-8.804]}},{"type":"Feature","properties":{"NAME":"南非","NAME_LONG":"南非","LABELRANK":2},"geometry":{"type":"Point","coordinates":[23.666,-29.709]}},{"type":"Feature","properties":{"NAME":"莱索托","NAME_LONG":"莱索托","LABELRANK":6},"geometry":{"type":"Point","coordinates":[28.247,-29.48]}},{"type":"Feature","properties":{"NAME":"墨西哥","NAME_LONG":"墨西哥","LABELRANK":2},"geometry":{"type":"Point","coordinates":[-102.289,23.92]}},{"type":"Feature","properties":{"NAME":"乌拉圭","NAME_LONG":"乌拉圭","LABELRANK":4},"geometry":{"type":"Point","coordinates":[-55.967,-32.961]}},{"type":"Feature","properties":{"NAME":"巴西","NAME_LONG":"巴西","LABELRANK":2},"geometry":{"type":"Point","coordinates":[-49.559,-12.099]}},{"type":"Feature","properties":{"NAME":"玻利维亚","NAME_LONG":"玻利维亚","LABELRANK":3},"geometry":{"type":"Point","coordinates":[-64.593,-16.666]}},{"type":"Feature","properties":{"NAME":"秘鲁","NAME_LONG":"秘鲁","LABELRANK":2},"geometry":{"type":"Point","coordinates":[-72.9,-12.977]}},{"type":"Feature","properties":{"NAME":"哥伦比亚","NAME_LONG":"哥伦比亚","LABELRANK":2},"geometry":{"type":"Point","coordinates":[-73.174,3.373]}},{"type":"Feature","properties":{"NAME":"巴拿马","NAME_LONG":"巴拿马","LABELRANK":4},"geometry":{"type":"Point","coordinates":[-80.352,8.722]}},{"type":"Feature","properties":{"NAME":"哥斯达黎加","NAME_LONG":"哥斯达黎加","LABELRANK":5},"geometry":{"type":"Point","coordinates":[-84.078,10.065]}},{"type":"Feature","properties":{"NAME":"尼加拉瓜","NAME_LONG":"尼加拉瓜","LABELRANK":5},"geometry":{"type":"Point","coordinates":[-85.069,12.671]}},{"type":"Feature","properties":{"NAME":"洪都拉斯","NAME_LONG":"洪都拉斯","LABELRANK":5},"geometry":{"type":"Point","coordinates":[-86.888,14.795]}},{"type":"Feature","properties":{"NAME":"萨尔瓦多","NAME_LONG":"萨尔瓦多","LABELRANK":6},"geometry":{"type":"Point","coordinates":[-88.89,13.685]}},{"type":"Feature","properties":{"NAME":"危地马拉","NAME_LONG":"危地马拉","LABELRANK":3},"geometry":{"type":"Point","coordinates":[-90.497,14.982]}},{"type":"Feature","properties":{"NAME":"伯利兹","NAME_LONG":"伯利兹","LABELRANK":6},"geometry":{"type":"Point","coordinates":[-88.713,17.202]}},{"type":"Feature","properties":{"NAME":"委内瑞拉","NAME_LONG":"委内瑞拉","LABELRANK":3},"geometry":{"type":"Point","coordinates":[-64.599,7.182]}},{"type":"Feature","properties":{"NAME":"圭亚那","NAME_LONG":"圭亚那","LABELRANK":4},"geometry":{"type":"Point","coordinates":[-58.943,5.124]}},{"type":"Feature","properties":{"NAME":"苏里南","NAME_LONG":"苏里南","LABELRANK":4},"geometry":{"type":"Point","coordinates":[-55.911,4.144]}},{"type":"Feature","properties":{"NAME":"法国","NAME_LONG":"法国","LABELRANK":2},"geometry":{"type":"Point","coordinates":[2.552,46.696]}},{"type":"Feature","properties":{"NAME":"厄瓜多尔","NAME_LONG":"厄瓜多尔","LABELRANK":3},"geometry":{"type":"Point","coordinates":[-78.188,-1.259]}},{"type":"Feature","properties":{"NAME":"波多黎各","NAME_LONG":"波多黎各","LABELRANK":5},"geometry":{"type":"Point","coordinates":[-66.481,18.235]}},{"type":"Feature","properties":{"NAME":"牙买加","NAME_LONG":"牙买加","LABELRANK":4},"geometry":{"type":"Point","coordinates":[-77.319,18.137]}},{"type":"Feature","properties":{"NAME":"古巴","NAME_LONG":"古巴","LABELRANK":3},"geometry":{"type":"Point","coordinates":[-77.976,21.334]}},{"type":"Feature","properties":{"NAME":"津巴布韦","NAME_LONG":"津巴布韦","LABELRANK":3},"geometry":{"type":"Point","coordinates":[29.925,-18.912]}},{"type":"Feature","properties":{"NAME":"博茨瓦纳","NAME_LONG":"博茨瓦纳","LABELRANK":4},"geometry":{"type":"Point","coordinates":[24.179,-22.103]}},{"type":"Feature","properties":{"NAME":"纳米比亚","NAME_LONG":"纳米比亚","LABELRANK":3},"geometry":{"type":"Point","coordinates":[17.108,-20.575]}},{"type":"Feature","properties":{"NAME":"塞内加尔","NAME_LONG":"塞内加尔","LABELRANK":3},"geometry":{"type":"Point","coordinates":[-14.779,15.138]}},{"type":"Feature","properties":{"NAME":"马里","NAME_LONG":"马里","LABELRANK":3},"geometry":{"type":"Point","coordinates":[-2.038,18.693]}},{"type":"Feature","properties":{"NAME":"毛里塔尼亚","NAME_LONG":"毛里塔尼亚","LABELRANK":3},"geometry":{"type":"Point","coordinates":[-9.74,19.587]}},{"type":"Feature","properties":{"NAME":"贝宁","NAME_LONG":"贝宁","LABELRANK":5},"geometry":{"type":"Point","coordinates":[2.352,10.325]}},{"type":"Feature","properties":{"NAME":"尼日尔","NAME_LONG":"尼日尔","LABELRANK":3},"geometry":{"type":"Point","coordinates":[9.504,17.446]}},{"type":"Feature","properties":{"NAME":"尼日利亚","NAME_LONG":"尼日利亚","LABELRANK":2},"geometry":{"type":"Point","coordinates":[7.503,9.44]}},{"type":"Feature","properties":{"NAME":"喀麦隆","NAME_LONG":"喀麦隆","LABELRANK":3},"geometry":{"type":"Point","coordinates":[12.473,4.585]}},{"type":"Feature","properties":{"NAME":"多哥","NAME_LONG":"多哥","LABELRANK":6},"geometry":{"type":"Point","coordinates":[1.058,8.807]}},{"type":"Feature","properties":{"NAME":"加纳","NAME_LONG":"加纳","LABELRANK":3},"geometry":{"type":"Point","coordinates":[-1.037,7.718]}},{"type":"Feature","properties":{"NAME":"科特迪瓦","NAME_LONG":"科特迪瓦","LABELRANK":3},"geometry":{"type":"Point","coordinates":[-5.569,7.491]}},{"type":"Feature","properties":{"NAME":"几内亚","NAME_LONG":"几内亚","LABELRANK":3},"geometry":{"type":"Point","coordinates":[-10.016,10.619]}},{"type":"Feature","properties":{"NAME":"几内亚比绍","NAME_LONG":"几内亚比绍","LABELRANK":6},"geometry":{"type":"Point","coordinates":[-14.524,12.164]}},{"type":"Feature","properties":{"NAME":"利比里亚","NAME_LONG":"利比里亚","LABELRANK":4},"geometry":{"type":"Point","coordinates":[-9.46,6.447]}},{"type":"Feature","properties":{"NAME":"塞拉利昂","NAME_LONG":"塞拉利昂","LABELRANK":4},"geometry":{"type":"Point","coordinates":[-11.764,8.617]}},{"type":"Feature","properties":{"NAME":"布基纳法索","NAME_LONG":"布基纳法索","LABELRANK":3},"geometry":{"type":"Point","coordinates":[-1.364,12.673]}},{"type":"Feature","properties":{"NAME":"中非共和国","NAME_LONG":"中非共和国","LABELRANK":4},"geometry":{"type":"Point","coordinates":[20.907,6.99]}},{"type":"Feature","properties":{"NAME":"刚果（布）","NAME_LONG":"刚果（布）","LABELRANK":4},"geometry":{"type":"Point","coordinates":[15.9,0.142]}},{"type":"Feature","properties":{"NAME":"加蓬","NAME_LONG":"加蓬","LABELRANK":4},"geometry":{"type":"Point","coordinates":[11.836,-0.438]}},{"type":"Feature","properties":{"NAME":"赤道几内亚","NAME_LONG":"赤道几内亚","LABELRANK":4},"geometry":{"type":"Point","coordinates":[8.99,2.333]}},{"type":"Feature","properties":{"NAME":"赞比亚","NAME_LONG":"赞比亚","LABELRANK":3},"geometry":{"type":"Point","coordinates":[26.395,-14.661]}},{"type":"Feature","properties":{"NAME":"马拉维","NAME_LONG":"马拉维","LABELRANK":6},"geometry":{"type":"Point","coordinates":[33.608,-13.387]}},{"type":"Feature","properties":{"NAME":"莫桑比克","NAME_LONG":"莫桑比克","LABELRANK":3},"geometry":{"type":"Point","coordinates":[37.838,-13.943]}},{"type":"Feature","properties":{"NAME":"斯威士兰","NAME_LONG":"斯威士兰","LABELRANK":4},"geometry":{"type":"Point","coordinates":[31.467,-26.534]}},{"type":"Feature","properties":{"NAME":"安哥拉","NAME_LONG":"安哥拉","LABELRANK":3},"geometry":{"type":"Point","coordinates":[17.984,-12.183]}},{"type":"Feature","properties":{"NAME":"布隆迪","NAME_LONG":"布隆迪","LABELRANK":6},"geometry":{"type":"Point","coordinates":[29.917,-3.333]}},{"type":"Feature","properties":{"NAME":"以色列","NAME_LONG":"以色列","LABELRANK":4},"geometry":{"type":"Point","coordinates":[34.848,30.911]}},{"type":"Feature","properties":{"NAME":"黎巴嫩","NAME_LONG":"黎巴嫩","LABELRANK":5},"geometry":{"type":"Point","coordinates":[35.993,34.133]}},{"type":"Feature","properties":{"NAME":"马达加斯加","NAME_LONG":"马达加斯加","LABELRANK":3},"geometry":{"type":"Point","coordinates":[46.704,-18.628]}},{"type":"Feature","properties":{"NAME":"巴勒斯坦领土","NAME_LONG":"巴勒斯坦领土","LABELRANK":5},"geometry":{"type":"Point","coordinates":[35.291,32.047]}},{"type":"Feature","properties":{"NAME":"冈比亚","NAME_LONG":"冈比亚","LABELRANK":6},"geometry":{"type":"Point","coordinates":[-14.998,13.642]}},{"type":"Feature","properties":{"NAME":"突尼斯","NAME_LONG":"突尼斯","LABELRANK":3},"geometry":{"type":"Point","coordinates":[9.008,33.687]}},{"type":"Feature","properties":{"NAME":"阿尔及利亚","NAME_LONG":"阿尔及利亚","LABELRANK":3},"geometry":{"type":"Point","coordinates":[2.808,27.397]}},{"type":"Feature","properties":{"NAME":"约旦","NAME_LONG":"约旦","LABELRANK":4},"geometry":{"type":"Point","coordinates":[36.376,30.805]}},{"type":"Feature","properties":{"NAME":"阿拉伯联合酋长国","NAME_LONG":"阿拉伯联合酋长国","LABELRANK":4},"geometry":{"type":"Point","coordinates":[54.547,23.466]}},{"type":"Feature","properties":{"NAME":"卡塔尔","NAME_LONG":"卡塔尔","LABELRANK":5},"geometry":{"type":"Point","coordinates":[51.144,25.237]}},{"type":"Feature","properties":{"NAME":"科威特","NAME_LONG":"科威特","LABELRANK":6},"geometry":{"type":"Point","coordinates":[47.314,29.414]}},{"type":"Feature","properties":{"NAME":"伊拉克","NAME_LONG":"伊拉克","LABELRANK":3},"geometry":{"type":"Point","coordinates":[43.262,33.094]}},{"type":"Feature","properties":{"NAME":"阿曼","NAME_LONG":"阿曼","LABELRANK":4},"geometry":{"type":"Point","coordinates":[57.337,22.12]}},{"type":"Feature","properties":{"NAME":"瓦努阿图","NAME_LONG":"瓦努阿图","LABELRANK":4},"geometry":{"type":"Point","coordinates":[166.909,-15.372]}},{"type":"Feature","properties":{"NAME":"柬埔寨","NAME_LONG":"柬埔寨","LABELRANK":3},"geometry":{"type":"Point","coordinates":[104.505,12.648]}},{"type":"Feature","properties":{"NAME":"泰国","NAME_LONG":"泰国","LABELRANK":3},"geometry":{"type":"Point","coordinates":[101.073,15.46]}},{"type":"Feature","properties":{"NAME":"老挝","NAME_LONG":"老挝","LABELRANK":4},"geometry":{"type":"Point","coordinates":[102.534,19.432]}},{"type":"Feature","properties":{"NAME":"缅甸","NAME_LONG":"缅甸","LABELRANK":3},"geometry":{"type":"Point","coordinates":[95.804,21.574]}},{"type":"Feature","properties":{"NAME":"越南","NAME_LONG":"越南","LABELRANK":2},"geometry":{"type":"Point","coordinates":[105.387,21.715]}},{"type":"Feature","properties":{"NAME":"朝鲜","NAME_LONG":"朝鲜","LABELRANK":3},"geometry":{"type":"Point","coordinates":[126.445,39.885]}},{"type":"Feature","properties":{"NAME":"韩国","NAME_LONG":"韩国","LABELRANK":2},"geometry":{"type":"Point","coordinates":[128.13,36.385]}},{"type":"Feature","properties":{"NAME":"蒙古","NAME_LONG":"蒙古","LABELRANK":3},"geometry":{"type":"Point","coordinates":[104.15,45.997]}},{"type":"Feature","properties":{"NAME":"印度","NAME_LONG":"印度","LABELRANK":2},"geometry":{"type":"Point","coordinates":[79.358,22.687]}},{"type":"Feature","properties":{"NAME":"孟加拉国","NAME_LONG":"孟加拉国","LABELRANK":3},"geometry":{"type":"Point","coordinates":[89.685,24.215]}},{"type":"Feature","properties":{"NAME":"不丹","NAME_LONG":"不丹","LABELRANK":5},"geometry":{"type":"Point","coordinates":[90.04,27.537]}},{"type":"Feature","properties":{"NAME":"尼泊尔","NAME_LONG":"尼泊尔","LABELRANK":3},"geometry":{"type":"Point","coordinates":[83.64,28.298]}},{"type":"Feature","properties":{"NAME":"巴基斯坦","NAME_LONG":"巴基斯坦","LABELRANK":2},"geometry":{"type":"Point","coordinates":[68.546,29.328]}},{"type":"Feature","properties":{"NAME":"阿富汗","NAME_LONG":"阿富汗","LABELRANK":3},"geometry":{"type":"Point","coordinates":[66.497,34.164]}},{"type":"Feature","properties":{"NAME":"塔吉克斯坦","NAME_LONG":"塔吉克斯坦","LABELRANK":4},"geometry":{"type":"Point","coordinates":[72.587,38.2]}},{"type":"Feature","properties":{"NAME":"吉尔吉斯斯坦","NAME_LONG":"吉尔吉斯斯坦","LABELRANK":4},"geometry":{"type":"Point","coordinates":[74.533,41.669]}},{"type":"Feature","properties":{"NAME":"土库曼斯坦","NAME_LONG":"土库曼斯坦","LABELRANK":4},"geometry":{"type":"Point","coordinates":[58.677,39.855]}},{"type":"Feature","properties":{"NAME":"伊朗","NAME_LONG":"伊朗","LABELRANK":2},"geometry":{"type":"Point","coordinates":[54.931,32.166]}},{"type":"Feature","properties":{"NAME":"叙利亚","NAME_LONG":"叙利亚","LABELRANK":3},"geometry":{"type":"Point","coordinates":[38.278,35.007]}},{"type":"Feature","properties":{"NAME":"亚美尼亚","NAME_LONG":"亚美尼亚","LABELRANK":6},"geometry":{"type":"Point","coordinates":[44.801,40.459]}},{"type":"Feature","properties":{"NAME":"瑞典","NAME_LONG":"瑞典","LABELRANK":3},"geometry":{"type":"Point","coordinates":[19.017,65.859]}},{"type":"Feature","properties":{"NAME":"白俄罗斯","NAME_LONG":"白俄罗斯","LABELRANK":4},"geometry":{"type":"Point","coordinates":[28.418,53.822]}},{"type":"Feature","properties":{"NAME":"乌克兰","NAME_LONG":"乌克兰","LABELRANK":3},"geometry":{"type":"Point","coordinates":[32.141,49.725]}},{"type":"Feature","properties":{"NAME":"波兰","NAME_LONG":"波兰","LABELRANK":3},"geometry":{"type":"Point","coordinates":[19.49,51.99]}},{"type":"Feature","properties":{"NAME":"奥地利","NAME_LONG":"奥地利","LABELRANK":4},"geometry":{"type":"Point","coordinates":[14.131,47.519]}},{"type":"Feature","properties":{"NAME":"匈牙利","NAME_LONG":"匈牙利","LABELRANK":5},"geometry":{"type":"Point","coordinates":[19.448,47.087]}},{"type":"Feature","properties":{"NAME":"摩尔多瓦","NAME_LONG":"摩尔多瓦","LABELRANK":6},"geometry":{"type":"Point","coordinates":[28.488,47.435]}},{"type":"Feature","properties":{"NAME":"罗马尼亚","NAME_LONG":"罗马尼亚","LABELRANK":3},"geometry":{"type":"Point","coordinates":[24.973,45.733]}},{"type":"Feature","properties":{"NAME":"立陶宛","NAME_LONG":"立陶宛","LABELRANK":5},"geometry":{"type":"Point","coordinates":[24.09,55.104]}},{"type":"Feature","properties":{"NAME":"拉脱维亚","NAME_LONG":"拉脱维亚","LABELRANK":5},"geometry":{"type":"Point","coordinates":[25.459,57.067]}},{"type":"Feature","properties":{"NAME":"爱沙尼亚","NAME_LONG":"爱沙尼亚","LABELRANK":6},"geometry":{"type":"Point","coordinates":[25.867,58.725]}},{"type":"Feature","properties":{"NAME":"德国","NAME_LONG":"德国","LABELRANK":2},"geometry":{"type":"Point","coordinates":[9.678,50.962]}},{"type":"Feature","properties":{"NAME":"保加利亚","NAME_LONG":"保加利亚","LABELRANK":4},"geometry":{"type":"Point","coordinates":[25.157,42.509]}},{"type":"Feature","properties":{"NAME":"希腊","NAME_LONG":"希腊","LABELRANK":3},"geometry":{"type":"Point","coordinates":[21.726,39.493]}},{"type":"Feature","properties":{"NAME":"土耳其","NAME_LONG":"土耳其","LABELRANK":2},"geometry":{"type":"Point","coordinates":[34.508,39.345]}},{"type":"Feature","properties":{"NAME":"阿尔巴尼亚","NAME_LONG":"阿尔巴尼亚","LABELRANK":6},"geometry":{"type":"Point","coordinates":[20.114,40.655]}},{"type":"Feature","properties":{"NAME":"克罗地亚","NAME_LONG":"克罗地亚","LABELRANK":6},"geometry":{"type":"Point","coordinates":[16.372,45.806]}},{"type":"Feature","properties":{"NAME":"瑞士","NAME_LONG":"瑞士","LABELRANK":4},"geometry":{"type":"Point","coordinates":[7.464,46.719]}},{"type":"Feature","properties":{"NAME":"卢森堡","NAME_LONG":"卢森堡","LABELRANK":6},"geometry":{"type":"Point","coordinates":[6.078,49.734]}},{"type":"Feature","properties":{"NAME":"比利时","NAME_LONG":"比利时","LABELRANK":2},"geometry":{"type":"Point","coordinates":[4.8,50.785]}},{"type":"Feature","properties":{"NAME":"荷兰","NAME_LONG":"荷兰","LABELRANK":5},"geometry":{"type":"Point","coordinates":[5.611,52.422]}},{"type":"Feature","properties":{"NAME":"葡萄牙","NAME_LONG":"葡萄牙","LABELRANK":2},"geometry":{"type":"Point","coordinates":[-8.272,39.607]}},{"type":"Feature","properties":{"NAME":"西班牙","NAME_LONG":"西班牙","LABELRANK":2},"geometry":{"type":"Point","coordinates":[-3.465,40.091]}},{"type":"Feature","properties":{"NAME":"爱尔兰","NAME_LONG":"爱尔兰","LABELRANK":3},"geometry":{"type":"Point","coordinates":[-7.799,53.079]}},{"type":"Feature","properties":{"NAME":"新喀里多尼亚","NAME_LONG":"新喀里多尼亚","LABELRANK":3},"geometry":{"type":"Point","coordinates":[165.084,-21.065]}},{"type":"Feature","properties":{"NAME":"所罗门群岛","NAME_LONG":"所罗门群岛","LABELRANK":3},"geometry":{"type":"Point","coordinates":[159.17,-8.03]}},{"type":"Feature","properties":{"NAME":"新西兰","NAME_LONG":"新西兰","LABELRANK":2},"geometry":{"type":"Point","coordinates":[172.787,-39.759]}},{"type":"Feature","properties":{"NAME":"澳大利亚","NAME_LONG":"澳大利亚","LABELRANK":2},"geometry":{"type":"Point","coordinates":[134.05,-24.13]}},{"type":"Feature","properties":{"NAME":"斯里兰卡","NAME_LONG":"斯里兰卡","LABELRANK":3},"geometry":{"type":"Point","coordinates":[80.705,7.581]}},{"type":"Feature","properties":{"NAME":"中国","NAME_LONG":"中国","LABELRANK":2},"geometry":{"type":"Point","coordinates":[106.337,32.498]}},{"type":"Feature","properties":{"NAME":"台湾","NAME_LONG":"台湾","LABELRANK":3},"geometry":{"type":"Point","coordinates":[120.868,23.652]}},{"type":"Feature","properties":{"NAME":"意大利","NAME_LONG":"意大利","LABELRANK":2},"geometry":{"type":"Point","coordinates":[11.077,44.732]}},{"type":"Feature","properties":{"NAME":"丹麦","NAME_LONG":"丹麦","LABELRANK":4},"geometry":{"type":"Point","coordinates":[9.018,55.967]}},{"type":"Feature","properties":{"NAME":"英国","NAME_LONG":"英国","LABELRANK":2},"geometry":{"type":"Point","coordinates":[-2.116,54.403]}},{"type":"Feature","properties":{"NAME":"冰岛","NAME_LONG":"冰岛","LABELRANK":3},"geometry":{"type":"Point","coordinates":[-18.674,64.779]}},{"type":"Feature","properties":{"NAME":"阿塞拜疆","NAME_LONG":"阿塞拜疆","LABELRANK":5},"geometry":{"type":"Point","coordinates":[47.211,40.402]}},{"type":"Feature","properties":{"NAME":"格鲁吉亚","NAME_LONG":"格鲁吉亚","LABELRANK":5},"geometry":{"type":"Point","coordinates":[43.736,41.87]}},{"type":"Feature","properties":{"NAME":"菲律宾","NAME_LONG":"菲律宾","LABELRANK":2},"geometry":{"type":"Point","coordinates":[122.465,11.198]}},{"type":"Feature","properties":{"NAME":"马来西亚","NAME_LONG":"马来西亚","LABELRANK":3},"geometry":{"type":"Point","coordinates":[113.837,2.529]}},{"type":"Feature","properties":{"NAME":"文莱","NAME_LONG":"文莱","LABELRANK":6},"geometry":{"type":"Point","coordinates":[114.552,4.448]}},{"type":"Feature","properties":{"NAME":"斯洛文尼亚","NAME_LONG":"斯洛文尼亚","LABELRANK":6},"geometry":{"type":"Point","coordinates":[14.915,46.061]}},{"type":"Feature","properties":{"NAME":"芬兰","NAME_LONG":"芬兰","LABELRANK":3},"geometry":{"type":"Point","coordinates":[27.276,63.252]}},{"type":"Feature","properties":{"NAME":"斯洛伐克","NAME_LONG":"斯洛伐克","LABELRANK":6},"geometry":{"type":"Point","coordinates":[19.05,48.734]}},{"type":"Feature","properties":{"NAME":"捷克","NAME_LONG":"捷克","LABELRANK":5},"geometry":{"type":"Point","coordinates":[15.378,49.882]}},{"type":"Feature","properties":{"NAME":"厄立特里亚","NAME_LONG":"厄立特里亚","LABELRANK":4},"geometry":{"type":"Point","coordinates":[38.286,15.787]}},{"type":"Feature","properties":{"NAME":"日本","NAME_LONG":"日本","LABELRANK":2},"geometry":{"type":"Point","coordinates":[138.442,36.143]}},{"type":"Feature","properties":{"NAME":"巴拉圭","NAME_LONG":"巴拉圭","LABELRANK":4},"geometry":{"type":"Point","coordinates":[-60.146,-21.675]}},{"type":"Feature","properties":{"NAME":"也门","NAME_LONG":"也门","LABELRANK":3},"geometry":{"type":"Point","coordinates":[45.874,15.328]}},{"type":"Feature","properties":{"NAME":"沙特阿拉伯","NAME_LONG":"沙特阿拉伯","LABELRANK":2},"geometry":{"type":"Point","coordinates":[44.7,23.807]}},{"type":"Feature","properties":{"NAME":"南极洲","NAME_LONG":"南极洲","LABELRANK":4},"geometry":{"type":"Point","coordinates":[35.885,-79.843]}},{"type":"Feature","properties":{"NAME":"N. Cyprus","NAME_LONG":"N. Cyprus","LABELRANK":6},"geometry":{"type":"Point","coordinates":[33.692,35.216]}},{"type":"Feature","properties":{"NAME":"塞浦路斯","NAME_LONG":"塞浦路斯","LABELRANK":5},"geometry":{"type":"Point","coordinates":[33.084,34.913]}},{"type":"Feature","properties":{"NAME":"摩洛哥","NAME_LONG":"摩洛哥","LABELRANK":3},"geometry":{"type":"Point","coordinates":[-7.187,31.651]}},{"type":"Feature","properties":{"NAME":"埃及","NAME_LONG":"埃及","LABELRANK":2},"geometry":{"type":"Point","coordinates":[29.446,26.186]}},{"type":"Feature","properties":{"NAME":"利比亚","NAME_LONG":"利比亚","LABELRANK":3},"geometry":{"type":"Point","coordinates":[18.011,26.639]}},{"type":"Feature","properties":{"NAME":"埃塞俄比亚","NAME_LONG":"埃塞俄比亚","LABELRANK":2},"geometry":{"type":"Point","coordinates":[39.089,8.033]}},{"type":"Feature","properties":{"NAME":"吉布提","NAME_LONG":"吉布提","LABELRANK":5},"geometry":{"type":"Point","coordinates":[42.499,11.976]}},{"type":"Feature","properties":{"NAME":"Somaliland","NAME_LONG":"Somaliland","LABELRANK":5},"geometry":{"type":"Point","coordinates":[46.732,9.444]}},{"type":"Feature","properties":{"NAME":"乌干达","NAME_LONG":"乌干达","LABELRANK":3},"geometry":{"type":"Point","coordinates":[32.949,1.973]}},{"type":"Feature","properties":{"NAME":"卢旺达","NAME_LONG":"卢旺达","LABELRANK":3},"geometry":{"type":"Point","coordinates":[30.104,-1.897]}},{"type":"Feature","properties":{"NAME":"波斯尼亚和黑塞哥维那","NAME_LONG":"波斯尼亚和黑塞哥维那","LABELRANK":5},"geometry":{"type":"Point","coordinates":[18.068,44.091]}},{"type":"Feature","properties":{"NAME":"北马其顿","NAME_LONG":"北马其顿","LABELRANK":6},"geometry":{"type":"Point","coordinates":[21.556,41.558]}},{"type":"Feature","properties":{"NAME":"塞尔维亚","NAME_LONG":"塞尔维亚","LABELRANK":5},"geometry":{"type":"Point","coordinates":[20.788,44.19]}},{"type":"Feature","properties":{"NAME":"黑山","NAME_LONG":"黑山","LABELRANK":6},"geometry":{"type":"Point","coordinates":[19.144,42.803]}},{"type":"Feature","properties":{"NAME":"科索沃","NAME_LONG":"科索沃","LABELRANK":6},"geometry":{"type":"Point","coordinates":[20.861,42.594]}},{"type":"Feature","properties":{"NAME":"特立尼达和多巴哥","NAME_LONG":"特立尼达和多巴哥","LABELRANK":5},"geometry":{"type":"Point","coordinates":[-60.918,10.999]}},{"type":"Feature","properties":{"NAME":"南苏丹","NAME_LONG":"南苏丹","LABELRANK":3},"geometry":{"type":"Point","coordinates":[30.39,7.23]}}]}