{"type":"FeatureCollection","features":[{"type":"Feature","properties":{"NAME":"Фиджи","NAME_LONG":"Фиджи","LABELRANK":6},"geometry":{"type":"Point","coordinates":[177.975,-17.826]}},{"type":"Feature","properties":{"NAME":"Танзания","NAME_LONG":"Танзания","LABELRANK":3},"geometry":{"type":"Point","coordinates":[34.959,-6.052]}},{"type":"Feature","properties":{"NAME":"Западная Сахара","NAME_LONG":"Западная Сахара","LABELRANK":7},"geometry":{"type":"Point","coordinates":[-12.63,23.968]}},{"type":"Feature","properties":{"NAME":"Канада","NAME_LONG":"Канада","LABELRANK":2},"geometry":{"type":"Point","coordinates":[-101.911,60.324]}},{"type":"Feature","properties":{"NAME":"Соединенные Штаты","NAME_LONG":"Соединенные Штаты","LABELRANK":2},"geometry":{"type":"Point","coordinates":[-97.483,39.538]}},{"type":"Feature","properties":{"NAME":"Казахстан","NAME_LONG":"Казахстан","LABELRANK":3},"geometry":{"type":"Point","coordinates":[68.686,49.054]}},{"type":"Feature","properties":{"NAME":"Узбекистан","NAME_LONG":"Узбекистан","LABELRANK":3},"geometry":{"type":"Point","coordinates":[64.005,41.694]}},{"type":"Feature","properties":{"NAME":"Папуа — Новая Гвинея","NAME_LONG":"Папуа — Новая Гвинея","LABELRANK":2},"geometry":{"type":"Point","coordinates":[143.91,-5.695]}},{"type":"Feature","properties":{"NAME":"Индонезия","NAME_LONG":"Индонезия","LABELRANK":2},"geometry":{"type":"Point","coordinates":[101.893,-0.954]}},{"type":"Feature","properties":{"NAME":"Аргентина","NAME_LONG":"Аргентина","LABELRANK":2},"geometry":{"type":"Point","coordinates":[-64.173,-33.501]}},{"type":"Feature","properties":{"NAME":"Чили","NAME_LONG":"Чили","LABELRANK":2},"geometry":{"type":"Point","coordinates":[-72.319,-38.152]}},{"type":"Feature","properties":{"NAME":"Конго - Киншаса","NAME_LONG":"Конго - Киншаса","LABELRANK":2},"geometry":{"type":"Point","coordinates":[23.459,-1.858]}},{"type":"Feature","properties":{"NAME":"Сомали","NAME_LONG":"Сомали","LABELRANK":6},"geometry":{"type":"Point","coordinates":[45.192,3.569]}},{"type":"Feature","properties":{"NAME":"Кения","NAME_LONG":"Кения","LABELRANK":2},"geometry":{"type":"Point","coordinates":[37.908,0.549]}},{"type":"Feature","properties":{"NAME":"Судан","NAME_LONG":"Судан","LABELRANK":3},"geometry":{"type":"Point","coordinates":[29.261,16.331]}},{"type":"Feature","properties":{"NAME":"Чад","NAME_LONG":"Чад","LABELRANK":3},"geometry":{"type":"Point","coordinates":[18.645,15.143]}},{"type":"Feature","properties":{"NAME":"Гаити","NAME_LONG":"Гаити","LABELRANK":5},"geometry":{"type":"Point","coordinates":[-72.224,19.264]}},{"type":"Feature","properties":{"NAME":"Доминиканская Республика","NAME_LONG":"Доминиканская Республика","LABELRANK":5},"geometry":{"type":"Point","coordinates":[-70.654,19.104]}},{"type":"Feature","properties":{"NAME":"Россия","NAME_LONG":"Россия","LABELRANK":2},"geometry":{"type":"Point","coordinates":[44.686,58.249]}},{"type":"Feature","properties":{"NAME":"Багамы","NAME_LONG":"Багамы","LABELRANK":4},"geometry":{"type":"Point","coordinates":[-77.147,26.402]}},{"type":"Feature","properties":{"NAME":"Фолклендские о-ва","NAME_LONG":"Фолклендские о-ва","LABELRANK":5},"geometry":{"type":"Point","coordinates":[-58.739,-51.609]}},{"type":"Feature","properties":{"NAME":"Норвегия","NAME_LONG":"Норвегия","LABELRANK":3},"geometry":{"type":"Point","coordinates":[9.68,61.357]}},{"type":"Feature","properties":{"NAME":"Гренландия","NAME_LONG":"Гренландия","LABELRANK":3},"geometry":{"type":"Point","coordinates":[-39.335,74.319]}},{"type":"Feature","properties":{"NAME":"Французские Южные территории","NAME_LONG":"Французские Южные территории","LABELRANK":6},"geometry":{"type":"Point","coordinates":[69.122,-49.304]}},{"type":"Feature","properties":{"NAME":"Восточный Тимор","NAME_LONG":"Восточный Тимор","LABELRANK":5},"geometry":{"type":"Point","coordinates":[125.855,-8.804]}},{"type":"Feature","properties":{"NAME":"Южно-Африканская Республика","NAME_LONG":"Южно-Африканская Республика","LABELRANK":2},"geometry":{"type":"Point","coordinates":[23.666,-29.709]}},{"type":"Feature","properties":{"NAME":"Лесото","NAME_LONG":"Лесото","LABELRANK":6},"geometry":{"type":"Point","coordinates":[28.247,-29.48]}},{"type":"Feature","properties":{"NAME":"Мексика","NAME_LONG":"Мексика","LABELRANK":2},"geometry":{"type":"Point","coordinates":[-102.289,23.92]}},{"type":"Feature","properties":{"NAME":"Уругвай","NAME_LONG":"Уругвай","LABELRANK":4},"geometry":{"type":"Point","coordinates":[-55.967,-32.961]}},{"type":"Feature","properties":{"NAME":"Бразилия","NAME_LONG":"Бразилия","LABELRANK":2},"geometry":{"type":"Point","coordinates":[-49.559,-12.099]}},{"type":"Feature","properties":{"NAME":"Боливия","NAME_LONG":"Боливия","LABELRANK":3},"geometry":{"type":"Point","coordinates":[-64.593,-16.666]}},{"type":"Feature","properties":{"NAME":"Перу","NAME_LONG":"Перу","LABELRANK":2},"geometry":{"type":"Point","coordinates":[-72.9,-12.977]}},{"type":"Feature","properties":{"NAME":"Колумбия","NAME_LONG":"Колумбия","LABELRANK":2},"geometry":{"type":"Point","coordinates":[-73.174,3.373]}},{"type":"Feature","properties":{"NAME":"Панама","NAME_LONG":"Панама","LABELRANK":4},"geometry":{"type":"Point","coordinates":[-80.352,8.722]}},{"type":"Feature","properties":{"NAME":"Коста-Рика","NAME_LONG":"Коста-Рика","LABELRANK":5},"geometry":{"type":"Point","coordinates":[-84.078,10.065]}},{"type":"Feature","properties":{"NAME":"Никарагуа","NAME_LONG":"Никарагуа","LABELRANK":5},"geometry":{"type":"Point","coordinates":[-85.069,12.671]}},{"type":"Feature","properties":{"NAME":"Гондурас","NAME_LONG":"Гондурас","LABELRANK":5},"geometry":{"type":"Point","coordinates":[-86.888,14.795]}},{"type":"Feature","properties":{"NAME":"Сальвадор","NAME_LONG":"Сальвадор","LABELRANK":6},"geometry":{"type":"Point","coordinates":[-88.89,13.685]}},{"type":"Feature","properties":{"NAME":"Гватемала","NAME_LONG":"Гватемала","LABELRANK":3},"geometry":{"type":"Point","coordinates":[-90.497,14.982]}},{"type":"Feature","properties":{"NAME":"Белиз","NAME_LONG":"Белиз","LABELRANK":6},"geometry":{"type":"Point","coordinates":[-88.713,17.202]}},{"type":"Feature","properties":{"NAME":"Венесуэла","NAME_LONG":"Венесуэла","LABELRANK":3},"geometry":{"type":"Point","coordinates":[-64.599,7.182]}},{"type":"Feature","properties":{"NAME":"Гайана","NAME_LONG":"Гайана","LABELRANK":4},"geometry":{"type":"Point","coordinates":[-58.943,5.124]}},{"type":"Feature","properties":{"NAME":"Суринам","NAME_LONG":"Суринам","LABELRANK":4},"geometry":{"type":"Point","coordinates":[-55.911,4.144]}},{"type":"Feature","properties":{"NAME":"Франция","NAME_LONG":"Франция","LABELRANK":2},"geometry":{"type":"Point","coordinates":[2.552,46.696]}},{"type":"Feature","properties":{"NAME":"Эквадор","NAME_LONG":"Эквадор","LABELRANK":3},"geometry":{"type":"Point","coordinates":[-78.188,-1.259]}},{"type":"Feature","properties":{"NAME":"Пуэрто-Рико","NAME_LONG":"Пуэрто-Рико","LABELRANK":5},"geometry":{"type":"Point","coordinates":[-66.481,18.235]}},{"type":"Feature","properties":{"NAME":"Ямайка","NAME_LONG":"Ямайка","LABELRANK":4},"geometry":{"type":"Point","coordinates":[-77.319,18.137]}},{"type":"Feature","properties":{"NAME":"Куба","NAME_LONG":"Куба","LABELRANK":3},"geometry":{"type":"Point","coordinates":[-77.976,21.334]}},{"type":"Feature","properties":{"NAME":"Зимбабве","NAME_LONG":"Зимбабве","LABELRANK":3},"geometry":{"type":"Point","coordinates":[29.925,-18.912]}},{"type":"Feature","properties":{"NAME":"Ботсвана","NAME_LONG":"Ботсвана","LABELRANK":4},"geometry":{"type":"Point","coordinates":[24.179,-22.103]}},{"type":"Feature","properties":{"NAME":"Намибия","NAME_LONG":"Намибия","LABELRANK":3},"geometry":{"type":"Point","coordinates":[17.108,-20.575]}},{"type":"Feature","properties":{"NAME":"Сенегал","NAME_LONG":"Сенегал","LABELRANK":3},"geometry":{"type":"Point","coordinates":[-14.779,15.138]}},{"type":"Feature","properties":{"NAME":"Мали","NAME_LONG":"Мали","LABELRANK":3},"geometry":{"type":"Point","coordinates":[-2.038,18.693]}},{"type":"Feature","properties":{"NAME":"Мавритания","NAME_LONG":"Мавритания","LABELRANK":3},"geometry":{"type":"Point","coordinates":[-9.74,19.587]}},{"type":"Feature","properties":{"NAME":"Бенин","NAME_LONG":"Бенин","LABELRANK":5},"geometry":{"type":"Point","coordinates":[2.352,10.325]}},{"type":"Feature","properties":{"NAME":"Нигер","NAME_LONG":"Нигер","LABELRANK":3},"geometry":{"type":"Point","coordinates":[9.504,17.446]}},{"type":"Feature","properties":{"NAME":"Нигерия","NAME_LONG":"Нигерия","LABELRANK":2},"geometry":{"type":"Point","coordinates":[7.503,9.44]}},{"type":"Feature","properties":{"NAME":"Камерун","NAME_LONG":"Камерун","LABELRANK":3},"geometry":{"type":"Point","coordinates":[12.473,4.585]}},{"type":"Feature","properties":{"NAME":"Того","NAME_LONG":"Того","LABELRANK":6},"geometry":{"type":"Point","coordinates":[1.058,8.807]}},{"type":"Feature","properties":{"NAME":"Гана","NAME_LONG":"Гана","LABELRANK":3},"geometry":{"type":"Point","coordinates":[-1.037,7.718]}},{"type":"Feature","properties":{"NAME":"Кот-д’Ивуар","NAME_LONG":"Кот-д’Ивуар","LABELRANK":3},"geometry":{"type":"Point","coordinates":[-5.569,7.491]}},{"type":"Feature","properties":{"NAME":"Гвинея","NAME_LONG":"Гвинея","LABELRANK":3},"geometry":{"type":"Point","coordinates":[-10.016,10.619]}},{"type":"Feature","properties":{"NAME":"Гвинея-Бисау","NAME_LONG":"Гвинея-Бисау","LABELRANK":6},"geometry":{"type":"Point","coordinates":[-14.524,12.164]}},{"type":"Feature","properties":{"NAME":"Либерия","NAME_LONG":"Либерия","LABELRANK":4},"geometry":{"type":"Point","coordinates":[-9.46,6.447]}},{"type":"Feature","properties":{"NAME":"Сьерра-Леоне","NAME_LONG":"Сьерра-Леоне","LABELRANK":4},"geometry":{"type":"Point","coordinates":[-11.764,8.617]}},{"type":"Feature","properties":{"NAME":"Буркина-Фасо","NAME_LONG":"Буркина-Фасо","LABELRANK":3},"geometry":{"type":"Point","coordinates":[-1.364,12.673]}},{"type":"Feature","properties":{"NAME":"Центрально-Африканская Республика","NAME_LONG":"Центрально-Африканская Республика","LABELRANK":4},"geometry":{"type":"Point","coordinates":[20.907,6.99]}},{"type":"Feature","properties":{"NAME":"Конго - Браззавиль","NAME_LONG":"Конго - Браззавиль","LABELRANK":4},"geometry":{"type":"Point","coordinates":[15.9,0.142]}},{"type":"Feature","properties":{"NAME":"Габон","NAME_LONG":"Габон","LABELRANK":4},"geometry":{"type":"Point","coordinates":[11.836,-0.438]}},{"type":"Feature","properties":{"NAME":"Экваториальная Гвинея","NAME_LONG":"Экваториальная Гвинея","LABELRANK":4},"geometry":{"type":"Point","coordinates":[8.99,2.333]}},{"type":"Feature","properties":{"NAME":"Замбия","NAME_LONG":"Замбия","LABELRANK":3},"geometry":{"type":"Point","coordinates":[26.395,-14.661]}},{"type":"Feature","properties":{"NAME":"Малави","NAME_LONG":"Малави","LABELRANK":6},"geometry":{"type":"Point","coordinates":[33.608,-13.387]}},{"type":"Feature","properties":{"NAME":"Мозамбик","NAME_LONG":"Мозамбик","LABELRANK":3},"geometry":{"type":"Point","coordinates":[37.838,-13.943]}},{"type":"Feature","properties":{"NAME":"Эсватини","NAME_LONG":"Эсватини","LABELRANK":4},"geometry":{"type":"Point","coordinates":[31.467,-26.534]}},{"type":"Feature","properties":{"NAME":"Ангола","NAME_LONG":"Ангола","LABELRANK":3},"geometry":{"type":"Point","coordinates":[17.984,-12.183]}},{"type":"Feature","properties":{"NAME":"Бурунди","NAME_LONG":"Бурунди","LABELRANK":6},"geometry":{"type":"Point","coordinates":[29.917,-3.333]}},{"type":"Feature","properties":{"NAME":"Израиль","NAME_LONG":"Израиль","LABELRANK":4},"geometry":{"type":"Point","coordinates":[34.848,30.911]}},{"type":"Feature","properties":{"NAME":"Ливан","NAME_LONG":"Ливан","LABELRANK":5},"geometry":{"type":"Point","coordinates":[35.993,34.133]}},{"type":"Feature","properties":{"NAME":"Мадагаскар","NAME_LONG":"Мадагаскар","LABELRANK":3},"geometry":{"type":"Point","coordinates":[46.704,-18.628]}},{"type":"Feature","properties":{"NAME":"Палестинские территории","NAME_LONG":"Палестинские территории","LABELRANK":5},"geometry":{"type":"Point","coordinates":[35.291,32.047]}},{"type":"Feature","properties":{"NAME":"Гамбия","NAME_LONG":"Гамбия","LABELRANK":6},"geometry":{"type":"Point","coordinates":[-14.998,13.642]}},{"type":"Feature","properties":{"NAME":"Тунис","NAME_LONG":"Тунис","LABELRANK":3},"geometry":{"type":"Point","coordinates":[9.008,33.687]}},{"type":"Feature","properties":{"NAME":"Алжир","NAME_LONG":"Алжир","LABELRANK":3},"geometry":{"type":"Point","coordinates":[2.808,27.397]}},{"type":"Feature","properties":{"NAME":"Иордания","NAME_LONG":"Иордания","LABELRANK":4},"geometry":{"type":"Point","coordinates":[36.376,30.805]}},{"type":"Feature","properties":{"NAME":"ОАЭ","NAME_LONG":"ОАЭ","LABELRANK":4},"geometry":{"type":"Point","coordinates":[54.547,23.466]}},{"type":"Feature","properties":{"NAME":"Катар","NAME_LONG":"Катар","LABELRANK":5},"geometry":{"type":"Point","coordinates":[51.144,25.237]}},{"type":"Feature","properties":{"NAME":"Кувейт","NAME_LONG":"Кувейт","LABELRANK":6},"geometry":{"type":"Point","coordinates":[47.314,29.414]}},{"type":"Feature","properties":{"NAME":"Ирак","NAME_LONG":"Ирак","LABELRANK":3},"geometry":{"type":"Point","coordinates":[43.262,33.094]}},{"type":"Feature","properties":{"NAME":"Оман","NAME_LONG":"Оман","LABELRANK":4},"geometry":{"type":"Point","coordinates":[57.337,22.12]}},{"type":"Feature","properties":{"NAME":"Вануату","NAME_LONG":"Вануату","LABELRANK":4},"geometry":{"type":"Point","coordinates":[166.909,-15.372]}},{"type":"Feature","properties":{"NAME":"Камбоджа","NAME_LONG":"Камбоджа","LABELRANK":3},"geometry":{"type":"Point","coordinates":[104.505,12.648]}},{"type":"Feature","properties":{"NAME":"Таиланд","NAME_LONG":"Таиланд","LABELRANK":3},"geometry":{"type":"Point","coordinates":[101.073,15.46]}},{"type":"Feature","properties":{"NAME":"Лаос","NAME_LONG":"Лаос","LABELRANK":4},"geometry":{"type":"Point","coordinates":[102.534,19.432]}},{"type":"Feature","properties":{"NAME":"Мьянма (Бирма)","NAME_LONG":"Мьянма (Бирма)","LABELRANK":3},"geometry":{"type":"Point","coordinates":[95.804,21.574]}},{"type":"Feature","properties":{"NAME":"Вьетнам","NAME_LONG":"Вьетнам","LABELRANK":2},"geometry":{"type":"Point","coordinates":[105.387,21.715]}},{"type":"Feature","properties":{"NAME":"КНДР","NAME_LONG":"КНДР","LABELRANK":3},"geometry":{"type":"Point","coordinates":[126.445,39.885]}},{"type":"Feature","properties":{"NAME":"Республика Корея","NAME_LONG":"Республика Корея","LABELRANK":2},"geometry":{"type":"Point","coordinates":[128.13,36.385]}},{"type":"Feature","properties":{"NAME":"Монголия","NAME_LONG":"Монголия","LABELRANK":3},"geometry":{"type":"Point","coordinates":[104.15,45.997]}},{"type":"Feature","properties":{"NAME":"Индия","NAME_LONG":"Индия","LABELRANK":2},"geometry":{"type":"Point","coordinates":[79.358,22.687]}},{"type":"Feature","properties":{"NAME":"Бангладеш","NAME_LONG":"Бангладеш","LABELRANK":3},"geometry":{"type":"Point","coordinates":[89.685,24.215]}},{"type":"Feature","properties":{"NAME":"Бутан","NAME_LONG":"Бутан","LABELRANK":5},"geometry":{"type":"Point","coordinates":[90.04,27.537]}},{"type":"Feature","properties":{"NAME":"Непал","NAME_LONG":"Непал","LABELRANK":3},"geometry":{"type":"Point","coordinates":[83.64,28.298]}},{"type":"Feature","properties":{"NAME":"Пакистан","NAME_LONG":"Пакистан","LABELRANK":2},"geometry":{"type":"Point","coordinates":[68.546,29.328]}},{"type":"Feature","properties":{"NAME":"Афганистан","NAME_LONG":"Афганистан","LABELRANK":3},"geometry":{"type":"Point","coordinates":[66.497,34.164]}},{"type":"Feature","properties":{"NAME":"Таджикистан","NAME_LONG":"Таджикистан","LABELRANK":4},"geometry":{"type":"Point","coordinates":[72.587,38.2]}},{"type":"Feature","properties":{"NAME":"Киргизия","NAME_LONG":"Киргизия","LABELRANK":4},"geometry":{"type":"Point","coordinates":[74.533,41.669]}},{"type":"Feature","properties":{"NAME":"Туркменистан","NAME_LONG":"Туркменистан","LABELRANK":4},"geometry":{"type":"Point","coordinates":[58.677,39.855]}},{"type":"Feature","properties":{"NAME":"Иран","NAME_LONG":"Иран","LABELRANK":2},"geometry":{"type":"Point","coordinates":[54.931,32.166]}},{"type":"Feature","properties":{"NAME":"Сирия","NAME_LONG":"Сирия","LABELRANK":3},"geometry":{"type":"Point","coordinates":[38.278,35.007]}},{"type":"Feature","properties":{"NAME":"Армения","NAME_LONG":"Армения","LABELRANK":6},"geometry":{"type":"Point","coordinates":[44.801,40.459]}},{"type":"Feature","properties":{"NAME":"Швеция","NAME_LONG":"Швеция","LABELRANK":3},"geometry":{"type":"Point","coordinates":[19.017,65.859]}},{"type":"Feature","properties":{"NAME":"Беларусь","NAME_LONG":"Беларусь","LABELRANK":4},"geometry":{"type":"Point","coordinates":[28.418,53.822]}},{"type":"Feature","properties":{"NAME":"Украина","NAME_LONG":"Украина","LABELRANK":3},"geometry":{"type":"Point","coordinates":[32.141,49.725]}},{"type":"Feature","properties":{"NAME":"Польша","NAME_LONG":"Польша","LABELRANK":3},"geometry":{"type":"Point","coordinates":[19.49,51.99]}},{"type":"Feature","properties":{"NAME":"Австрия","NAME_LONG":"Австрия","LABELRANK":4},"geometry":{"type":"Point","coordinates":[14.131,47.519]}},{"type":"Feature","properties":{"NAME":"Венгрия","NAME_LONG":"Венгрия","LABELRANK":5},"geometry":{"type":"Point","coordinates":[19.448,47.087]}},{"type":"Feature","properties":{"NAME":"Молдова","NAME_LONG":"Молдова","LABELRANK":6},"geometry":{"type":"Point","coordinates":[28.488,47.435]}},{"type":"Feature","properties":{"NAME":"Румыния","NAME_LONG":"Румыния","LABELRANK":3},"geometry":{"type":"Point","coordinates":[24.973,45.733]}},{"type":"Feature","properties":{"NAME":"Литва","NAME_LONG":"Литва","LABELRANK":5},"geometry":{"type":"Point","coordinates":[24.09,55.104]}},{"type":"Feature","properties":{"NAME":"Латвия","NAME_LONG":"Латвия","LABELRANK":5},"geometry":{"type":"Point","coordinates":[25.459,57.067]}},{"type":"Feature","properties":{"NAME":"Эстония","NAME_LONG":"Эстония","LABELRANK":6},"geometry":{"type":"Point","coordinates":[25.867,58.725]}},{"type":"Feature","properties":{"NAME":"Германия","NAME_LONG":"Германия","LABELRANK":2},"geometry":{"type":"Point","coordinates":[9.678,50.962]}},{"type":"Feature","properties":{"NAME":"Болгария","NAME_LONG":"Болгария","LABELRANK":4},"geometry":{"type":"Point","coordinates":[25.157,42.509]}},{"type":"Feature","properties":{"NAME":"Греция","NAME_LONG":"Греция","LABELRANK":3},"geometry":{"type":"Point","coordinates":[21.726,39.493]}},{"type":"Feature","properties":{"NAME":"Турция","NAME_LONG":"Турция","LABELRANK":2},"geometry":{"type":"Point","coordinates":[34.508,39.345]}},{"type":"Feature","properties":{"NAME":"Албания","NAME_LONG":"Албания","LABELRANK":6},"geometry":{"type":"Point","coordinates":[20.114,40.655]}},{"type":"Feature","properties":{"NAME":"Хорватия","NAME_LONG":"Хорватия","LABELRANK":6},"geometry":{"type":"Point","coordinates":[16.372,45.806]}},{"type":"Feature","properties":{"NAME":"Швейцария","NAME_LONG":"Швейцария","LABELRANK":4},"geometry":{"type":"Point","coordinates":[7.464,46.719]}},{"type":"Feature","properties":{"NAME":"Люксембург","NAME_LONG":"Люксембург","LABELRANK":6},"geometry":{"type":"Point","coordinates":[6.078,49.734]}},{"type":"Feature","properties":{"NAME":"Бельгия","NAME_LONG":"Бельгия","LABELRANK":2},"geometry":{"type":"Point","coordinates":[4.8,50.785]}},{"type":"Feature","properties":{"NAME":"Нидерланды","NAME_LONG":"Нидерланды","LABELRANK":5},"geometry":{"type":"Point","coordinates":[5.611,52.422]}},{"type":"Feature","properties":{"NAME":"Португалия","NAME_LONG":"Португалия","LABELRANK":2},"geometry":{"type":"Point","coordinates":[-8.272,39.607]}},{"type":"Feature","properties":{"NAME":"Испания","NAME_LONG":"Испания","LABELRANK":2},"geometry":{"type":"Point","coordinates":[-3.465,40.091]}},{"type":"Feature","properties":{"NAME":"Ирландия","NAME_LONG":"Ирландия","LABELRANK":3},"geometry":{"type":"Point","coordinates":[-7.799,53.079]}},{"type":"Feature","properties":{"NAME":"Новая Каледония","NAME_LONG":"Новая Каледония","LABELRANK":3},"geometry":{"type":"Point","coordinates":[165.084,-21.065]}},{"type":"Feature","properties":{"NAME":"Соломоновы о-ва","NAME_LONG":"Соломоновы о-ва","LABELRANK":3},"geometry":{"type":"Point","coordinates":[159.17,-8.03]}},{"type":"Feature","properties":{"NAME":"Новая Зеландия","NAME_LONG":"Новая Зеландия","LABELRANK":2},"geometry":{"type":"Point","coordinates":[172.787,-39.759]}},{"type":"Feature","properties":{"NAME":"Австралия","NAME_LONG":"Австралия","LABELRANK":2},"geometry":{"type":"Point","coordinates":[134.05,-24.13]}},{"type":"Feature","properties":{"NAME":"Шри-Ланка","NAME_LONG":"Шри-Ланка","LABELRANK":3},"geometry":{"type":"Point","coordinates":[80.705,7.581]}},{"type":"Feature","properties":{"NAME":"Китай","NAME_LONG":"Китай","LABELRANK":2},"geometry":{"type":"Point","coordinates":[106.337,32.498]}},{"type":"Feature","properties":{"NAME":"Тайвань","NAME_LONG":"Тайвань","LABELRANK":3},"geometry":{"type":"Point","coordinates":[120.868,23.652]}},{"type":"Feature","properties":{"NAME":"Италия","NAME_LONG":"Италия","LABELRANK":2},"geometry":{"type":"Point","coordinates":[11.077,44.732]}},{"type":"Feature","properties":{"NAME":"Дания","NAME_LONG":"Дания","LABELRANK":4},"geometry":{"type":"Point","coordinates":[9.018,55.967]}},{"type":"Feature","properties":{"NAME":"Великобритания","NAME_LONG":"Великобритания","LABELRANK":2},"geometry":{"type":"Point","coordinates":[-2.116,54.403]}},{"type":"Feature","properties":{"NAME":"Исландия","NAME_LONG":"Исландия","LABELRANK":3},"geometry":{"type":"Point","coordinates":[-18.674,64.779]}},{"type":"Feature","properties":{"NAME":"Азербайджан","NAME_LONG":"Азербайджан","LABELRANK":5},"geometry":{"type":"Point","coordinates":[47.211,40.402]}},{"type":"Feature","properties":{"NAME":"Грузия","NAME_LONG":"Грузия","LABELRANK":5},"geometry":{"type":"Point","coordinates":[43.736,41.87]}},{"type":"Feature","properties":{"NAME":"Филиппины","NAME_LONG":"Филиппины","LABELRANK":2},"geometry":{"type":"Point","coordinates":[122.465,11.198]}},{"type":"Feature","properties":{"NAME":"Малайзия","NAME_LONG":"Малайзия","LABELRANK":3},"geometry":{"type":"Point","coordinates":[113.837,2.529]}},{"type":"Feature","properties":{"NAME":"Бруней","NAME_LONG":"Бруней","LABELRANK":6},"geometry":{"type":"Point","coordinates":[114.552,4.448]}},{"type":"Feature","properties":{"NAME":"Словения","NAME_LONG":"Словения","LABELRANK":6},"geometry":{"type":"Point","coordinates":[14.915,46.061]}},{"type":"Feature","properties":{"NAME":"Финляндия","NAME_LONG":"Финляндия","LABELRANK":3},"geometry":{"type":"Point","coordinates":[27.276,63.252]}},{"type":"Feature","properties":{"NAME":"Словакия","NAME_LONG":"Словакия","LABELRANK":6},"geometry":{"type":"Point","coordinates":[19.05,48.734]}},{"type":"Feature","properties":{"NAME":"Чехия","NAME_LONG":"Чехия","LABELRANK":5},"geometry":{"type":"Point","coordinates":[15.378,49.882]}},{"type":"Feature","properties":{"NAME":"Эритрея","NAME_LONG":"Эритрея","LABELRANK":4},"geometry":{"type":"Point","coordinates":[38.286,15.787]}},{"type":"Feature","properties":{"NAME":"Япония","NAME_LONG":"Япония","LABELRANK":2},"geometry":{"type":"Point","coordinates":[138.442,36.143]}},{"type":"Feature","properties":{"NAME":"Парагвай","NAME_LONG":"Парагвай","LABELRANK":4},"geometry":{"type":"Point","coordinates":[-60.146,-21.675]}},{"type":"Feature","properties":{"NAME":"Йемен","NAME_LONG":"Йемен","LABELRANK":3},"geometry":{"type":"Point","coordinates":[45.874,15.328]}},{"type":"Feature","properties":{"NAME":"Саудовская Аравия","NAME_LONG":"Саудовская Аравия","LABELRANK":2},"geometry":{"type":"Point","coordinates":[44.7,23.807]}},{"type":"Feature","properties":{"NAME":"Антарктида","NAME_LONG":"Антарктида","LABELRANK":4},"geometry":{"type":"Point","coordinates":[35.885,-79.843]}},{"type":"Feature","properties":{"NAME":"N. Cyprus","NAME_LONG":"N. Cyprus","LABELRANK":6},"geometry":{"type":"Point","coordinates":[33.692,35.216]}},{"type":"Feature","properties":{"NAME":"Кипр","NAME_LONG":"Кипр","LABELRANK":5},"geometry":{"type":"Point","coordinates":[33.084,34.913]}},{"type":"Feature","properties":{"NAME":"Марокко","NAME_LONG":"Марокко","LABELRANK":3},"geometry":{"type":"Point","coordinates":[-7.187,31.651]}},{"type":"Feature","properties":{"NAME":"Египет","NAME_LONG":"Египет","LABELRANK":2},"geometry":{"type":"Point","coordinates":[29.446,26.186]}},{"type":"Feature","properties":{"NAME":"Ливия","NAME_LONG":"Ливия","LABELRANK":3},"geometry":{"type":"Point","coordinates":[18.011,26.639]}},{"type":"Feature","properties":{"NAME":"Эфиопия","NAME_LONG":"Эфиопия","LABELRANK":2},"geometry":{"type":"Point","coordinates":[39.089,8.033]}},{"type":"Feature","properties":{"NAME":"Джибути","NAME_LONG":"Джибути","LABELRANK":5},"geometry":{"type":"Point","coordinates":[42.499,11.976]}},{"type":"Feature","properties":{"NAME":"Somaliland","NAME_LONG":"Somaliland","LABELRANK":5},"geometry":{"type":"Point","coordinates":[46.732,9.444]}},{"type":"Feature","properties":{"NAME":"Уганда","NAME_LONG":"Уганда","LABELRANK":3},"geometry":{"type":"Point","coordinates":[32.949,1.973]}},{"type":"Feature","properties":{"NAME":"Руанда","NAME_LONG":"Руанда","LABELRANK":3},"geometry":{"type":"Point","coordinates":[30.104,-1.897]}},{"type":"Feature","properties":{"NAME":"Босния и Герцеговина","NAME_LONG":"Босния и Герцеговина","LABELRANK":5},"geometry":{"type":"Point","coordinates":[18.068,44.091]}},{"type":"Feature","properties":{"NAME":"Северная Македония","NAME_LONG":"Северная Македония","LABELRANK":6},"geometry":{"type":"Point","coordinates":[21.556,41.558]}},{"type":"Feature","properties":{"NAME":"Сербия","NAME_LONG":"Сербия","LABELRANK":5},"geometry":{"type":"Point","coordinates":[20.788,44.19]}},{"type":"Feature","properties":{"NAME":"Черногория","NAME_LONG":"Черногория","LABELRANK":6},"geometry":{"type":"Point","coordinates":[19.144,42.803]}},{"type":"Feature","properties":{"NAME":"Косово","NAME_LONG":"Косово","LABELRANK":6},"geometry":{"type":"Point","coordinates":[20.861,42.594]}},{"type":"Feature","properties":{"NAME":"Тринидад и Тобаго","NAME_LONG":"Тринидад и Тобаго","LABELRANK":5},"geometry":{"type":"Point","coordinates":[-60.918,10.999]}},{"type":"Feature","properties":{"NAME":"Южный Судан","NAME_LONG":"Южный Судан","LABELRANK":3},"geometry":{"type":"Point","coordinates":[30.39,7.23]}}]}