{"type":"FeatureCollection","features":[{"type":"Feature","properties":{"NAME":"Fidji","NAME_LONG":"Fidji","LABELRANK":6},"geometry":{"type":"Point","coordinates":[177.975,-17.826]}},{"type":"Feature","properties":{"NAME":"Tanzanie","NAME_LONG":"Tanzanie","LABELRANK":3},"geometry":{"type":"Point","coordinates":[34.959,-6.052]}},{"type":"Feature","properties":{"NAME":"Sahara occidental","NAME_LONG":"Sahara occidental","LABELRANK":7},"geometry":{"type":"Point","coordinates":[-12.63,23.968]}},{"type":"Feature","properties":{"NAME":"Canada","NAME_LONG":"Canada","LABELRANK":2},"geometry":{"type":"Point","coordinates":[-101.911,60.324]}},{"type":"Feature","properties":{"NAME":"États-Unis","NAME_LONG":"États-Unis","LABELRANK":2},"geometry":{"type":"Point","coordinates":[-97.483,39.538]}},{"type":"Feature","properties":{"NAME":"Kazakhstan","NAME_LONG":"Kazakhstan","LABELRANK":3},"geometry":{"type":"Point","coordinates":[68.686,49.054]}},{"type":"Feature","properties":{"NAME":"Ouzbékistan","NAME_LONG":"Ouzbékistan","LABELRANK":3},"geometry":{"type":"Point","coordinates":[64.005,41.694]}},{"type":"Feature","properties":{"NAME":"Papouasie-Nouvelle-Guinée","NAME_LONG":"Papouasie-Nouvelle-Guinée","LABELRANK":2},"geometry":{"type":"Point","coordinates":[143.91,-5.695]}},{"type":"Feature","properties":{"NAME":"Indonésie","NAME_LONG":"Indonésie","LABELRANK":2},"geometry":{"type":"Point","coordinates":[101.893,-0.954]}},{"type":"Feature","properties":{"NAME":"Argentine","NAME_LONG":"Argentine","LABELRANK":2},"geometry":{"type":"Point","coordinates":[-64.173,-33.501]}},{"type":"Feature","properties":{"NAME":"Chili","NAME_LONG":"Chili","LABELRANK":2},"geometry":{"type":"Point","coordinates":[-72.319,-38.152]}},{"type":"Feature","properties":{"NAME":"Congo-Kinshasa","NAME_LONG":"Congo-Kinshasa","LABELRANK":2},"geometry":{"type":"Point","coordinates":[23.459,-1.858]}},{"type":"Feature","properties":{"NAME":"Somalie","NAME_LONG":"Somalie","LABELRANK":6},"geometry":{"type":"Point","coordinates":[45.192,3.569]}},{"type":"Feature","properties":{"NAME":"Kenya","NAME_LONG":"Kenya","LABELRANK":2},"geometry":{"type":"Point","coordinates":[37.908,0.549]}},{"type":"Feature","properties":{"NAME":"Soudan","NAME_LONG":"Soudan","LABELRANK":3},"geometry":{"type":"Point","coordinates":[29.261,16.331]}},{"type":"Feature","properties":{"NAME":"Tchad","NAME_LONG":"Tchad","LABELRANK":3},"geometry":{"type":"Point","coordinates":[18.645,15.143]}},{"type":"Feature","properties":{"NAME":"Haïti","NAME_LONG":"Haïti","LABELRANK":5},"geometry":{"type":"Point","coordinates":[-72.224,19.264]}},{"type":"Feature","properties":{"NAME":"République dominicaine","NAME_LONG":"République dominicaine","LABELRANK":5},"geometry":{"type":"Point","coordinates":[-70.654,19.104]}},{"type":"Feature","properties":{"NAME":"Russie","NAME_LONG":"Russie","LABELRANK":2},"geometry":{"type":"Point","coordinates":[44.686,58.249]}},{"type":"Feature","properties":{"NAME":"Bahamas","NAME_LONG":"Bahamas","LABELRANK":4},"geometry":{"type":"Point","coordinates":[-77.147,26.402]}},{"type":"Feature","properties":{"NAME":"Îles Malouines","NAME_LONG":"Îles Malouines","LABELRANK":5},"geometry":{"type":"Point","coordinates":[-58.739,-51.609]}},{"type":"Feature","properties":{"NAME":"Norvège","NAME_LONG":"Norvège","LABELRANK":3},"geometry":{"type":"Point","coordinates":[9.68,61.357]}},{"type":"Feature","properties":{"NAME":"Groenland","NAME_LONG":"Groenland","LABELRANK":3},"geometry":{"type":"Point","coordinates":[-39.335,74.319]}},{"type":"Feature","properties":{"NAME":"Terres australes françaises","NAME_LONG":"Terres australes françaises","LABELRANK":6},"geometry":{"type":"Point","coordinates":[69.122,-49.304]}},{"type":"Feature","properties":{"NAME":"Timor oriental","NAME_LONG":"Timor oriental","LABELRANK":5},"geometry":{"type":"Point","coordinates":[125.855,-8.804]}},{"type":"Feature","properties":{"NAME":"Afrique du Sud","NAME_LONG":"Afrique du Sud","LABELRANK":2},"geometry":{"type":"Point","coordinates":[23.666,-29.709]}},{"type":"Feature","properties":{"NAME":"Lesotho","NAME_LONG":"Lesotho","LABELRANK":6},"geometry":{"type":"Point","coordinates":[28.247,-29.48]}},{"type":"Feature","properties":{"NAME":"Mexique","NAME_LONG":"Mexique","LABELRANK":2},"geometry":{"type":"Point","coordinates":[-102.289,23.92]}},{"type":"Feature","properties":{"NAME":"Uruguay","NAME_LONG":"Uruguay","LABELRANK":4},"geometry":{"type":"Point","coordinates":[-55.967,-32.961]}},{"type":"Feature","properties":{"NAME":"Brésil","NAME_LONG":"Brésil","LABELRANK":2},"geometry":{"type":"Point","coordinates":[-49.559,-12.099]}},{"type":"Feature","properties":{"NAME":"Bolivie","NAME_LONG":"Bolivie","LABELRANK":3},"geometry":{"type":"Point","coordinates":[-64.593,-16.666]}},{"type":"Feature","properties":{"NAME":"Pérou","NAME_LONG":"Pérou","LABELRANK":2},"geometry":{"type":"Point","coordinates":[-72.9,-12.977]}},{"type":"Feature","properties":{"NAME":"Colombie","NAME_LONG":"Colombie","LABELRANK":2},"geometry":{"type":"Point","coordinates":[-73.174,3.373]}},{"type":"Feature","properties":{"NAME":"Panama","NAME_LONG":"Panama","LABELRANK":4},"geometry":{"type":"Point","coordinates":[-80.352,8.722]}},{"type":"Feature","properties":{"NAME":"Costa Rica","NAME_LONG":"Costa Rica","LABELRANK":5},"geometry":{"type":"Point","coordinates":[-84.078,10.065]}},{"type":"Feature","properties":{"NAME":"Nicaragua","NAME_LONG":"Nicaragua","LABELRANK":5},"geometry":{"type":"Point","coordinates":[-85.069,12.671]}},{"type":"Feature","properties":{"NAME":"Honduras","NAME_LONG":"Honduras","LABELRANK":5},"geometry":{"type":"Point","coordinates":[-86.888,14.795]}},{"type":"Feature","properties":{"NAME":"Salvador","NAME_LONG":"Salvador","LABELRANK":6},"geometry":{"type":"Point","coordinates":[-88.89,13.685]}},{"type":"Feature","properties":{"NAME":"Guatemala","NAME_LONG":"Guatemala","LABELRANK":3},"geometry":{"type":"Point","coordinates":[-90.497,14.982]}},{"type":"Feature","properties":{"NAME":"Belize","NAME_LONG":"Belize","LABELRANK":6},"geometry":{"type":"Point","coordinates":[-88.713,17.202]}},{"type":"Feature","properties":{"NAME":"Venezuela","NAME_LONG":"Venezuela","LABELRANK":3},"geometry":{"type":"Point","coordinates":[-64.599,7.182]}},{"type":"Feature","properties":{"NAME":"Guyana","NAME_LONG":"Guyana","LABELRANK":4},"geometry":{"type":"Point","coordinates":[-58.943,5.124]}},{"type":"Feature","properties":{"NAME":"Suriname","NAME_LONG":"Suriname","LABELRANK":4},"geometry":{"type":"Point","coordinates":[-55.911,4.144]}},{"type":"Feature","properties":{"NAME":"France","NAME_LONG":"France","LABELRANK":2},"geometry":{"type":"Point","coordinates":[2.552,46.696]}},{"type":"Feature","properties":{"NAME":"Équateur","NAME_LONG":"Équateur","LABELRANK":3},"geometry":{"type":"Point","coordinates":[-78.188,-1.259]}},{"type":"Feature","properties":{"NAME":"Porto Rico","NAME_LONG":"Porto Rico","LABELRANK":5},"geometry":{"type":"Point","coordinates":[-66.481,18.235]}},{"type":"Feature","properties":{"NAME":"Jamaïque","NAME_LONG":"Jamaïque","LABELRANK":4},"geometry":{"type":"Point","coordinates":[-77.319,18.137]}},{"type":"Feature","properties":{"NAME":"Cuba","NAME_LONG":"Cuba","LABELRANK":3},"geometry":{"type":"Point","coordinates":[-77.976,21.334]}},{"type":"Feature","properties":{"NAME":"Zimbabwe","NAME_LONG":"Zimbabwe","LABELRANK":3},"geometry":{"type":"Point","coordinates":[29.925,-18.912]}},{"type":"Feature","properties":{"NAME":"Botswana","NAME_LONG":"Botswana","LABELRANK":4},"geometry":{"type":"Point","coordinates":[24.179,-22.103]}},{"type":"Feature","properties":{"NAME":"Namibie","NAME_LONG":"Namibie","LABELRANK":3},"geometry":{"type":"Point","coordinates":[17.108,-20.575]}},{"type":"Feature","properties":{"NAME":"Sénégal","NAME_LONG":"Sénégal","LABELRANK":3},"geometry":{"type":"Point","coordinates":[-14.779,15.138]}},{"type":"Feature","properties":{"NAME":"Mali","NAME_LONG":"Mali","LABELRANK":3},"geometry":{"type":"Point","coordinates":[-2.038,18.693]}},{"type":"Feature","properties":{"NAME":"Mauritanie","NAME_LONG":"Mauritanie","LABELRANK":3},"geometry":{"type":"Point","coordinates":[-9.74,19.587]}},{"type":"Feature","properties":{"NAME":"Bénin","NAME_LONG":"Bénin","LABELRANK":5},"geometry":{"type":"Point","coordinates":[2.352,10.325]}},{"type":"Feature","properties":{"NAME":"Niger","NAME_LONG":"Niger","LABELRANK":3},"geometry":{"type":"Point","coordinates":[9.504,17.446]}},{"type":"Feature","properties":{"NAME":"Nigeria","NAME_LONG":"Nigeria","LABELRANK":2},"geometry":{"type":"Point","coordinates":[7.503,9.44]}},{"type":"Feature","properties":{"NAME":"Cameroun","NAME_LONG":"Cameroun","LABELRANK":3},"geometry":{"type":"Point","coordinates":[12.473,4.585]}},{"type":"Feature","properties":{"NAME":"Togo","NAME_LONG":"Togo","LABELRANK":6},"geometry":{"type":"Point","coordinates":[1.058,8.807]}},{"type":"Feature","properties":{"NAME":"Ghana","NAME_LONG":"Ghana","LABELRANK":3},"geometry":{"type":"Point","coordinates":[-1.037,7.718]}},{"type":"Feature","properties":{"NAME":"Côte d’Ivoire","NAME_LONG":"Côte d’Ivoire","LABELRANK":3},"geometry":{"type":"Point","coordinates":[-5.569,7.491]}},{"type":"Feature","properties":{"NAME":"Guinée","NAME_LONG":"Guinée","LABELRANK":3},"geometry":{"type":"Point","coordinates":[-10.016,10.619]}},{"type":"Feature","properties":{"NAME":"Guinée-Bissau","NAME_LONG":"Guinée-Bissau","LABELRANK":6},"geometry":{"type":"Point","coordinates":[-14.524,12.164]}},{"type":"Feature","properties":{"NAME":"Liberia","NAME_LONG":"Liberia","LABELRANK":4},"geometry":{"type":"Point","coordinates":[-9.46,6.447]}},{"type":"Feature","properties":{"NAME":"Sierra Leone","NAME_LONG":"Sierra Leone","LABELRANK":4},"geometry":{"type":"Point","coordinates":[-11.764,8.617]}},{"type":"Feature","properties":{"NAME":"Burkina Faso","NAME_LONG":"Burkina Faso","LABELRANK":3},"geometry":{"type":"Point","coordinates":[-1.364,12.673]}},{"type":"Feature","properties":{"NAME":"République centrafricaine","NAME_LONG":"République centrafricaine","LABELRANK":4},"geometry":{"type":"Point","coordinates":[20.907,6.99]}},{"type":"Feature","properties":{"NAME":"Congo-Brazzaville","NAME_LONG":"Congo-Brazzaville","LABELRANK":4},"geometry":{"type":"Point","coordinates":[15.9,0.142]}},{"type":"Feature","properties":{"NAME":"Gabon","NAME_LONG":"Gabon","LABELRANK":4},"geometry":{"type":"Point","coordinates":[11.836,-0.438]}},{"type":"Feature","properties":{"NAME":"Guinée équatoriale","NAME_LONG":"Guinée équatoriale","LABELRANK":4},"geometry":{"type":"Point","coordinates":[8.99,2.333]}},{"type":"Feature","properties":{"NAME":"Zambie","NAME_LONG":"Zambie","LABELRANK":3},"geometry":{"type":"Point","coordinates":[26.395,-14.661]}},{"type":"Feature","properties":{"NAME":"Malawi","NAME_LONG":"Malawi","LABELRANK":6},"geometry":{"type":"Point","coordinates":[33.608,-13.387]}},{"type":"Feature","properties":{"NAME":"Mozambique","NAME_LONG":"Mozambique","LABELRANK":3},"geometry":{"type":"Point","coordinates":[37.838,-13.943]}},{"type":"Feature","properties":{"NAME":"Eswatini","NAME_LONG":"Eswatini","LABELRANK":4},"geometry":{"type":"Point","coordinates":[31.467,-26.534]}},{"type":"Feature","properties":{"NAME":"Angola","NAME_LONG":"Angola","LABELRANK":3},"geometry":{"type":"Point","coordinates":[17.984,-12.183]}},{"type":"Feature","properties":{"NAME":"Burundi","NAME_LONG":"Burundi","LABELRANK":6},"geometry":{"type":"Point","coordinates":[29.917,-3.333]}},{"type":"Feature","properties":{"NAME":"Israël","NAME_LONG":"Israël","LABELRANK":4},"geometry":{"type":"Point","coordinates":[34.848,30.911]}},{"type":"Feature","properties":{"NAME":"Liban","NAME_LONG":"Liban","LABELRANK":5},"geometry":{"type":"Point","coordinates":[35.993,34.133]}},{"type":"Feature","properties":{"NAME":"Madagascar","NAME_LONG":"Madagascar","LABELRANK":3},"geometry":{"type":"Point","coordinates":[46.704,-18.628]}},{"type":"Feature","properties":{"NAME":"Territoires palestiniens","NAME_LONG":"Territoires palestiniens","LABELRANK":5},"geometry":{"type":"Point","coordinates":[35.291,32.047]}},{"type":"Feature","properties":{"NAME":"Gambie","NAME_LONG":"Gambie","LABELRANK":6},"geometry":{"type":"Point","coordinates":[-14.998,13.642]}},{"type":"Feature","properties":{"NAME":"Tunisie","NAME_LONG":"Tunisie","LABELRANK":3},"geometry":{"type":"Point","coordinates":[9.008,33.687]}},{"type":"Feature","properties":{"NAME":"Algérie","NAME_LONG":"Algérie","LABELRANK":3},"geometry":{"type":"Point","coordinates":[2.808,27.397]}},{"type":"Feature","properties":{"NAME":"Jordanie","NAME_LONG":"Jordanie","LABELRANK":4},"geometry":{"type":"Point","coordinates":[36.376,30.805]}},{"type":"Feature","properties":{"NAME":"Émirats arabes unis","NAME_LONG":"Émirats arabes unis","LABELRANK":4},"geometry":{"type":"Point","coordinates":[54.547,23.466]}},{"type":"Feature","properties":{"NAME":"Qatar","NAME_LONG":"Qatar","LABELRANK":5},"geometry":{"type":"Point","coordinates":[51.144,25.237]}},{"type":"Feature","properties":{"NAME":"Koweït","NAME_LONG":"Koweït","LABELRANK":6},"geometry":{"type":"Point","coordinates":[47.314,29.414]}},{"type":"Feature","properties":{"NAME":"Irak","NAME_LONG":"Irak","LABELRANK":3},"geometry":{"type":"Point","coordinates":[43.262,33.094]}},{"type":"Feature","properties":{"NAME":"Oman","NAME_LONG":"Oman","LABELRANK":4},"geometry":{"type":"Point","coordinates":[57.337,22.12]}},{"type":"Feature","properties":{"NAME":"Vanuatu","NAME_LONG":"Vanuatu","LABELRANK":4},"geometry":{"type":"Point","coordinates":[166.909,-15.372]}},{"type":"Feature","properties":{"NAME":"Cambodge","NAME_LONG":"Cambodge","LABELRANK":3},"geometry":{"type":"Point","coordinates":[104.505,12.648]}},{"type":"Feature","properties":{"NAME":"Thaïlande","NAME_LONG":"Thaïlande","LABELRANK":3},"geometry":{"type":"Point","coordinates":[101.073,15.46]}},{"type":"Feature","properties":{"NAME":"Laos","NAME_LONG":"Laos","LABELRANK":4},"geometry":{"type":"Point","coordinates":[102.534,19.432]}},{"type":"Feature","properties":{"NAME":"Myanmar (Birmanie)","NAME_LONG":"Myanmar (Birmanie)","LABELRANK":3},"geometry":{"type":"Point","coordinates":[95.804,21.574]}},{"type":"Feature","properties":{"NAME":"Viêt Nam","NAME_LONG":"Viêt Nam","LABELRANK":2},"geometry":{"type":"Point","coordinates":[105.387,21.715]}},{"type":"Feature","properties":{"NAME":"Corée du Nord","NAME_LONG":"Corée du Nord","LABELRANK":3},"geometry":{"type":"Point","coordinates":[126.445,39.885]}},{"type":"Feature","properties":{"NAME":"Corée du Sud","NAME_LONG":"Corée du Sud","LABELRANK":2},"geometry":{"type":"Point","coordinates":[128.13,36.385]}},{"type":"Feature","properties":{"NAME":"Mongolie","NAME_LONG":"Mongolie","LABELRANK":3},"geometry":{"type":"Point","coordinates":[104.15,45.997]}},{"type":"Feature","properties":{"NAME":"Inde","NAME_LONG":"Inde","LABELRANK":2},"geometry":{"type":"Point","coordinates":[79.358,22.687]}},{"type":"Feature","properties":{"NAME":"Bangladesh","NAME_LONG":"Bangladesh","LABELRANK":3},"geometry":{"type":"Point","coordinates":[89.685,24.215]}},{"type":"Feature","properties":{"NAME":"Bhoutan","NAME_LONG":"Bhoutan","LABELRANK":5},"geometry":{"type":"Point","coordinates":[90.04,27.537]}},{"type":"Feature","properties":{"NAME":"Népal","NAME_LONG":"Népal","LABELRANK":3},"geometry":{"type":"Point","coordinates":[83.64,28.298]}},{"type":"Feature","properties":{"NAME":"Pakistan","NAME_LONG":"Pakistan","LABELRANK":2},"geometry":{"type":"Point","coordinates":[68.546,29.328]}},{"type":"Feature","properties":{"NAME":"Afghanistan","NAME_LONG":"Afghanistan","LABELRANK":3},"geometry":{"type":"Point","coordinates":[66.497,34.164]}},{"type":"Feature","properties":{"NAME":"Tadjikistan","NAME_LONG":"Tadjikistan","LABELRANK":4},"geometry":{"type":"Point","coordinates":[72.587,38.2]}},{"type":"Feature","properties":{"NAME":"Kirghizstan","NAME_LONG":"Kirghizstan","LABELRANK":4},"geometry":{"type":"Point","coordinates":[74.533,41.669]}},{"type":"Feature","properties":{"NAME":"Turkménistan","NAME_LONG":"Turkménistan","LABELRANK":4},"geometry":{"type":"Point","coordinates":[58.677,39.855]}},{"type":"Feature","properties":{"NAME":"Iran","NAME_LONG":"Iran","LABELRANK":2},"geometry":{"type":"Point","coordinates":[54.931,32.166]}},{"type":"Feature","properties":{"NAME":"Syrie","NAME_LONG":"Syrie","LABELRANK":3},"geometry":{"type":"Point","coordinates":[38.278,35.007]}},{"type":"Feature","properties":{"NAME":"Arménie","NAME_LONG":"Arménie","LABELRANK":6},"geometry":{"type":"Point","coordinates":[44.801,40.459]}},{"type":"Feature","properties":{"NAME":"Suède","NAME_LONG":"Suède","LABELRANK":3},"geometry":{"type":"Point","coordinates":[19.017,65.859]}},{"type":"Feature","properties":{"NAME":"Biélorussie","NAME_LONG":"Biélorussie","LABELRANK":4},"geometry":{"type":"Point","coordinates":[28.418,53.822]}},{"type":"Feature","properties":{"NAME":"Ukraine","NAME_LONG":"Ukraine","LABELRANK":3},"geometry":{"type":"Point","coordinates":[32.141,49.725]}},{"type":"Feature","properties":{"NAME":"Pologne","NAME_LONG":"Pologne","LABELRANK":3},"geometry":{"type":"Point","coordinates":[19.49,51.99]}},{"type":"Feature","properties":{"NAME":"Autriche","NAME_LONG":"Autriche","LABELRANK":4},"geometry":{"type":"Point","coordinates":[14.131,47.519]}},{"type":"Feature","properties":{"NAME":"Hongrie","NAME_LONG":"Hongrie","LABELRANK":5},"geometry":{"type":"Point","coordinates":[19.448,47.087]}},{"type":"Feature","properties":{"NAME":"Moldavie","NAME_LONG":"Moldavie","LABELRANK":6},"geometry":{"type":"Point","coordinates":[28.488,47.435]}},{"type":"Feature","properties":{"NAME":"Roumanie","NAME_LONG":"Roumanie","LABELRANK":3},"geometry":{"type":"Point","coordinates":[24.973,45.733]}},{"type":"Feature","properties":{"NAME":"Lituanie","NAME_LONG":"Lituanie","LABELRANK":5},"geometry":{"type":"Point","coordinates":[24.09,55.104]}},{"type":"Feature","properties":{"NAME":"Lettonie","NAME_LONG":"Lettonie","LABELRANK":5},"geometry":{"type":"Point","coordinates":[25.459,57.067]}},{"type":"Feature","properties":{"NAME":"Estonie","NAME_LONG":"Estonie","LABELRANK":6},"geometry":{"type":"Point","coordinates":[25.867,58.725]}},{"type":"Feature","properties":{"NAME":"Allemagne","NAME_LONG":"Allemagne","LABELRANK":2},"geometry":{"type":"Point","coordinates":[9.678,50.962]}},{"type":"Feature","properties":{"NAME":"Bulgarie","NAME_LONG":"Bulgarie","LABELRANK":4},"geometry":{"type":"Point","coordinates":[25.157,42.509]}},{"type":"Feature","properties":{"NAME":"Grèce","NAME_LONG":"Grèce","LABELRANK":3},"geometry":{"type":"Point","coordinates":[21.726,39.493]}},{"type":"Feature","properties":{"NAME":"Turquie","NAME_LONG":"Turquie","LABELRANK":2},"geometry":{"type":"Point","coordinates":[34.508,39.345]}},{"type":"Feature","properties":{"NAME":"Albanie","NAME_LONG":"Albanie","LABELRANK":6},"geometry":{"type":"Point","coordinates":[20.114,40.655]}},{"type":"Feature","properties":{"NAME":"Croatie","NAME_LONG":"Croatie","LABELRANK":6},"geometry":{"type":"Point","coordinates":[16.372,45.806]}},{"type":"Feature","properties":{"NAME":"Suisse","NAME_LONG":"Suisse","LABELRANK":4},"geometry":{"type":"Point","coordinates":[7.464,46.719]}},{"type":"Feature","properties":{"NAME":"Luxembourg","NAME_LONG":"Luxembourg","LABELRANK":6},"geometry":{"type":"Point","coordinates":[6.078,49.734]}},{"type":"Feature","properties":{"NAME":"Belgique","NAME_LONG":"Belgique","LABELRANK":2},"geometry":{"type":"Point","coordinates":[4.8,50.785]}},{"type":"Feature","properties":{"NAME":"Pays-Bas","NAME_LONG":"Pays-Bas","LABELRANK":5},"geometry":{"type":"Point","coordinates":[5.611,52.422]}},{"type":"Feature","properties":{"NAME":"Portugal","NAME_LONG":"Portugal","LABELRANK":2},"geometry":{"type":"Point","coordinates":[-8.272,39.607]}},{"type":"Feature","properties":{"NAME":"Espagne","NAME_LONG":"Espagne","LABELRANK":2},"geometry":{"type":"Point","coordinates":[-3.465,40.091]}},{"type":"Feature","properties":{"NAME":"Irlande","NAME_LONG":"Irlande","LABELRANK":3},"geometry":{"type":"Point","coordinates":[-7.799,53.079]}},{"type":"Feature","properties":{"NAME":"Nouvelle-Calédonie","NAME_LONG":"Nouvelle-Calédonie","LABELRANK":3},"geometry":{"type":"Point","coordinates":[165.084,-21.065]}},{"type":"Feature","properties":{"NAME":"Îles Salomon","NAME_LONG":"Îles Salomon","LABELRANK":3},"geometry":{"type":"Point","coordinates":[159.17,-8.03]}},{"type":"Feature","properties":{"NAME":"Nouvelle-Zélande","NAME_LONG":"Nouvelle-Zélande","LABELRANK":2},"geometry":{"type":"Point","coordinates":[172.787,-39.759]}},{"type":"Feature","properties":{"NAME":"Australie","NAME_LONG":"Australie","LABELRANK":2},"geometry":{"type":"Point","coordinates":[134.05,-24.13]}},{"type":"Feature","properties":{"NAME":"Sri Lanka","NAME_LONG":"Sri Lanka","LABELRANK":3},"geometry":{"type":"Point","coordinates":[80.705,7.581]}},{"type":"Feature","properties":{"NAME":"Chine","NAME_LONG":"Chine","LABELRANK":2},"geometry":{"type":"Point","coordinates":[106.337,32.498]}},{"type":"Feature","properties":{"NAME":"Taïwan","NAME_LONG":"Taïwan","LABELRANK":3},"geometry":{"type":"Point","coordinates":[120.868,23.652]}},{"type":"Feature","properties":{"NAME":"Italie","NAME_LONG":"Italie","LABELRANK":2},"geometry":{"type":"Point","coordinates":[11.077,44.732]}},{"type":"Feature","properties":{"NAME":"Danemark","NAME_LONG":"Danemark","LABELRANK":4},"geometry":{"type":"Point","coordinates":[9.018,55.967]}},{"type":"Feature","properties":{"NAME":"Royaume-Uni","NAME_LONG":"Royaume-Uni","LABELRANK":2},"geometry":{"type":"Point","coordinates":[-2.116,54.403]}},{"type":"Feature","properties":{"NAME":"Islande","NAME_LONG":"Islande","LABELRANK":3},"geometry":{"type":"Point","coordinates":[-18.674,64.779]}},{"type":"Feature","properties":{"NAME":"Azerbaïdjan","NAME_LONG":"Azerbaïdjan","LABELRANK":5},"geometry":{"type":"Point","coordinates":[47.211,40.402]}},{"type":"Feature","properties":{"NAME":"Géorgie","NAME_LONG":"Géorgie","LABELRANK":5},"geometry":{"type":"Point","coordinates":[43.736,41.87]}},{"type":"Feature","properties":{"NAME":"Philippines","NAME_LONG":"Philippines","LABELRANK":2},"geometry":{"type":"Point","coordinates":[122.465,11.198]}},{"type":"Feature","properties":{"NAME":"Malaisie","NAME_LONG":"Malaisie","LABELRANK":3},"geometry":{"type":"Point","coordinates":[113.837,2.529]}},{"type":"Feature","properties":{"NAME":"Brunei","NAME_LONG":"Brunei","LABELRANK":6},"geometry":{"type":"Point","coordinates":[114.552,4.448]}},{"type":"Feature","properties":{"NAME":"Slovénie","NAME_LONG":"Slovénie","LABELRANK":6},"geometry":{"type":"Point","coordinates":[14.915,46.061]}},{"type":"Feature","properties":{"NAME":"Finlande","NAME_LONG":"Finlande","LABELRANK":3},"geometry":{"type":"Point","coordinates":[27.276,63.252]}},{"type":"Feature","properties":{"NAME":"Slovaquie","NAME_LONG":"Slovaquie","LABELRANK":6},"geometry":{"type":"Point","coordinates":[19.05,48.734]}},{"type":"Feature","properties":{"NAME":"Tchéquie","NAME_LONG":"Tchéquie","LABELRANK":5},"geometry":{"type":"Point","coordinates":[15.378,49.882]}},{"type":"Feature","properties":{"NAME":"Érythrée","NAME_LONG":"Érythrée","LABELRANK":4},"geometry":{"type":"Point","coordinates":[38.286,15.787]}},{"type":"Feature","properties":{"NAME":"Japon","NAME_LONG":"Japon","LABELRANK":2},"geometry":{"type":"Point","coordinates":[138.442,36.143]}},{"type":"Feature","properties":{"NAME":"Paraguay","NAME_LONG":"Paraguay","LABELRANK":4},"geometry":{"type":"Point","coordinates":[-60.146,-21.675]}},{"type":"Feature","properties":{"NAME":"Yémen","NAME_LONG":"Yémen","LABELRANK":3},"geometry":{"type":"Point","coordinates":[45.874,15.328]}},{"type":"Feature","properties":{"NAME":"Arabie saoudite","NAME_LONG":"Arabie saoudite","LABELRANK":2},"geometry":{"type":"Point","coordinates":[44.7,23.807]}},{"type":"Feature","properties":{"NAME":"Antarctique","NAME_LONG":"Antarctique","LABELRANK":4},"geometry":{"type":"Point","coordinates":[35.885,-79.843]}},{"type":"Feature","properties":{"NAME":"N. Cyprus","NAME_LONG":"N. Cyprus","LABELRANK":6},"geometry":{"type":"Point","coordinates":[33.692,35.216]}},{"type":"Feature","properties":{"NAME":"Chypre","NAME_LONG":"Chypre","LABELRANK":5},"geometry":{"type":"Point","coordinates":[33.084,34.913]}},{"type":"Feature","properties":{"NAME":"Maroc","NAME_LONG":"Maroc","LABELRANK":3},"geometry":{"type":"Point","coordinates":[-7.187,31.651]}},{"type":"Feature","properties":{"NAME":"Égypte","NAME_LONG":"Égypte","LABELRANK":2},"geometry":{"type":"Point","coordinates":[29.446,26.186]}},{"type":"Feature","properties":{"NAME":"Libye","NAME_LONG":"Libye","LABELRANK":3},"geometry":{"type":"Point","coordinates":[18.011,26.639]}},{"type":"Feature","properties":{"NAME":"Éthiopie","NAME_LONG":"Éthiopie","LABELRANK":2},"geometry":{"type":"Point","coordinates":[39.089,8.033]}},{"type":"Feature","properties":{"NAME":"Djibouti","NAME_LONG":"Djibouti","LABELRANK":5},"geometry":{"type":"Point","coordinates":[42.499,11.976]}},{"type":"Feature","properties":{"NAME":"Somaliland","NAME_LONG":"Somaliland","LABELRANK":5},"geometry":{"type":"Point","coordinates":[46.732,9.444]}},{"type":"Feature","properties":{"NAME":"Ouganda","NAME_LONG":"Ouganda","LABELRANK":3},"geometry":{"type":"Point","coordinates":[32.949,1.973]}},{"type":"Feature","properties":{"NAME":"Rwanda","NAME_LONG":"Rwanda","LABELRANK":3},"geometry":{"type":"Point","coordinates":[30.104,-1.897]}},{"type":"Feature","properties":{"NAME":"Bosnie-Herzégovine","NAME_LONG":"Bosnie-Herzégovine","LABELRANK":5},"geometry":{"type":"Point","coordinates":[18.068,44.091]}},{"type":"Feature","properties":{"NAME":"Macédoine du Nord","NAME_LONG":"Macédoine du Nord","LABELRANK":6},"geometry":{"type":"Point","coordinates":[21.556,41.558]}},{"type":"Feature","properties":{"NAME":"Serbie","NAME_LONG":"Serbie","LABELRANK":5},"geometry":{"type":"Point","coordinates":[20.788,44.19]}},{"type":"Feature","properties":{"NAME":"Monténégro","NAME_LONG":"Monténégro","LABELRANK":6},"geometry":{"type":"Point","coordinates":[19.144,42.803]}},{"type":"Feature","properties":{"NAME":"Kosovo","NAME_LONG":"Kosovo","LABELRANK":6},"geometry":{"type":"Point","coordinates":[20.861,42.594]}},{"type":"Feature","properties":{"NAME":"Trinité-et-Tobago","NAME_LONG":"Trinité-et-Tobago","LABELRANK":5},"geometry":{"type":"Point","coordinates":[-60.918,10.999]}},{"type":"Feature","properties":{"NAME":"Soudan du Sud","NAME_LONG":"Soudan du Sud","LABELRANK":3},"geometry":{"type":"Point","coordinates":[30.39,7.23]}}]}